{
"type": "FeatureCollection",
"name": "santo_antonio",
"crs": { "type": "name", "properties": { "name": "urn:ogc:def:crs:EPSG::4979" } },
"features": [
{ "type": "Feature", "properties": { "lote": "SANTO_ANTONIO-01", "area_ha": 17.9 }, "geometry": { "type": "Polygon", "coordinates": [ [ [ -50.656787004254021, -23.49610697269555, 0.0 ], [ -50.656804150590688, -23.49616627350364, 0.0 ], [ -50.656774402307299, -23.496201537869222, 0.0 ], [ -50.656708116519923, -23.496201026446446, 0.0 ], [ -50.656678103312274, -23.496168275176938, 0.0 ], [ -50.656627525245547, -23.496135113185819, 0.0 ], [ -50.656554660322804, -23.496118997164803, 0.0 ], [ -50.656492836961021, -23.49613367664584, 0.0 ], [ -50.65641575552479, -23.496164129052602, 0.0 ], [ -50.656370157756179, -23.496127231725524, 0.0 ], [ -50.656284327050251, -23.496117392714837, 0.0 ], [ -50.656198496416181, -23.496097714265932, 0.0 ], [ -50.656118030362919, -23.496085415635896, 0.0 ], [ -50.656026835627621, -23.496070656241006, 0.0 ], [ -50.655977777648644, -23.496081442228469, 0.0 ], [ -50.655947719107154, -23.49610268346629, 0.0 ], [ -50.655920538050424, -23.496136084160774, 0.0 ], [ -50.655917411866177, -23.496271318787997, 0.0 ], [ -50.65590744075277, -23.496494081582028, 0.0 ], [ -50.656112457093919, -23.496526025082495, 0.0 ], [ -50.656159277804917, -23.496578553402063, 0.0 ], [ -50.656249625087163, -23.49661427691013, 0.0 ], [ -50.65640490213034, -23.496687364236983, 0.0 ], [ -50.656458670528551, -23.496668522045788, 0.0 ], [ -50.656547184081035, -23.496702959482327, 0.0 ], [ -50.656579370227732, -23.496754615640818, 0.0 ], [ -50.656600832198762, -23.496814789795383, 0.0 ], [ -50.656584734567765, -23.49685054729548, 0.0 ], [ -50.656533773266389, -23.49683824886613, 0.0 ], [ -50.656504268039249, -23.496833328713471, 0.0 ], [ -50.656488175267583, -23.496921882074375, 0.0 ], [ -50.656455988797738, -23.496948940117026, 0.0 ], [ -50.656447537817229, -23.496961692229711, 0.0 ], [ -50.656371135916828, -23.496938023899929, 0.0 ], [ -50.656285387415998, -23.496910717173414, 0.0 ], [ -50.656221838639723, -23.496884784451897, 0.0 ], [ -50.656174728320316, -23.496875691571418, 0.0 ], [ -50.656032576056951, -23.496829148596383, 0.0 ], [ -50.655894791692219, -23.496778492853252, 0.0 ], [ -50.655887075336629, -23.49696636713567, 0.0 ], [ -50.655877953628405, -23.497130160266192, 0.0 ], [ -50.65586626538429, -23.497363068243679, 0.0 ], [ -50.655862249270648, -23.497518002882103, 0.0 ], [ -50.655856415567364, -23.497628990010494, 0.0 ], [ -50.655852667863016, -23.497730567518015, 0.0 ], [ -50.655846519900948, -23.497876244439041, 0.0 ], [ -50.655840678464592, -23.497982255775035, 0.0 ], [ -50.655836630940449, -23.498115019179519, 0.0 ], [ -50.65675829635871, -23.498466030158163, 0.0 ], [ -50.657602333727326, -23.498772010472035, 0.0 ], [ -50.658754214723793, -23.499190921796995, 0.0 ], [ -50.659912655725762, -23.499624623187962, 0.0 ], [ -50.660501414605264, -23.499837124214274, 0.0 ], [ -50.660855527638724, -23.499976563383076, 0.0 ], [ -50.660890395609798, -23.49994950576059, 0.0 ], [ -50.660903807048314, -23.499440337260694, 0.0 ], [ -50.660906488949891, -23.498652114224566, 0.0 ], [ -50.660970861933734, -23.497196338597234, 0.0 ], [ -50.660973544349815, -23.49701185377717, 0.0 ], [ -50.661009009672661, -23.496707660360389, 0.0 ], [ -50.660968776497185, -23.496653544227925, 0.0 ], [ -50.66096609525151, -23.496599428502115, 0.0 ], [ -50.66098755266065, -23.496530553363858, 0.0 ], [ -50.660974141424646, -23.496451839743198, 0.0 ], [ -50.660976823897414, -23.496319009693234, 0.0 ], [ -50.660990234633992, -23.49620339866334, 0.0 ], [ -50.661006327894981, -23.496087787143463, 0.0 ], [ -50.660995599318525, -23.495931309026457, 0.0 ], [ -50.660979505651596, -23.495887032414775, 0.0 ], [ -50.660928544151318, -23.495869813464939, 0.0 ], [ -50.660815891186154, -23.495891952390082, 0.0 ], [ -50.660676416641216, -23.4959485280663, 0.0 ], [ -50.660491343325027, -23.496069059241293, 0.0 ], [ -50.660274110162959, -23.496129430279382, 0.0 ], [ -50.660057675616002, -23.496201897390154, 0.0 ], [ -50.659958781565294, -23.496216497369634, 0.0 ], [ -50.659869071287183, -23.496209269106327, 0.0 ], [ -50.659783240893738, -23.49620680908205, 0.0 ], [ -50.659692045642167, -23.496192050020259, 0.0 ], [ -50.659657176497277, -23.496147773821278, 0.0 ], [ -50.659587439635857, -23.496128094448252, 0.0 ], [ -50.65950697278803, -23.496118255379532, 0.0 ], [ -50.659423824201902, -23.496098577337328, 0.0 ], [ -50.659348723103513, -23.496096117040072, 0.0 ], [ -50.659281667926699, -23.496135474333958, 0.0 ], [ -50.659152921347641, -23.496140393826739, 0.0 ], [ -50.659096595110817, -23.496105956929554, 0.0 ], [ -50.659021493037088, -23.496103496472443, 0.0 ], [ -50.658927616233889, -23.496078898026266, 0.0 ], [ -50.658852514284263, -23.496049380737805, 0.0 ], [ -50.658750590042061, -23.495997724074986, 0.0 ], [ -50.658653934147139, -23.495976056834273, 0.0 ], [ -50.658533234017149, -23.495951458101789, 0.0 ], [ -50.658436674569039, -23.495944078968847, 0.0 ], [ -50.658310611331125, -23.495914560806021, 0.0 ], [ -50.658160407773742, -23.49589242264798, 0.0 ], [ -50.65801556849101, -23.49588504301374, 0.0 ], [ -50.657822448665463, -23.495850605260529, 0.0 ], [ -50.65769848347712, -23.495816168353691, 0.0 ], [ -50.657532186332865, -23.495786649694669, 0.0 ], [ -50.657371253919607, -23.495779270223025, 0.0 ], [ -50.657237142957037, -23.495742373600695, 0.0 ], [ -50.657129854517265, -23.495695636877741, 0.0 ], [ -50.657017202054213, -23.495639060624789, 0.0 ], [ -50.656946515887512, -23.495588772320296, 0.0 ], [ -50.656774990462729, -23.495497220681877, 0.0 ], [ -50.656649739322837, -23.495469332307923, 0.0 ], [ -50.656568821588934, -23.495422687615338, 0.0 ], [ -50.656505889860689, -23.495388358682749, 0.0 ], [ -50.656412086541735, -23.495345983938599, 0.0 ], [ -50.656309099090933, -23.495366018800318, 0.0 ], [ -50.656260819593633, -23.495326662226113, 0.0 ], [ -50.656217042290663, -23.495270335264635, 0.0 ], [ -50.656177565206185, -23.495245175336727, 0.0 ], [ -50.656137878847879, -23.495219045403243, 0.0 ], [ -50.656099043249668, -23.495181217654931, 0.0 ], [ -50.656047804233822, -23.495158796276232, 0.0 ], [ -50.656016444257752, -23.495132557133637, 0.0 ], [ -50.65594941746928, -23.495150246778632, 0.0 ], [ -50.655975160992284, -23.495232449081218, 0.0 ], [ -50.655969885492439, -23.495753011517113, 0.0 ], [ -50.656136806123861, -23.495795155734008, 0.0 ], [ -50.656249458525771, -23.495817294297773, 0.0 ], [ -50.656402344092491, -23.495864031009724, 0.0 ], [ -50.656536454869013, -23.495920607131897, 0.0 ], [ -50.656643743797972, -23.49595504434588, 0.0 ], [ -50.656734072848785, -23.496028218599644, 0.0 ], [ -50.656787004254021, -23.49610697269555, 0.0 ] ] ] } },
{ "type": "Feature", "properties": { "lote": "SANTO_ANTONIO-02", "area_ha": 119.15 }, "geometry": { "type": "Polygon", "coordinates": [ [ [ -50.655054646759062, -23.480869113559972, 0.0 ], [ -50.656106700162496, -23.481118747547367, 0.0 ], [ -50.656462328755687, -23.481201588308537, 0.0 ], [ -50.656562258636612, -23.48125993196528, 0.0 ], [ -50.656508845722819, -23.482800656118926, 0.0 ], [ -50.656304547904575, -23.487732721053572, 0.0 ], [ -50.656251222681952, -23.48924889860649, 0.0 ], [ -50.656197821994567, -23.48981695107096, 0.0 ], [ -50.656191445781225, -23.489893295213076, 0.0 ], [ -50.656129666707756, -23.492273939075041, 0.0 ], [ -50.656074196751376, -23.492893271801105, 0.0 ], [ -50.656042010351278, -23.493400005922215, 0.0 ], [ -50.656030312016043, -23.494371860061921, 0.0 ], [ -50.656028215716027, -23.494703500583263, 0.0 ], [ -50.656118361661903, -23.494726493026839, 0.0 ], [ -50.656198840892579, -23.494665128211988, 0.0 ], [ -50.656269254289043, -23.494673261268321, 0.0 ], [ -50.656320023784218, -23.494632344984399, 0.0 ], [ -50.65641254547576, -23.494589646219946, 0.0 ], [ -50.656530562565159, -23.494569967464813, 0.0 ], [ -50.656635697203662, -23.494555048067355, 0.0 ], [ -50.656810040186066, -23.494550128996824, 0.0 ], [ -50.656929381889697, -23.494569866000937, 0.0 ], [ -50.657052950379629, -23.494570138002352, 0.0 ], [ -50.657274062125701, -23.49456734781808, 0.0 ], [ -50.657440359144616, -23.494594406215892, 0.0 ], [ -50.657595927330021, -23.494660821923514, 0.0 ], [ -50.657700533754166, -23.494741997087377, 0.0 ], [ -50.657834644257278, -23.494842850721938, 0.0 ], [ -50.657941932916394, -23.494911726274818, 0.0 ], [ -50.658100182511781, -23.494946164144022, 0.0 ], [ -50.658224534131335, -23.49495846316513, 0.0 ], [ -50.658313585906157, -23.494960396568558, 0.0 ], [ -50.658393864552316, -23.494976528018309, 0.0 ], [ -50.658514750660594, -23.495058849524845, 0.0 ], [ -50.658618255065996, -23.495173043735758, 0.0 ], [ -50.658699608168945, -23.495251859462353, 0.0 ], [ -50.658782220531876, -23.495321560510831, 0.0 ], [ -50.658893268580876, -23.495385625395233, 0.0 ], [ -50.659047071610622, -23.495452011665346, 0.0 ], [ -50.659151273396525, -23.495485341625702, 0.0 ], [ -50.659267328995242, -23.495524344366988, 0.0 ], [ -50.659397053446789, -23.495533745372342, 0.0 ], [ -50.659529243451807, -23.495545431005485, 0.0 ], [ -50.659676188659297, -23.495585640608521, 0.0 ], [ -50.659834234739485, -23.495633852027215, 0.0 ], [ -50.660057813728031, -23.495666250828936, 0.0 ], [ -50.660307535216745, -23.495623487804497, 0.0 ], [ -50.660591975656104, -23.495534073360925, 0.0 ], [ -50.660781186454862, -23.495455361067808, 0.0 ], [ -50.66091797927519, -23.495379106082151, 0.0 ], [ -50.660970170992435, -23.495243814822388, 0.0 ], [ -50.660996993411551, -23.49505194760286, 0.0 ], [ -50.661018451455554, -23.494884678485036, 0.0 ], [ -50.661037226586721, -23.494754306905801, 0.0 ], [ -50.661069413595285, -23.494633774985495, 0.0 ], [ -50.661109645855007, -23.493811179420085, 0.0 ], [ -50.661140059784373, -23.493155090587191, 0.0 ], [ -50.661156152491749, -23.492653274695193, 0.0 ], [ -50.661196385882327, -23.491850035220999, 0.0 ], [ -50.661239301411577, -23.490829002318133, 0.0 ], [ -50.661309038986886, -23.489452749505197, 0.0 ], [ -50.661327813816229, -23.488667591801466, 0.0 ], [ -50.661373411680778, -23.487572401531764, 0.0 ], [ -50.661416327521792, -23.486501668739663, 0.0 ], [ -50.6614699713882, -23.485539692086128, 0.0 ], [ -50.661496793091942, -23.484465724615259, 0.0 ], [ -50.661558484588426, -23.483267202868888, 0.0 ], [ -50.661590132204168, -23.482522748872636, 0.0 ], [ -50.661606226200391, -23.481942658628064, 0.0 ], [ -50.661638412394581, -23.481298520166852, 0.0 ], [ -50.661657188138157, -23.480698105550694, 0.0 ], [ -50.661686692535305, -23.48014915408363, 0.0 ], [ -50.661710831610556, -23.47956358284549, 0.0 ], [ -50.66175105968469, -23.478908307916814, 0.0 ], [ -50.661791324552453, -23.478050350394131, 0.0 ], [ -50.661835445230658, -23.477574634054054, 0.0 ], [ -50.661839769925329, -23.477454350301972, 0.0 ], [ -50.661853276437604, -23.477269779755733, 0.0 ], [ -50.661876533011572, -23.477037379795181, 0.0 ], [ -50.661885329168001, -23.47691211622152, 0.0 ], [ -50.661890820167592, -23.476841763218186, 0.0 ], [ -50.661893638499556, -23.476801480014061, 0.0 ], [ -50.661896038939972, -23.476773304160471, 0.0 ], [ -50.661783545976988, -23.476743981114236, 0.0 ], [ -50.661727985380935, -23.476729044779479, 0.0 ], [ -50.661651010137433, -23.476728993490635, 0.0 ], [ -50.661618823596619, -23.476630586352986, 0.0 ], [ -50.661589319128318, -23.476569082175136, 0.0 ], [ -50.661538357155415, -23.47653955988519, 0.0 ], [ -50.661468619457409, -23.476532179542573, 0.0 ], [ -50.661404246358615, -23.476546940253979, 0.0 ], [ -50.661331827397163, -23.47659368393154, 0.0 ], [ -50.661240179364221, -23.476640230555763, 0.0 ], [ -50.661175801426559, -23.476691376137754, 0.0 ], [ -50.661087904900114, -23.476759565728287, 0.0 ], [ -50.661015326658735, -23.476815099819824, 0.0 ], [ -50.660953636103592, -23.476879065075359, 0.0 ], [ -50.660865122711769, -23.476920887695783, 0.0 ], [ -50.660776610037274, -23.477004533892348, 0.0 ], [ -50.66069614359693, -23.477083259320825, 0.0 ], [ -50.660612994781076, -23.477208728071631, 0.0 ], [ -50.660535211264424, -23.47730467484698, 0.0 ], [ -50.660452062724346, -23.477415383024823, 0.0 ], [ -50.660393053638437, -23.477491647514594, 0.0 ], [ -50.660358679027226, -23.477587093894858, 0.0 ], [ -50.66031694160116, -23.477722624514445, 0.0 ], [ -50.66028308301361, -23.477828393303103, 0.0 ], [ -50.660258943803512, -23.478030126884359, 0.0 ], [ -50.660256261096492, -23.478140833219541, 0.0 ], [ -50.66021178229169, -23.478259183143724, 0.0 ], [ -50.660160830539851, -23.478374179443104, 0.0 ], [ -50.660065618540244, -23.478644645097145, 0.0 ], [ -50.660032770217164, -23.478927213286987, 0.0 ], [ -50.660041684810182, -23.479064563761128, 0.0 ], [ -50.660068506485324, -23.479259624322363, 0.0 ], [ -50.660071189337181, -23.479424453244992, 0.0 ], [ -50.660071188715811, -23.479478575896689, 0.0 ], [ -50.660034282326876, -23.47964140172207, 0.0 ], [ -50.659988684390505, -23.479833291452447, 0.0 ], [ -50.65996333846752, -23.479985251562745, 0.0 ], [ -50.659967451077392, -23.480067887077961, 0.0 ], [ -50.659995753338514, -23.480112966026098, 0.0 ], [ -50.66008699862639, -23.480185534453735, 0.0 ], [ -50.660181901034385, -23.480277485299766, 0.0 ], [ -50.660347279706698, -23.480350215149123, 0.0 ], [ -50.660477455497173, -23.480418879293964, 0.0 ], [ -50.66053547838488, -23.480437810309837, 0.0 ], [ -50.660576757151979, -23.480481777731963, 0.0 ], [ -50.66057847924624, -23.480533066922238, 0.0 ], [ -50.660553990733291, -23.480687439762498, 0.0 ], [ -50.660552238932375, -23.480889158674852, 0.0 ], [ -50.66053580624596, -23.481033861795687, 0.0 ], [ -50.660494772033651, -23.481199580241881, 0.0 ], [ -50.66044679417422, -23.48129522366952, 0.0 ], [ -50.660408110969954, -23.48144386716918, 0.0 ], [ -50.660372047638802, -23.481534392872273, 0.0 ], [ -50.660322363858683, -23.481636285650978, 0.0 ], [ -50.66027523286909, -23.481706273039578, 0.0 ], [ -50.660212677691149, -23.481768249060671, 0.0 ], [ -50.660098063639204, -23.481894503263174, 0.0 ], [ -50.660057458431282, -23.48199618560982, 0.0 ], [ -50.66007216191457, -23.482095469913499, 0.0 ], [ -50.660136535173258, -23.482208633882117, 0.0 ], [ -50.660118760253646, -23.482255825743536, 0.0 ], [ -50.660066119980492, -23.482305856715591, 0.0 ], [ -50.660006738073136, -23.482334788957026, 0.0 ], [ -50.659922732377517, -23.482329477175309, 0.0 ], [ -50.659815883238949, -23.482318417119835, 0.0 ], [ -50.659693027256978, -23.482285668202504, 0.0 ], [ -50.65959850491226, -23.482290694566316, 0.0 ], [ -50.659501499160442, -23.482290948357857, 0.0 ], [ -50.659275288698176, -23.482329772921563, 0.0 ], [ -50.659170849258246, -23.482342650889091, 0.0 ], [ -50.659063869809529, -23.482382305619012, 0.0 ], [ -50.658979134988286, -23.482420299424501, 0.0 ], [ -50.658916874499191, -23.482445720880779, 0.0 ], [ -50.658854789985519, -23.482486128568418, 0.0 ], [ -50.658814951100254, -23.482509682083048, 0.0 ], [ -50.658777399642432, -23.482534282872976, 0.0 ], [ -50.658755941929392, -23.482600705439594, 0.0 ], [ -50.658699615874141, -23.482617925974875, 0.0 ], [ -50.658635242656231, -23.482647446873315, 0.0 ], [ -50.658564031426245, -23.482640487937321, 0.0 ], [ -50.658471248925487, -23.48268473205356, 0.0 ], [ -50.658398740332885, -23.482772898066667, 0.0 ], [ -50.658421469748397, -23.482915797810197, 0.0 ], [ -50.658431411100018, -23.483040793502354, 0.0 ], [ -50.658416349343284, -23.48313193457205, 0.0 ], [ -50.658341356095434, -23.483225223647711, 0.0 ], [ -50.658231033385619, -23.483306947875818, 0.0 ], [ -50.658079050404979, -23.483365398487514, 0.0 ], [ -50.657915889092237, -23.483390113385898, 0.0 ], [ -50.657779909033437, -23.483415457625821, 0.0 ], [ -50.657605721530686, -23.483403678365818, 0.0 ], [ -50.657386681560169, -23.483275047738932, 0.0 ], [ -50.657292804842328, -23.483112683092596, 0.0 ], [ -50.657252571195187, -23.482999520475953, 0.0 ], [ -50.657276711326553, -23.482876517263815, 0.0 ], [ -50.657335720169478, -23.482787955010171, 0.0 ], [ -50.657451055119566, -23.482667411299261, 0.0 ], [ -50.657547614553891, -23.482569008959892, 0.0 ], [ -50.657633444730415, -23.482465685420141, 0.0 ], [ -50.657749764534621, -23.482408487800676, 0.0 ], [ -50.657837009056394, -23.482355684387638, 0.0 ], [ -50.657886027251138, -23.48227316546221, 0.0 ], [ -50.657871437066213, -23.482181389524374, 0.0 ], [ -50.657847531624284, -23.482108397793283, 0.0 ], [ -50.657814428544611, -23.482008603482722, 0.0 ], [ -50.657781160839619, -23.481972630660543, 0.0 ], [ -50.657745544066024, -23.481889356118707, 0.0 ], [ -50.657728681405182, -23.48172064704173, 0.0 ], [ -50.657699053754648, -23.4814504444753, 0.0 ], [ -50.657737318223333, -23.48124656075008, 0.0 ], [ -50.657878330902506, -23.481185327765257, 0.0 ], [ -50.657975051387496, -23.481051058207903, 0.0 ], [ -50.658014818478065, -23.480962250707186, 0.0 ], [ -50.658120160350343, -23.480855100942055, 0.0 ], [ -50.658300230170816, -23.480743188413754, 0.0 ], [ -50.658608683451725, -23.48055868035885, 0.0 ], [ -50.658785709332122, -23.480391393232868, 0.0 ], [ -50.658960053760183, -23.480238865926466, 0.0 ], [ -50.659158536655546, -23.480049437164116, 0.0 ], [ -50.659391303239452, -23.479835208558605, 0.0 ], [ -50.659621973054129, -23.479603956341712, 0.0 ], [ -50.65972389686992, -23.47950063148636, 0.0 ], [ -50.659764130352549, -23.479404686319317, 0.0 ], [ -50.659772176274544, -23.479242317854169, 0.0 ], [ -50.659801681415175, -23.47904304669278, 0.0 ], [ -50.659812409338578, -23.478853615515415, 0.0 ], [ -50.659835860219616, -23.47873427942659, 0.0 ], [ -50.659870728917525, -23.478571909845261, 0.0 ], [ -50.659916326754164, -23.478429220809215, 0.0 ], [ -50.659972652647852, -23.478261930869703, 0.0 ], [ -50.660023614580417, -23.478097100579348, 0.0 ], [ -50.660026296571047, -23.47796917233298, 0.0 ], [ -50.660023614491969, -23.477873225622389, 0.0 ], [ -50.660045072560315, -23.477779739689911, 0.0 ], [ -50.660087987755325, -23.477676413243437, 0.0 ], [ -50.660165030420728, -23.477559863100453, 0.0 ], [ -50.660224039071075, -23.477441775076862, 0.0 ], [ -50.660285729523025, -23.47731384622751, 0.0 ], [ -50.660368878023874, -23.477180996963234, 0.0 ], [ -50.660452026755067, -23.477080130050776, 0.0 ], [ -50.660570043592855, -23.476966962274432, 0.0 ], [ -50.6607122012012, -23.476856254178152, 0.0 ], [ -50.660848993390928, -23.476733245166042, 0.0 ], [ -50.660985785953258, -23.476629917578361, 0.0 ], [ -50.661117169353915, -23.476529883208965, 0.0 ], [ -50.661353203889121, -23.476409334058747, 0.0 ], [ -50.661589238715109, -23.476308466095546, 0.0 ], [ -50.66172350802497, -23.476304505331345, 0.0 ], [ -50.661820232644594, -23.476165674534521, 0.0 ], [ -50.661835389979274, -23.476035784207273, 0.0 ], [ -50.661771422240193, -23.475926236446121, 0.0 ], [ -50.661595032066998, -23.475712590805269, 0.0 ], [ -50.661506519037673, -23.475614182416145, 0.0 ], [ -50.661404596000054, -23.475446888783484, 0.0 ], [ -50.661310718488643, -23.475304196207524, 0.0 ], [ -50.661200747866708, -23.475188566985448, 0.0 ], [ -50.661080047880141, -23.475085237803963, 0.0 ], [ -50.660932527079844, -23.475004051006628, 0.0 ], [ -50.660846695628685, -23.474920404044461, 0.0 ], [ -50.660744772233045, -23.474890880842747, 0.0 ], [ -50.660632119603029, -23.474900721715546, 0.0 ], [ -50.660511419478645, -23.47492286390812, 0.0 ], [ -50.660434892781566, -23.474842917496176, 0.0 ], [ -50.660257126478356, -23.474785546405698, 0.0 ], [ -50.660079418728465, -23.474705381695841, 0.0 ], [ -50.659865339364444, -23.474664917374028, 0.0 ], [ -50.659677584503633, -23.474532065285164, 0.0 ], [ -50.659522016565603, -23.474458258358233, 0.0 ], [ -50.659463218332682, -23.474392073001443, 0.0 ], [ -50.659162600794652, -23.474335247720031, 0.0 ], [ -50.658980209796283, -23.474286042951711, 0.0 ], [ -50.6588815222634, -23.474235589348051, 0.0 ], [ -50.658676912072359, -23.47422255682789, 0.0 ], [ -50.658508488474553, -23.474285111924782, 0.0 ], [ -50.658394592912764, -23.47436456600127, 0.0 ], [ -50.658271558758365, -23.474460779659971, 0.0 ], [ -50.658198494248239, -23.47457807738088, 0.0 ], [ -50.658134427583931, -23.474733149104644, 0.0 ], [ -50.658134265449966, -23.474796072602661, 0.0 ], [ -50.658056761109684, -23.474871411280191, 0.0 ], [ -50.657902152370603, -23.474866877226688, 0.0 ], [ -50.657656580149265, -23.474866338255662, 0.0 ], [ -50.657523013523324, -23.474848374483486, 0.0 ], [ -50.65726706052412, -23.474811862225685, 0.0 ], [ -50.657189937458625, -23.474680786576272, 0.0 ], [ -50.65704314359634, -23.474612678533848, 0.0 ], [ -50.656896026271248, -23.47466971163, 0.0 ], [ -50.656511807641564, -23.474606294727462, 0.0 ], [ -50.656212419681061, -23.47452742118951, 0.0 ], [ -50.655427622216962, -23.474171119968865, 0.0 ], [ -50.655054646759062, -23.480869113559972, 0.0 ] ] ] } }
]
}
