{
"type": "FeatureCollection",
"name": "sao_francisco",
"crs": { "type": "name", "properties": { "name": "urn:ogc:def:crs:EPSG::4979" } },
"features": [
{ "type": "Feature", "properties": { "lote": "SAO_FRANCISCO-01", "area_ha": 50.31 }, "geometry": { "type": "Polygon", "coordinates": [ [ [ -50.630810421846277, -23.514697181214782, 0.0 ], [ -50.630673464666486, -23.514867582368655, 0.0 ], [ -50.630545659178402, -23.515047693365045, 0.0 ], [ -50.630511951694174, -23.515121756194976, 0.0 ], [ -50.630527904426572, -23.515167515441853, 0.0 ], [ -50.630597544388969, -23.515182509217404, 0.0 ], [ -50.631073473860297, -23.515104551823235, 0.0 ], [ -50.63138177936726, -23.515069446241338, 0.0 ], [ -50.631719558382393, -23.515036881181054, 0.0 ], [ -50.632309824352376, -23.514999322727952, 0.0 ], [ -50.632744342588509, -23.514994403658878, 0.0 ], [ -50.633165449771077, -23.515026376674012, 0.0 ], [ -50.633557052442882, -23.515087863117067, 0.0 ], [ -50.633886963678073, -23.515186241349376, 0.0 ], [ -50.634305388432239, -23.515314133462777, 0.0 ], [ -50.634907845169849, -23.515481154050956, 0.0 ], [ -50.635221663651542, -23.515547559236939, 0.0 ], [ -50.635618631099177, -23.51564347862011, 0.0 ], [ -50.635953906689586, -23.515727100149142, 0.0 ], [ -50.636197988120053, -23.515786126789546, 0.0 ], [ -50.636896172440274, -23.515979973758558, 0.0 ], [ -50.637472847951571, -23.516152135334359, 0.0 ], [ -50.63786176802769, -23.516265269255417, 0.0 ], [ -50.638084391182765, -23.516334133887018, 0.0 ], [ -50.63823191258119, -23.516371025820803, 0.0 ], [ -50.638664709246733, -23.516450498944742, 0.0 ], [ -50.639018761354194, -23.516511985735523, 0.0 ], [ -50.639372812506323, -23.516568552496857, 0.0 ], [ -50.639635669299651, -23.516617740866987, 0.0 ], [ -50.639855610174372, -23.516659551871932, 0.0 ], [ -50.640272157033969, -23.516733334793258, 0.0 ], [ -50.640561835654566, -23.51676038833974, 0.0 ], [ -50.640779094468343, -23.516767766308753, 0.0 ], [ -50.640974896460769, -23.516775145087365, 0.0 ], [ -50.641181426453926, -23.516757928728548, 0.0 ], [ -50.641379909468164, -23.516740712531448, 0.0 ], [ -50.641519384888213, -23.516711199480028, 0.0 ], [ -50.641596902905938, -23.516662185672974, 0.0 ], [ -50.641614458246558, -23.516593975891759, 0.0 ], [ -50.641628961255982, -23.516498859274659, 0.0 ], [ -50.64164149363706, -23.516407611238659, 0.0 ], [ -50.64164741751847, -23.516317537659074, 0.0 ], [ -50.641650270018729, -23.516272283783387, 0.0 ], [ -50.641673980014026, -23.516180000270655, 0.0 ], [ -50.641697569470715, -23.516011239545314, 0.0 ], [ -50.641718897582024, -23.515880521899746, 0.0 ], [ -50.641758302869633, -23.515635968948221, 0.0 ], [ -50.641771639091964, -23.515507206384502, 0.0 ], [ -50.641791616979127, -23.515402857496849, 0.0 ], [ -50.641794466337124, -23.515321818744034, 0.0 ], [ -50.641807543858988, -23.515278474337965, 0.0 ], [ -50.64181080956682, -23.515230146033687, 0.0 ], [ -50.641820822926888, -23.515169844997835, 0.0 ], [ -50.641826287510625, -23.515097960186996, 0.0 ], [ -50.641833103388862, -23.515045951373494, 0.0 ], [ -50.641846993023776, -23.514986223860937, 0.0 ], [ -50.641871870070943, -23.514791051055067, 0.0 ], [ -50.641932715112432, -23.514404411790942, 0.0 ], [ -50.641954730228555, -23.514238865062556, 0.0 ], [ -50.641872942530142, -23.514188766024787, 0.0 ], [ -50.64184507955494, -23.514086137631253, 0.0 ], [ -50.641979393413784, -23.514083809073156, 0.0 ], [ -50.641980494137044, -23.513989242491697, 0.0 ], [ -50.642007938740463, -23.51384403829206, 0.0 ], [ -50.642023762389506, -23.51374236499748, 0.0 ], [ -50.642082553018241, -23.513292916536454, 0.0 ], [ -50.642112176361032, -23.51313076491822, 0.0 ], [ -50.642129174509343, -23.512990877746628, 0.0 ], [ -50.642142470786091, -23.512879444999779, 0.0 ], [ -50.642136759356525, -23.512763357666202, 0.0 ], [ -50.642083506555103, -23.512634720939651, 0.0 ], [ -50.64195806087411, -23.512444132491414, 0.0 ], [ -50.641891461848203, -23.512295693574309, 0.0 ], [ -50.641851662902894, -23.512147316261558, 0.0 ], [ -50.641809224158486, -23.51198410428572, 0.0 ], [ -50.641764359552234, -23.511726972376131, 0.0 ], [ -50.641711013916037, -23.511632935319803, 0.0 ], [ -50.641557917655476, -23.511509629394698, 0.0 ], [ -50.641458930661706, -23.511445762218536, 0.0 ], [ -50.641385991572498, -23.511412229978582, 0.0 ], [ -50.6413324422019, -23.51139357093999, 0.0 ], [ -50.64127425476309, -23.511355747617372, 0.0 ], [ -50.64119063771146, -23.511306744253506, 0.0 ], [ -50.641161997039482, -23.511244274657923, 0.0 ], [ -50.641097763030899, -23.511212615913188, 0.0 ], [ -50.641052950489119, -23.511184091192465, 0.0 ], [ -50.641001456456024, -23.51114875462509, 0.0 ], [ -50.640935897621816, -23.511111532042605, 0.0 ], [ -50.640854965848099, -23.511060681118074, 0.0 ], [ -50.640774761105142, -23.510988824673195, 0.0 ], [ -50.640691154528724, -23.510936113922035, 0.0 ], [ -50.640569375251019, -23.510877136459765, 0.0 ], [ -50.640468347370572, -23.510825003240999, 0.0 ], [ -50.640347859624299, -23.51078394645598, 0.0 ], [ -50.64020524546337, -23.510749017039441, 0.0 ], [ -50.640141641630109, -23.51073218793897, 0.0 ], [ -50.640047903332373, -23.510709728452305, 0.0 ], [ -50.639945530768728, -23.510659445361281, 0.0 ], [ -50.639880581991996, -23.510644466617986, 0.0 ], [ -50.639783485448575, -23.510625088495381, 0.0 ], [ -50.639672354434794, -23.510592702836039, 0.0 ], [ -50.639592649125817, -23.510583868407167, 0.0 ], [ -50.639511645888057, -23.510559584496189, 0.0 ], [ -50.639413206119798, -23.510541438749634, 0.0 ], [ -50.639336192597767, -23.510528285419632, 0.0 ], [ -50.639276566857184, -23.51052691161669, 0.0 ], [ -50.639199572856818, -23.510519585136176, 0.0 ], [ -50.639137245983427, -23.510512996008345, 0.0 ], [ -50.639093077159288, -23.510494357938772, 0.0 ], [ -50.639052195997273, -23.510498588202665, 0.0 ], [ -50.639009135560634, -23.51048761056769, 0.0 ], [ -50.638948327370159, -23.510505761737736, 0.0 ], [ -50.638862867449468, -23.510518847535742, 0.0 ], [ -50.638840342763345, -23.510548143534184, 0.0 ], [ -50.638799723277863, -23.510579251137663, 0.0 ], [ -50.638781237044675, -23.510601760060908, 0.0 ], [ -50.638765054106528, -23.510613047707693, 0.0 ], [ -50.63871953895238, -23.51062324196366, 0.0 ], [ -50.638714023977727, -23.510680072055518, 0.0 ], [ -50.638712924612001, -23.510714669522017, 0.0 ], [ -50.63870509078474, -23.510761917443439, 0.0 ], [ -50.638647418452571, -23.510781246154171, 0.0 ], [ -50.638622324127169, -23.510770066495461, 0.0 ], [ -50.638603197348523, -23.51078176140517, 0.0 ], [ -50.638560855547468, -23.5108301649555, 0.0 ], [ -50.638535621266556, -23.510870267124091, 0.0 ], [ -50.638509375237248, -23.510912838369592, 0.0 ], [ -50.638501217290077, -23.510956069453211, 0.0 ], [ -50.638503428197332, -23.511005194249055, 0.0 ], [ -50.638513667212507, -23.511058662680163, 0.0 ], [ -50.638530650006253, -23.511096082469919, 0.0 ], [ -50.638560685026484, -23.511138166479682, 0.0 ], [ -50.63860375542987, -23.511191093236896, 0.0 ], [ -50.638643479271359, -23.511242776502652, 0.0 ], [ -50.638695980219012, -23.511277189393191, 0.0 ], [ -50.63873909369606, -23.511314360849379, 0.0 ], [ -50.638774810300568, -23.511361400855986, 0.0 ], [ -50.638826611849908, -23.511406624584954, 0.0 ], [ -50.638867364420236, -23.511449660175924, 0.0 ], [ -50.63890747060529, -23.511484044254146, 0.0 ], [ -50.63895654595018, -23.511546252697393, 0.0 ], [ -50.639042733678458, -23.511635115011931, 0.0 ], [ -50.639125251695866, -23.511718408059224, 0.0 ], [ -50.639198755162809, -23.511790558746398, 0.0 ], [ -50.639249214507146, -23.511836706011994, 0.0 ], [ -50.639299657059524, -23.511889031796198, 0.0 ], [ -50.63937487860936, -23.511945431016716, 0.0 ], [ -50.639402249239701, -23.511981947978246, 0.0 ], [ -50.639427247138727, -23.512028654088084, 0.0 ], [ -50.639487683459691, -23.512101701171112, 0.0 ], [ -50.639552811516772, -23.512174141232219, 0.0 ], [ -50.639624315560233, -23.512242579947397, 0.0 ], [ -50.639707927563549, -23.512293437706955, 0.0 ], [ -50.639754721608583, -23.512332470970236, 0.0 ], [ -50.63982355172525, -23.512398740908417, 0.0 ], [ -50.63986189271975, -23.512466484956871, 0.0 ], [ -50.639892956151122, -23.512500230013554, 0.0 ], [ -50.639905579474828, -23.512539493143827, 0.0 ], [ -50.639927222613352, -23.512588044987975, 0.0 ], [ -50.639937143275539, -23.512635642940801, 0.0 ], [ -50.640032274942115, -23.512762214685164, 0.0 ], [ -50.640126117153741, -23.512870247671422, 0.0 ], [ -50.640186501363729, -23.512962756868625, 0.0 ], [ -50.640233257181301, -23.513016000618791, 0.0 ], [ -50.640264948880535, -23.513065193485705, 0.0 ], [ -50.640306410186845, -23.513094328548064, 0.0 ], [ -50.640412512557006, -23.513128864656618, 0.0 ], [ -50.640500601205325, -23.513135246602126, 0.0 ], [ -50.64056556133481, -23.513146517977134, 0.0 ], [ -50.64065526938731, -23.513124670546112, 0.0 ], [ -50.640756909289919, -23.513124098773361, 0.0 ], [ -50.640828863417397, -23.513150523677268, 0.0 ], [ -50.640889042251274, -23.513195457115742, 0.0 ], [ -50.640927487045708, -23.513225202915393, 0.0 ], [ -50.640938096543671, -23.513266005962105, 0.0 ], [ -50.640952994460392, -23.513314051991063, 0.0 ], [ -50.640944892038689, -23.513354375229429, 0.0 ], [ -50.640956079425628, -23.51342916176004, 0.0 ], [ -50.640975643563792, -23.513503349744049, 0.0 ], [ -50.640986202010929, -23.513562997317035, 0.0 ], [ -50.641013195705966, -23.513615268488277, 0.0 ], [ -50.641039243028906, -23.513645912467229, 0.0 ], [ -50.641054185024622, -23.513695066564701, 0.0 ], [ -50.641055681688066, -23.513760871818054, 0.0 ], [ -50.641053780590248, -23.513844278172407, 0.0 ], [ -50.640997897842126, -23.513944551166517, 0.0 ], [ -50.640959825496559, -23.514024475912063, 0.0 ], [ -50.64088792020538, -23.514103395845172, 0.0 ], [ -50.640850338668066, -23.514138126390598, 0.0 ], [ -50.640794012552504, -23.514206992113898, 0.0 ], [ -50.640743050485433, -23.514266019993954, 0.0 ], [ -50.640677686457856, -23.514339122853201, 0.0 ], [ -50.640573986689262, -23.51448574308176, 0.0 ], [ -50.640443223493165, -23.514649791235954, 0.0 ], [ -50.640214114295759, -23.514759858510256, 0.0 ], [ -50.639989458902903, -23.514833482165489, 0.0 ], [ -50.639788931264462, -23.514904380949009, 0.0 ], [ -50.63962966550924, -23.514954676749539, 0.0 ], [ -50.639468010131594, -23.515003181093235, 0.0 ], [ -50.63925879822883, -23.515042531835093, 0.0 ], [ -50.639084107902434, -23.515014890065061, 0.0 ], [ -50.638858601784648, -23.514908713685408, 0.0 ], [ -50.638839706282845, -23.51477719147956, 0.0 ], [ -50.638867195615113, -23.514639178924604, 0.0 ], [ -50.638894780373192, -23.514496443522368, 0.0 ], [ -50.638983293170206, -23.514275090265077, 0.0 ], [ -50.639087899904332, -23.514080791152821, 0.0 ], [ -50.639219328172125, -23.513834842607046, 0.0 ], [ -50.639305158809293, -23.513640543188316, 0.0 ], [ -50.639366849517238, -23.513438864074136, 0.0 ], [ -50.6394004343204, -23.513263688790001, 0.0 ], [ -50.639432710329061, -23.513098177771329, 0.0 ], [ -50.639431865567069, -23.512993593328495, 0.0 ], [ -50.639381116335883, -23.512853386819494, 0.0 ], [ -50.639339215825707, -23.51273960404459, 0.0 ], [ -50.639314558717295, -23.512690736212498, 0.0 ], [ -50.639255031299726, -23.512652909038323, 0.0 ], [ -50.639174374003886, -23.512619748093375, 0.0 ], [ -50.639048310245073, -23.512575476480652, 0.0 ], [ -50.63894651302595, -23.512523061904094, 0.0 ], [ -50.638818144308836, -23.51242328921829, 0.0 ], [ -50.638699122060551, -23.512335895257166, 0.0 ], [ -50.638545354472896, -23.512213820558575, 0.0 ], [ -50.638351456474673, -23.512066320375038, 0.0 ], [ -50.63825782218521, -23.51200555289628, 0.0 ], [ -50.638113973657681, -23.511931693684488, 0.0 ], [ -50.63797741756597, -23.511886272728962, 0.0 ], [ -50.637734335508789, -23.511839368185598, 0.0 ], [ -50.637465093333972, -23.511803523801486, 0.0 ], [ -50.637251471138953, -23.51176410136943, 0.0 ], [ -50.637059309259868, -23.511717314371275, 0.0 ], [ -50.636891225011532, -23.511686029708088, 0.0 ], [ -50.636784108737963, -23.511655504922434, 0.0 ], [ -50.636600714766715, -23.51158773066193, 0.0 ], [ -50.63649966420742, -23.511544244832411, 0.0 ], [ -50.636403532663024, -23.511417359689954, 0.0 ], [ -50.636284196778163, -23.511278497289542, 0.0 ], [ -50.636144721050933, -23.511113707987072, 0.0 ], [ -50.636026704000322, -23.511010407564282, 0.0 ], [ -50.635879182434188, -23.510899727883281, 0.0 ], [ -50.635683381987576, -23.510769372040652, 0.0 ], [ -50.635578775079118, -23.510698045108327, 0.0 ], [ -50.635488854443011, -23.510680944196952, 0.0 ], [ -50.635376201375514, -23.510644050953946, 0.0 ], [ -50.635266820794023, -23.510587390887135, 0.0 ], [ -50.635170575396629, -23.510502519016285, 0.0 ], [ -50.635104023937039, -23.51041765674027, 0.0 ], [ -50.635024824139698, -23.510390963218793, 0.0 ], [ -50.634910977112156, -23.510372160670162, 0.0 ], [ -50.634852069194608, -23.510353486853035, 0.0 ], [ -50.634810696838265, -23.510292839835824, 0.0 ], [ -50.634861772661047, -23.51023611671685, 0.0 ], [ -50.634706250212218, -23.510266644892422, 0.0 ], [ -50.634492931368186, -23.510361294442262, 0.0 ], [ -50.634381159210619, -23.510393329053969, 0.0 ], [ -50.634212180829785, -23.510464655802007, 0.0 ], [ -50.634053929871754, -23.510543362021931, 0.0 ], [ -50.633890315014959, -23.510622067212111, 0.0 ], [ -50.633724018597995, -23.510722908763707, 0.0 ], [ -50.633589907660891, -23.510799154754071, 0.0 ], [ -50.633469208192842, -23.510892616964444, 0.0 ], [ -50.63331855589383, -23.511043119747253, 0.0 ], [ -50.633071074476945, -23.511376179734118, 0.0 ], [ -50.632830298614756, -23.511706783681568, 0.0 ], [ -50.632066121642609, -23.512807237092865, 0.0 ], [ -50.631285621220499, -23.513990440638111, 0.0 ], [ -50.630810421846277, -23.514697181214782, 0.0 ] ] ] } },
{ "type": "Feature", "properties": { "lote": "SAO_FRANCISCO-02", "area_ha": 43.07 }, "geometry": { "type": "Polygon", "coordinates": [ [ [ -50.63668814938427, -23.504625915762333, 0.0 ], [ -50.63666116460012, -23.504693817184485, 0.0 ], [ -50.636564608969884, -23.504723249117966, 0.0 ], [ -50.636476747839332, -23.505002315831032, 0.0 ], [ -50.636346863568683, -23.505457991699799, 0.0 ], [ -50.636154282601908, -23.506299064185463, 0.0 ], [ -50.63603103108909, -23.506778233774259, 0.0 ], [ -50.635957876237747, -23.507068455896238, 0.0 ], [ -50.635890203120276, -23.507314205038721, 0.0 ], [ -50.635800845945006, -23.507648874928613, 0.0 ], [ -50.635713482778009, -23.50792192963641, 0.0 ], [ -50.635652197178942, -23.508182738735925, 0.0 ], [ -50.635665822520643, -23.508378783747812, 0.0 ], [ -50.635697848452814, -23.508558120313491, 0.0 ], [ -50.635724548226783, -23.508692502241068, 0.0 ], [ -50.635766308006346, -23.508874042523487, 0.0 ], [ -50.635762620844055, -23.509093064106668, 0.0 ], [ -50.635714912066476, -23.509322039489469, 0.0 ], [ -50.635786791160761, -23.509349185845398, 0.0 ], [ -50.635850292630288, -23.509348712561156, 0.0 ], [ -50.635943472258035, -23.50938415216843, 0.0 ], [ -50.636030515839664, -23.509404127038781, 0.0 ], [ -50.636098806682242, -23.509421586617808, 0.0 ], [ -50.636157839960305, -23.509394538806696, 0.0 ], [ -50.636214200066682, -23.509365013299551, 0.0 ], [ -50.636237064356955, -23.509334173829878, 0.0 ], [ -50.636311632643412, -23.509284762922452, 0.0 ], [ -50.636338455112103, -23.509220814159249, 0.0 ], [ -50.636384052585534, -23.509186380334146, 0.0 ], [ -50.636442547416259, -23.509164124949894, 0.0 ], [ -50.636449840393588, -23.509087828308161, 0.0 ], [ -50.636448249828135, -23.509039331053081, 0.0 ], [ -50.636496705157533, -23.508962559146877, 0.0 ], [ -50.636499386915212, -23.508915826409869, 0.0 ], [ -50.636555713599336, -23.508883851894009, 0.0 ], [ -50.636649739386485, -23.508859386844719, 0.0 ], [ -50.636766343245064, -23.50884977309973, 0.0 ], [ -50.636857460699247, -23.508849985567597, 0.0 ], [ -50.636933774212999, -23.508873642059733, 0.0 ], [ -50.636987291449749, -23.50890342396055, 0.0 ], [ -50.637035829347006, -23.508965018697722, 0.0 ], [ -50.637028535713043, -23.509011027287347, 0.0 ], [ -50.637036355403289, -23.509091366984475, 0.0 ], [ -50.637093672585429, -23.509201479177687, 0.0 ], [ -50.637226044951774, -23.509305587609301, 0.0 ], [ -50.637354526182051, -23.509362729700612, 0.0 ], [ -50.637518626850706, -23.509378227381049, 0.0 ], [ -50.637695652826316, -23.50938806583871, 0.0 ], [ -50.637837810027825, -23.50937822739936, 0.0 ], [ -50.637944172847718, -23.509341858621863, 0.0 ], [ -50.638039462509937, -23.509286472923389, 0.0 ], [ -50.638112033429834, -23.509208791509362, 0.0 ], [ -50.638193191732668, -23.509147064632138, 0.0 ], [ -50.638284386213869, -23.509070817929558, 0.0 ], [ -50.638378263571987, -23.509048681697664, 0.0 ], [ -50.638539196553992, -23.509063438995156, 0.0 ], [ -50.638659895504205, -23.509097873648969, 0.0 ], [ -50.638762011514196, -23.509175700341689, 0.0 ], [ -50.638858286930926, -23.509250066511967, 0.0 ], [ -50.638923726356843, -23.509330539715325, 0.0 ], [ -50.639013251619161, -23.509423425868182, 0.0 ], [ -50.639078802338474, -23.509463120665725, 0.0 ], [ -50.639134865580196, -23.509542336337784, 0.0 ], [ -50.639217620596661, -23.509661156704102, 0.0 ], [ -50.639313741834599, -23.509792365131172, 0.0 ], [ -50.639376464848397, -23.50988642471928, 0.0 ], [ -50.639474057556214, -23.509969443566337, 0.0 ], [ -50.639566303936547, -23.510047507119872, 0.0 ], [ -50.639685329774338, -23.510133046864691, 0.0 ], [ -50.639839218685438, -23.510210017137322, 0.0 ], [ -50.639993107776931, -23.510286987259335, 0.0 ], [ -50.640234609557503, -23.510421620385909, 0.0 ], [ -50.640409968998412, -23.510487518256937, 0.0 ], [ -50.640587336910116, -23.510554038424196, 0.0 ], [ -50.64067235693927, -23.510579566760082, 0.0 ], [ -50.640765346504836, -23.510631063448965, 0.0 ], [ -50.640855662881251, -23.510680082488253, 0.0 ], [ -50.640933209294289, -23.510743900616131, 0.0 ], [ -50.641006722435939, -23.51081265226923, 0.0 ], [ -50.641092933688455, -23.510893172443893, 0.0 ], [ -50.641159762138599, -23.510956347902468, 0.0 ], [ -50.641227275707912, -23.511013964192898, 0.0 ], [ -50.641320952521511, -23.511059283560151, 0.0 ], [ -50.641453617785523, -23.511057117603769, 0.0 ], [ -50.641455761570604, -23.511007693935682, 0.0 ], [ -50.641441257577917, -23.510920542630462, 0.0 ], [ -50.641508367161585, -23.510879918519272, 0.0 ], [ -50.641566014889889, -23.510869547623603, 0.0 ], [ -50.641661492585271, -23.510883131611941, 0.0 ], [ -50.641680267801505, -23.51081426404636, 0.0 ], [ -50.641705608863347, -23.510782750909161, 0.0 ], [ -50.641738513648953, -23.510755023013061, 0.0 ], [ -50.641802847850769, -23.510749610270313, 0.0 ], [ -50.641871853609537, -23.510751004676482, 0.0 ], [ -50.641927442840924, -23.510758546782593, 0.0 ], [ -50.641982258540892, -23.510804394261168, 0.0 ], [ -50.642050419011312, -23.510870661691914, 0.0 ], [ -50.642115227919213, -23.510937539248971, 0.0 ], [ -50.642188766825917, -23.51099702254507, 0.0 ], [ -50.642268943981932, -23.511079381784764, 0.0 ], [ -50.642331776492327, -23.51113389756086, 0.0 ], [ -50.642386695735183, -23.511245292963835, 0.0 ], [ -50.642399654674556, -23.51114817359564, 0.0 ], [ -50.642408977436496, -23.511084491125381, 0.0 ], [ -50.642423519006719, -23.510972338223354, 0.0 ], [ -50.642449360410517, -23.510780889456797, 0.0 ], [ -50.642492422232102, -23.510467034731231, 0.0 ], [ -50.642542380720833, -23.510100676903956, 0.0 ], [ -50.642583915460676, -23.509785850164835, 0.0 ], [ -50.642600373198938, -23.509671764255238, 0.0 ], [ -50.642609879832001, -23.509592417039006, 0.0 ], [ -50.642621597519984, -23.509511716589738, 0.0 ], [ -50.642627262015509, -23.509460450171591, 0.0 ], [ -50.642660084383976, -23.509236493254146, 0.0 ], [ -50.642695109375843, -23.508992340685165, 0.0 ], [ -50.64272885379701, -23.50874668703414, 0.0 ], [ -50.642758928846668, -23.508515522098648, 0.0 ], [ -50.642838225374341, -23.507951761383922, 0.0 ], [ -50.64286413990564, -23.507728005448275, 0.0 ], [ -50.642890945930581, -23.507582231911467, 0.0 ], [ -50.642914016152105, -23.50742257393744, 0.0 ], [ -50.6429693676656, -23.507043442781868, 0.0 ], [ -50.643023906193889, -23.50668457147906, 0.0 ], [ -50.643071222293415, -23.506391559791496, 0.0 ], [ -50.643178952909658, -23.505694511355252, 0.0 ], [ -50.643232199058573, -23.505338702589924, 0.0 ], [ -50.643278976535186, -23.505038633274442, 0.0 ], [ -50.643296452099179, -23.504928341716589, 0.0 ], [ -50.643319450893046, -23.50480268323799, 0.0 ], [ -50.64332843673418, -23.504748330262746, 0.0 ], [ -50.643106356142958, -23.504735597461419, 0.0 ], [ -50.642966881242437, -23.504725759142186, 0.0 ], [ -50.64281131254068, -23.504711000693689, 0.0 ], [ -50.642666730595707, -23.504692880538649, 0.0 ], [ -50.642460452736294, -23.50466645718118, 0.0 ], [ -50.642288976203361, -23.504653706348087, 0.0 ], [ -50.642080005292804, -23.504632219168496, 0.0 ], [ -50.641846932588727, -23.504604497716514, 0.0 ], [ -50.641648538046169, -23.504563489525104, 0.0 ], [ -50.641417868540344, -23.504538892771325, 0.0 ], [ -50.641220762409169, -23.504506849243747, 0.0 ], [ -50.640910248948103, -23.50447153835395, 0.0 ], [ -50.640666888473888, -23.504444844202265, 0.0 ], [ -50.640473977087026, -23.504430806213627, 0.0 ], [ -50.640270403436453, -23.504395736192468, 0.0 ], [ -50.640069449305997, -23.504382914846897, 0.0 ], [ -50.63986185609108, -23.504347835005948, 0.0 ], [ -50.639676997891648, -23.50432887178625, 0.0 ], [ -50.639411748089458, -23.504308486564504, 0.0 ], [ -50.639143838735784, -23.504280680435429, 0.0 ], [ -50.638983139647344, -23.504246943765338, 0.0 ], [ -50.638771660831395, -23.504210813668539, 0.0 ], [ -50.638567812887068, -23.504188676704633, 0.0 ], [ -50.638334459992301, -23.504164080009168, 0.0 ], [ -50.638098426028584, -23.50413210421074, 0.0 ], [ -50.637867755900849, -23.504105048014576, 0.0 ], [ -50.637733645885625, -23.504082911280623, 0.0 ], [ -50.637634317182034, -23.50407081179489, 0.0 ], [ -50.637521818469686, -23.504050778611038, 0.0 ], [ -50.637462882536092, -23.504043227168054, 0.0 ], [ -50.637374454974037, -23.504040549917445, 0.0 ], [ -50.637313946132977, -23.504046015988962, 0.0 ], [ -50.637233479182825, -23.50409520972865, 0.0 ], [ -50.637136920093816, -23.504149322208541, 0.0 ], [ -50.637042917349397, -23.504251085197826, 0.0 ], [ -50.636938075431473, -23.504370705309366, 0.0 ], [ -50.636827900748116, -23.504480427188554, 0.0 ], [ -50.636779507850875, -23.504537157280634, 0.0 ], [ -50.636727098541812, -23.504592642274879, 0.0 ], [ -50.63668814938427, -23.504625915762333, 0.0 ] ] ] } }
]
}
