{"type": "FeatureCollection", "name": "Focos anomalias Hacienda Santo Antonio 2026-07-15", "crs": {"type": "name", "properties": {"name": "urn:ogc:def:crs:OGC:1.3:CRS84"}}, "features": [{"type": "Feature", "geometry": {"type": "MultiPolygon", "coordinates": [[[[-50.65680415059069, -23.49616627350364, 0.0], [-50.6567744023073, -23.496201537869222, 0.0], [-50.65670811651992, -23.496201026446446, 0.0], [-50.656678103312274, -23.496168275176938, 0.0], [-50.65662752524555, -23.49613511318582, 0.0], [-50.656554660322804, -23.496118997164803, 0.0], [-50.65649283696102, -23.49613367664584, 0.0], [-50.65641575552479, -23.4961641290526, 0.0], [-50.65637015775618, -23.496127231725524, 0.0], [-50.65628432705025, -23.496117392714837, 0.0], [-50.65619849641618, -23.496097714265932, 0.0], [-50.65611803036292, -23.496085415635896, 0.0], [-50.65602683562762, -23.496070656241006, 0.0], [-50.655977777648644, -23.49608144222847, 0.0], [-50.655947719107154, -23.49610268346629, 0.0], [-50.655920538050424, -23.496136084160774, 0.0], [-50.65591741186618, -23.496271318787997, 0.0], [-50.65590744075277, -23.49649408158203, 0.0], [-50.65611245709392, -23.496526025082495, 0.0], [-50.65615927780492, -23.496578553402063, 0.0], [-50.65624962508716, -23.49661427691013, 0.0], [-50.65640490213034, -23.496687364236983, 0.0], [-50.65645867052855, -23.496668522045788, 0.0], [-50.656547184081035, -23.496702959482327, 0.0], [-50.65657937022773, -23.496754615640818, 0.0], [-50.65660083219876, -23.496814789795383, 0.0], [-50.656584734567765, -23.49685054729548, 0.0], [-50.65653377326639, -23.49683824886613, 0.0], [-50.65650426803925, -23.49683332871347, 0.0], [-50.65648817526758, -23.496921882074375, 0.0], [-50.65645598879774, -23.496948940117026, 0.0], [-50.65644753781723, -23.49696169222971, 0.0], [-50.65637113591683, -23.49693802389993, 0.0], [-50.656285387416, -23.496910717173414, 0.0], [-50.65622183863972, -23.496884784451897, 0.0], [-50.656174728320316, -23.496875691571418, 0.0], [-50.65603257605695, -23.496829148596383, 0.0], [-50.65589479169222, -23.496778492853252, 0.0], [-50.65588707533663, -23.49696636713567, 0.0], [-50.655877953628405, -23.49713016026619, 0.0], [-50.65586626538429, -23.49736306824368, 0.0], [-50.65586224927065, -23.497518002882103, 0.0], [-50.655856415567364, -23.497628990010494, 0.0], [-50.655852667863016, -23.497730567518015, 0.0], [-50.65584651990095, -23.49787624443904, 0.0], [-50.65584067846459, -23.497982255775035, 0.0], [-50.65583663094045, -23.49811501917952, 0.0], [-50.65675829635871, -23.498466030158163, 0.0], [-50.657602333727326, -23.498772010472035, 0.0], [-50.65875421472379, -23.499190921796995, 0.0], [-50.65991265572576, -23.499624623187962, 0.0], [-50.660501414605264, -23.499837124214274, 0.0], [-50.660855527638724, -23.499976563383076, 0.0], [-50.6608903956098, -23.49994950576059, 0.0], [-50.660903807048314, -23.499440337260694, 0.0], [-50.66090648894989, -23.498652114224566, 0.0], [-50.660970861933734, -23.497196338597234, 0.0], [-50.660973544349815, -23.49701185377717, 0.0], [-50.66100900967266, -23.49670766036039, 0.0], [-50.660968776497185, -23.496653544227925, 0.0], [-50.66096609525151, -23.496599428502115, 0.0], [-50.66098755266065, -23.496530553363858, 0.0], [-50.660974141424646, -23.496451839743198, 0.0], [-50.660976823897414, -23.496319009693234, 0.0], [-50.66099023463399, -23.49620339866334, 0.0], [-50.66100632789498, -23.496087787143463, 0.0], [-50.660995599318525, -23.495931309026457, 0.0], [-50.660979505651596, -23.495887032414775, 0.0], [-50.66092854415132, -23.49586981346494, 0.0], [-50.660815891186154, -23.49589195239008, 0.0], [-50.660676416641216, -23.4959485280663, 0.0], [-50.66049134332503, -23.496069059241293, 0.0], [-50.66027411016296, -23.49612943027938, 0.0], [-50.660057675616, -23.496201897390154, 0.0], [-50.659958781565294, -23.496216497369634, 0.0], [-50.65986907128718, -23.496209269106327, 0.0], [-50.65978324089374, -23.49620680908205, 0.0], [-50.65969204564217, -23.49619205002026, 0.0], [-50.65965717649728, -23.496147773821278, 0.0], [-50.65958743963586, -23.496128094448252, 0.0], [-50.65950697278803, -23.496118255379532, 0.0], [-50.6594238242019, -23.496098577337328, 0.0], [-50.65934872310351, -23.49609611704007, 0.0], [-50.6592816679267, -23.496135474333958, 0.0], [-50.65915292134764, -23.49614039382674, 0.0], [-50.65909659511082, -23.496105956929554, 0.0], [-50.65902149303709, -23.496103496472443, 0.0], [-50.65892761623389, -23.496078898026266, 0.0], [-50.65885251428426, -23.496049380737805, 0.0], [-50.65875059004206, -23.495997724074986, 0.0], [-50.65865393414714, -23.495976056834273, 0.0], [-50.65853323401715, -23.49595145810179, 0.0], [-50.65843667456904, -23.495944078968847, 0.0], [-50.658310611331125, -23.49591456080602, 0.0], [-50.65816040777374, -23.49589242264798, 0.0], [-50.65801556849101, -23.49588504301374, 0.0], [-50.65782244866546, -23.49585060526053, 0.0], [-50.65769848347712, -23.49581616835369, 0.0], [-50.657532186332865, -23.49578664969467, 0.0], [-50.65737125391961, -23.495779270223025, 0.0], [-50.65723714295704, -23.495742373600695, 0.0], [-50.657129854517265, -23.49569563687774, 0.0], [-50.65701720205421, -23.49563906062479, 0.0], [-50.65694651588751, -23.495588772320296, 0.0], [-50.65677499046273, -23.495497220681877, 0.0], [-50.65664973932284, -23.495469332307923, 0.0], [-50.656568821588934, -23.49542268761534, 0.0], [-50.65650588986069, -23.49538835868275, 0.0], [-50.656412086541735, -23.4953459839386, 0.0], [-50.65630909909093, -23.49536601880032, 0.0], [-50.65626081959363, -23.495326662226113, 0.0], [-50.65621704229066, -23.495270335264635, 0.0], [-50.656177565206185, -23.495245175336727, 0.0], [-50.65613787884788, -23.495219045403243, 0.0], [-50.65609904324967, -23.49518121765493, 0.0], [-50.65604780423382, -23.495158796276232, 0.0], [-50.65601644425775, -23.495132557133637, 0.0], [-50.65594941746928, -23.495150246778632, 0.0], [-50.655975160992284, -23.495232449081218, 0.0], [-50.65596988549244, -23.495753011517113, 0.0], [-50.65613680612386, -23.495795155734008, 0.0], [-50.65624945852577, -23.495817294297773, 0.0], [-50.65640234409249, -23.495864031009724, 0.0], [-50.65653645486901, -23.495920607131897, 0.0], [-50.65664374379797, -23.49595504434588, 0.0], [-50.656734072848785, -23.496028218599644, 0.0], [-50.65678700425402, -23.49610697269555, 0.0], [-50.65680415059069, -23.49616627350364, 0.0]]], [[[-50.656106700162496, -23.481118747547367, 0.0], [-50.65646232875569, -23.481201588308537, 0.0], [-50.65656225863661, -23.48125993196528, 0.0], [-50.65650884572282, -23.482800656118926, 0.0], [-50.656304547904575, -23.487732721053572, 0.0], [-50.65625122268195, -23.48924889860649, 0.0], [-50.65619782199457, -23.48981695107096, 0.0], [-50.656191445781225, -23.489893295213076, 0.0], [-50.656129666707756, -23.49227393907504, 0.0], [-50.656074196751376, -23.492893271801105, 0.0], [-50.65604201035128, -23.493400005922215, 0.0], [-50.65603031201604, -23.49437186006192, 0.0], [-50.65602821571603, -23.494703500583263, 0.0], [-50.6561183616619, -23.49472649302684, 0.0], [-50.65619884089258, -23.494665128211988, 0.0], [-50.65626925428904, -23.49467326126832, 0.0], [-50.65632002378422, -23.4946323449844, 0.0], [-50.65641254547576, -23.494589646219946, 0.0], [-50.65653056256516, -23.494569967464813, 0.0], [-50.65663569720366, -23.494555048067355, 0.0], [-50.656810040186066, -23.494550128996824, 0.0], [-50.6569293818897, -23.494569866000937, 0.0], [-50.65705295037963, -23.494570138002352, 0.0], [-50.6572740621257, -23.49456734781808, 0.0], [-50.657440359144616, -23.494594406215892, 0.0], [-50.65759592733002, -23.494660821923514, 0.0], [-50.657700533754166, -23.494741997087377, 0.0], [-50.65783464425728, -23.494842850721938, 0.0], [-50.657941932916394, -23.494911726274818, 0.0], [-50.65810018251178, -23.49494616414402, 0.0], [-50.658224534131335, -23.49495846316513, 0.0], [-50.65831358590616, -23.49496039656856, 0.0], [-50.658393864552316, -23.49497652801831, 0.0], [-50.65851475066059, -23.495058849524845, 0.0], [-50.658618255065996, -23.495173043735758, 0.0], [-50.658699608168945, -23.495251859462353, 0.0], [-50.658782220531876, -23.49532156051083, 0.0], [-50.658893268580876, -23.495385625395233, 0.0], [-50.65904707161062, -23.495452011665346, 0.0], [-50.659151273396525, -23.495485341625702, 0.0], [-50.65926732899524, -23.495524344366988, 0.0], [-50.65939705344679, -23.49553374537234, 0.0], [-50.65952924345181, -23.495545431005485, 0.0], [-50.6596761886593, -23.49558564060852, 0.0], [-50.659834234739485, -23.495633852027215, 0.0], [-50.66005781372803, -23.495666250828936, 0.0], [-50.660307535216745, -23.495623487804497, 0.0], [-50.660591975656104, -23.495534073360925, 0.0], [-50.66078118645486, -23.49545536106781, 0.0], [-50.66091797927519, -23.49537910608215, 0.0], [-50.660970170992435, -23.495243814822388, 0.0], [-50.66099699341155, -23.49505194760286, 0.0], [-50.661018451455554, -23.494884678485036, 0.0], [-50.66103722658672, -23.4947543069058, 0.0], [-50.661069413595285, -23.494633774985495, 0.0], [-50.66110964585501, -23.493811179420085, 0.0], [-50.66114005978437, -23.49315509058719, 0.0], [-50.66115615249175, -23.492653274695193, 0.0], [-50.66119638588233, -23.491850035221, 0.0], [-50.66123930141158, -23.490829002318133, 0.0], [-50.661309038986886, -23.489452749505197, 0.0], [-50.66132781381623, -23.488667591801466, 0.0], [-50.66137341168078, -23.487572401531764, 0.0], [-50.66141632752179, -23.486501668739663, 0.0], [-50.6614699713882, -23.485539692086128, 0.0], [-50.66149679309194, -23.48446572461526, 0.0], [-50.661558484588426, -23.483267202868888, 0.0], [-50.66159013220417, -23.482522748872636, 0.0], [-50.66160622620039, -23.481942658628064, 0.0], [-50.66163841239458, -23.481298520166852, 0.0], [-50.66165718813816, -23.480698105550694, 0.0], [-50.661686692535305, -23.48014915408363, 0.0], [-50.661710831610556, -23.47956358284549, 0.0], [-50.66175105968469, -23.478908307916814, 0.0], [-50.66179132455245, -23.47805035039413, 0.0], [-50.66183544523066, -23.477574634054054, 0.0], [-50.66183976992533, -23.477454350301972, 0.0], [-50.661853276437604, -23.477269779755733, 0.0], [-50.66187653301157, -23.47703737979518, 0.0], [-50.661885329168, -23.47691211622152, 0.0], [-50.66189082016759, -23.476841763218186, 0.0], [-50.661893638499556, -23.47680148001406, 0.0], [-50.66189603893997, -23.47677330416047, 0.0], [-50.66178354597699, -23.476743981114236, 0.0], [-50.661727985380935, -23.47672904477948, 0.0], [-50.66165101013743, -23.476728993490635, 0.0], [-50.66161882359662, -23.476630586352986, 0.0], [-50.66158931912832, -23.476569082175136, 0.0], [-50.661538357155415, -23.47653955988519, 0.0], [-50.66146861945741, -23.476532179542573, 0.0], [-50.661404246358615, -23.47654694025398, 0.0], [-50.66133182739716, -23.47659368393154, 0.0], [-50.66124017936422, -23.476640230555763, 0.0], [-50.66117580142656, -23.476691376137754, 0.0], [-50.661087904900114, -23.476759565728287, 0.0], [-50.661015326658735, -23.476815099819824, 0.0], [-50.66095363610359, -23.47687906507536, 0.0], [-50.66086512271177, -23.476920887695783, 0.0], [-50.660776610037274, -23.477004533892348, 0.0], [-50.66069614359693, -23.477083259320825, 0.0], [-50.660612994781076, -23.47720872807163, 0.0], [-50.660535211264424, -23.47730467484698, 0.0], [-50.660452062724346, -23.477415383024823, 0.0], [-50.66039305363844, -23.477491647514594, 0.0], [-50.660358679027226, -23.477587093894858, 0.0], [-50.66031694160116, -23.477722624514445, 0.0], [-50.66028308301361, -23.477828393303103, 0.0], [-50.66025894380351, -23.47803012688436, 0.0], [-50.66025626109649, -23.47814083321954, 0.0], [-50.66021178229169, -23.478259183143724, 0.0], [-50.66016083053985, -23.478374179443104, 0.0], [-50.660065618540244, -23.478644645097145, 0.0], [-50.660032770217164, -23.478927213286987, 0.0], [-50.66004168481018, -23.479064563761128, 0.0], [-50.660068506485324, -23.479259624322363, 0.0], [-50.66007118933718, -23.47942445324499, 0.0], [-50.66007118871581, -23.47947857589669, 0.0], [-50.660034282326876, -23.47964140172207, 0.0], [-50.659988684390505, -23.479833291452447, 0.0], [-50.65996333846752, -23.479985251562745, 0.0], [-50.65996745107739, -23.48006788707796, 0.0], [-50.659995753338514, -23.4801129660261, 0.0], [-50.66008699862639, -23.480185534453735, 0.0], [-50.660181901034385, -23.480277485299766, 0.0], [-50.6603472797067, -23.480350215149123, 0.0], [-50.66047745549717, -23.480418879293964, 0.0], [-50.66053547838488, -23.480437810309837, 0.0], [-50.66057675715198, -23.480481777731963, 0.0], [-50.66057847924624, -23.480533066922238, 0.0], [-50.66055399073329, -23.480687439762498, 0.0], [-50.660552238932375, -23.480889158674852, 0.0], [-50.66053580624596, -23.481033861795687, 0.0], [-50.66049477203365, -23.48119958024188, 0.0], [-50.66044679417422, -23.48129522366952, 0.0], [-50.660408110969954, -23.48144386716918, 0.0], [-50.6603720476388, -23.481534392872273, 0.0], [-50.66032236385868, -23.48163628565098, 0.0], [-50.66027523286909, -23.481706273039578, 0.0], [-50.66021267769115, -23.48176824906067, 0.0], [-50.660098063639204, -23.481894503263174, 0.0], [-50.66005745843128, -23.48199618560982, 0.0], [-50.66007216191457, -23.4820954699135, 0.0], [-50.66013653517326, -23.482208633882117, 0.0], [-50.660118760253646, -23.482255825743536, 0.0], [-50.66006611998049, -23.48230585671559, 0.0], [-50.660006738073136, -23.482334788957026, 0.0], [-50.65992273237752, -23.48232947717531, 0.0], [-50.65981588323895, -23.482318417119835, 0.0], [-50.65969302725698, -23.482285668202504, 0.0], [-50.65959850491226, -23.482290694566316, 0.0], [-50.65950149916044, -23.482290948357857, 0.0], [-50.659275288698176, -23.482329772921563, 0.0], [-50.659170849258246, -23.48234265088909, 0.0], [-50.65906386980953, -23.482382305619012, 0.0], [-50.658979134988286, -23.4824202994245, 0.0], [-50.65891687449919, -23.48244572088078, 0.0], [-50.65885478998552, -23.482486128568418, 0.0], [-50.658814951100254, -23.482509682083048, 0.0], [-50.65877739964243, -23.482534282872976, 0.0], [-50.65875594192939, -23.482600705439594, 0.0], [-50.65869961587414, -23.482617925974875, 0.0], [-50.65863524265623, -23.482647446873315, 0.0], [-50.658564031426245, -23.48264048793732, 0.0], [-50.65847124892549, -23.48268473205356, 0.0], [-50.658398740332885, -23.482772898066667, 0.0], [-50.6584214697484, -23.482915797810197, 0.0], [-50.65843141110002, -23.483040793502354, 0.0], [-50.658416349343284, -23.48313193457205, 0.0], [-50.658341356095434, -23.48322522364771, 0.0], [-50.65823103338562, -23.483306947875818, 0.0], [-50.65807905040498, -23.483365398487514, 0.0], [-50.65791588909224, -23.483390113385898, 0.0], [-50.65777990903344, -23.48341545762582, 0.0], [-50.657605721530686, -23.483403678365818, 0.0], [-50.65738668156017, -23.483275047738932, 0.0], [-50.65729280484233, -23.483112683092596, 0.0], [-50.65725257119519, -23.482999520475953, 0.0], [-50.65727671132655, -23.482876517263815, 0.0], [-50.65733572016948, -23.48278795501017, 0.0], [-50.657451055119566, -23.48266741129926, 0.0], [-50.65754761455389, -23.482569008959892, 0.0], [-50.657633444730415, -23.48246568542014, 0.0], [-50.65774976453462, -23.482408487800676, 0.0], [-50.657837009056394, -23.482355684387638, 0.0], [-50.65788602725114, -23.48227316546221, 0.0], [-50.65787143706621, -23.482181389524374, 0.0], [-50.657847531624284, -23.482108397793283, 0.0], [-50.65781442854461, -23.482008603482722, 0.0], [-50.65778116083962, -23.481972630660543, 0.0], [-50.657745544066024, -23.481889356118707, 0.0], [-50.65772868140518, -23.48172064704173, 0.0], [-50.65769905375465, -23.4814504444753, 0.0], [-50.65773731822333, -23.48124656075008, 0.0], [-50.657878330902506, -23.481185327765257, 0.0], [-50.657975051387496, -23.481051058207903, 0.0], [-50.658014818478065, -23.480962250707186, 0.0], [-50.65812016035034, -23.480855100942055, 0.0], [-50.658300230170816, -23.480743188413754, 0.0], [-50.658608683451725, -23.48055868035885, 0.0], [-50.65878570933212, -23.480391393232868, 0.0], [-50.65896005376018, -23.480238865926466, 0.0], [-50.659158536655546, -23.480049437164116, 0.0], [-50.65939130323945, -23.479835208558605, 0.0], [-50.65962197305413, -23.479603956341712, 0.0], [-50.65972389686992, -23.47950063148636, 0.0], [-50.65976413035255, -23.479404686319317, 0.0], [-50.659772176274544, -23.47924231785417, 0.0], [-50.659801681415175, -23.47904304669278, 0.0], [-50.65981240933858, -23.478853615515415, 0.0], [-50.659835860219616, -23.47873427942659, 0.0], [-50.659870728917525, -23.47857190984526, 0.0], [-50.659916326754164, -23.478429220809215, 0.0], [-50.65997265264785, -23.478261930869703, 0.0], [-50.66002361458042, -23.478097100579348, 0.0], [-50.66002629657105, -23.47796917233298, 0.0], [-50.66002361449197, -23.47787322562239, 0.0], [-50.660045072560315, -23.47777973968991, 0.0], [-50.660087987755325, -23.477676413243437, 0.0], [-50.66016503042073, -23.477559863100453, 0.0], [-50.660224039071075, -23.477441775076862, 0.0], [-50.660285729523025, -23.47731384622751, 0.0], [-50.660368878023874, -23.477180996963234, 0.0], [-50.66045202675507, -23.477080130050776, 0.0], [-50.660570043592855, -23.47696696227443, 0.0], [-50.6607122012012, -23.476856254178152, 0.0], [-50.66084899339093, -23.47673324516604, 0.0], [-50.66098578595326, -23.47662991757836, 0.0], [-50.661117169353915, -23.476529883208965, 0.0], [-50.66135320388912, -23.476409334058747, 0.0], [-50.66158923871511, -23.476308466095546, 0.0], [-50.66172350802497, -23.476304505331345, 0.0], [-50.661820232644594, -23.47616567453452, 0.0], [-50.661835389979274, -23.476035784207273, 0.0], [-50.66177142224019, -23.47592623644612, 0.0], [-50.661595032067, -23.47571259080527, 0.0], [-50.66150651903767, -23.475614182416145, 0.0], [-50.661404596000054, -23.475446888783484, 0.0], [-50.66131071848864, -23.475304196207524, 0.0], [-50.66120074786671, -23.475188566985448, 0.0], [-50.66108004788014, -23.475085237803963, 0.0], [-50.660932527079844, -23.47500405100663, 0.0], [-50.660846695628685, -23.47492040404446, 0.0], [-50.660744772233045, -23.474890880842747, 0.0], [-50.66063211960303, -23.474900721715546, 0.0], [-50.660511419478645, -23.47492286390812, 0.0], [-50.660434892781566, -23.474842917496176, 0.0], [-50.660257126478356, -23.4747855464057, 0.0], [-50.660079418728465, -23.47470538169584, 0.0], [-50.659865339364444, -23.474664917374028, 0.0], [-50.65967758450363, -23.474532065285164, 0.0], [-50.6595220165656, -23.474458258358233, 0.0], [-50.65946321833268, -23.474392073001443, 0.0], [-50.65916260079465, -23.47433524772003, 0.0], [-50.65898020979628, -23.47428604295171, 0.0], [-50.6588815222634, -23.47423558934805, 0.0], [-50.65867691207236, -23.47422255682789, 0.0], [-50.65850848847455, -23.474285111924782, 0.0], [-50.658394592912764, -23.47436456600127, 0.0], [-50.658271558758365, -23.47446077965997, 0.0], [-50.65819849424824, -23.47457807738088, 0.0], [-50.65813442758393, -23.474733149104644, 0.0], [-50.65813426544997, -23.47479607260266, 0.0], [-50.658056761109684, -23.47487141128019, 0.0], [-50.6579021523706, -23.474866877226688, 0.0], [-50.657656580149265, -23.474866338255662, 0.0], [-50.657523013523324, -23.474848374483486, 0.0], [-50.65726706052412, -23.474811862225685, 0.0], [-50.657189937458625, -23.474680786576272, 0.0], [-50.65704314359634, -23.47461267853385, 0.0], [-50.65689602627125, -23.47466971163, 0.0], [-50.656511807641564, -23.47460629472746, 0.0], [-50.65621241968106, -23.47452742118951, 0.0], [-50.65542762221696, -23.474171119968865, 0.0], [-50.65505464675906, -23.480869113559972, 0.0], [-50.656106700162496, -23.481118747547367, 0.0]]]]}, "properties": {"tipo": "perimetro", "id": "SA-PERIMETRO", "name": "Perimetro Hacienda Santo Antonio", "hacienda": "Hacienda Santo Antonio", "fecha_img": "2026-07-15"}}, {"type": "Feature", "properties": {"id": "SA-c2aac5", "name": "SA-c2aac5", "etiqueta": "P1", "hacienda": "Hacienda Santo Antonio", "orden": 1, "estrato": "Prioritario", "nivel": "Prioritario", "SI": 0.549, "clorofila_pct_vs_mejor5": 54.9, "area_ha": 0.061, "fecha_img": "2026-07-15", "zona": 1, "clase": "baja"}, "geometry": {"type": "Polygon", "coordinates": [[[-50.65662415300206, -23.495725023287626], [-50.656623714109564, -23.49572409628521], [-50.65652733279996, -23.495545246278624], [-50.65652674692022, -23.49554428383857], [-50.65652555182963, -23.495544225681254], [-50.65637987733079, -23.495543904506118], [-50.65637507809528, -23.495543676446516], [-50.65637032620667, -23.49554301563323], [-50.65636566742831, -23.495541928430253], [-50.656361146626814, -23.49554042530794], [-50.65635680734, -23.49553852074222], [-50.65635269135762, -23.495536233075104], [-50.65634883831884, -23.495533584338098], [-50.656345285330545, -23.495530600040006], [-50.656342066609966, -23.495527308921268], [-50.656339213155135, -23.495523742677193], [-50.65633675244636, -23.49551993565267], [-50.65633470818159, -23.495515924511444], [-50.656333100048194, -23.49551174788301], [-50.65633194353332, -23.49550744599062], [-50.65633124977481, -23.495503060263825], [-50.65633102545389, -23.495498632939594], [-50.65633113968126, -23.495454578070994], [-50.656331086130365, -23.49545352115999], [-50.65632994043574, -23.495453466716217], [-50.65623440678525, -23.495453255984934], [-50.656233260821374, -23.49545330537368], [-50.65623320178954, -23.495454362036337], [-50.656232738895326, -23.495632838156137], [-50.65623278920772, -23.49563386957849], [-50.65623386040035, -23.495634169482113], [-50.65662307763377, -23.495724824494708], [-50.65662415300206, -23.495725023287626]]]}}, {"type": "Feature", "properties": {"id": "SA-c2aac5", "name": "SA-c2aac5", "etiqueta": "P1", "hacienda": "Hacienda Santo Antonio", "orden": 1, "estrato": "Prioritario", "nivel": "Prioritario", "SI": 0.549, "clorofila_pct_vs_mejor5": 54.9, "area_ha": 0.061, "fecha_img": "2026-07-15", "zona": 1, "tipo": "principal", "status": "pending"}, "geometry": {"type": "Point", "coordinates": [-50.65639189334033, -23.495589042217382]}}, {"type": "Feature", "properties": {"id": "SA-0421dc", "name": "SA-0421dc", "etiqueta": "P2", "hacienda": "Hacienda Santo Antonio", "orden": 2, "estrato": "Prioritario", "nivel": "Prioritario", "SI": 0.631, "clorofila_pct_vs_mejor5": 63.1, "area_ha": 0.115, "fecha_img": "2026-07-15", "zona": 2, "clase": "baja"}, "geometry": {"type": "Polygon", "coordinates": [[[-50.65671979723363, -23.496628522849512], [-50.656719855726564, -23.496627476367614], [-50.65672031788345, -23.49644904015981], [-50.65672026432915, -23.496447983249034], [-50.65671911862574, -23.49644792880803], [-50.65645676956948, -23.496447350605948], [-50.656451849723744, -23.496447111187944], [-50.6564469808609, -23.496446417054305], [-50.65644221226291, -23.496445275230936], [-50.65643759219685, -23.496443697275232], [-50.65643316742637, -23.496441699159025], [-50.65642898273837, -23.496439301106978], [-50.65642508048964, -23.496436527391825], [-50.65642150017818, -23.49643340608872], [-50.65641827804337, -23.496429968791045], [-50.65641544669915, -23.496426250290646], [-50.656413034803954, -23.49642228822563], [-50.6563295697106, -23.49626740646491], [-50.65632900931929, -23.496266483222666], [-50.65632795817289, -23.496266907080496], [-50.6561339998465, -23.496355815155376], [-50.6561329988063, -23.496356331994267], [-50.65613345837907, -23.496357301450562], [-50.65622984243752, -23.496536156708554], [-50.65623043474912, -23.496537129217717], [-50.656231606480866, -23.496537405536834], [-50.656718673932396, -23.496628365565595], [-50.65671979723363, -23.496628522849512]]]}}, {"type": "Feature", "properties": {"id": "SA-0421dc", "name": "SA-0421dc", "etiqueta": "P2", "hacienda": "Hacienda Santo Antonio", "orden": 2, "estrato": "Prioritario", "nivel": "Prioritario", "SI": 0.631, "clorofila_pct_vs_mejor5": 63.1, "area_ha": 0.115, "fecha_img": "2026-07-15", "zona": 2, "tipo": "principal", "status": "pending"}, "geometry": {"type": "Point", "coordinates": [-50.656385042618865, -23.49644763970699]}}, {"type": "Feature", "properties": {"id": "SA-ef1634", "name": "SA-ef1634", "etiqueta": "P3", "hacienda": "Hacienda Santo Antonio", "orden": 3, "estrato": "Prioritario", "nivel": "Prioritario", "SI": 0.707, "clorofila_pct_vs_mejor5": 70.7, "area_ha": 0.186, "fecha_img": "2026-07-15", "zona": 3, "clase": "baja"}, "geometry": {"type": "Polygon", "coordinates": [[[-50.65779665673004, -23.496811557717034], [-50.65779671575018, -23.49681050105383], [-50.65779717646303, -23.496632064173514], [-50.657797122900085, -23.496631007263034], [-50.65779597719454, -23.49663095282992], [-50.6575523323877, -23.496630417546235], [-50.65754753311035, -23.496630189522303], [-50.65754278117653, -23.496629528744336], [-50.65753812235, -23.496628441576004], [-50.657533601497846, -23.496626938487335], [-50.657529262158384, -23.496625033953915], [-50.65752514612185, -23.49662274631746], [-50.65752129302795, -23.496620097609163], [-50.6575177399841, -23.496617113337575], [-50.657514521208064, -23.49661382224287], [-50.657511667698394, -23.49661025602012], [-50.65750920693595, -23.496606449014003], [-50.657507162619176, -23.496602437888104], [-50.65750555443595, -23.496598261271778], [-50.657504397873915, -23.496593959388118], [-50.657503704071345, -23.496589573666636], [-50.657503479709895, -23.49658514634423], [-50.65750359355178, -23.49654109213289], [-50.657503540474195, -23.49654004540539], [-50.657502416372616, -23.49654019774369], [-50.65701484760112, -23.496629018083308], [-50.65701372572472, -23.49662927574391], [-50.65701366628296, -23.496630340618875], [-50.65701320451313, -23.49680877832869], [-50.65701325806986, -23.496809835239347], [-50.65701440377656, -23.49680988967822], [-50.657795510754845, -23.496811607117138], [-50.65779665673004, -23.496811557717034]]]}}, {"type": "Feature", "properties": {"id": "SA-ef1634", "name": "SA-ef1634", "etiqueta": "P3", "hacienda": "Hacienda Santo Antonio", "orden": 3, "estrato": "Prioritario", "nivel": "Prioritario", "SI": 0.707, "clorofila_pct_vs_mejor5": 70.7, "area_ha": 0.186, "fecha_img": "2026-07-15", "zona": 3, "tipo": "principal", "status": "pending"}, "geometry": {"type": "Point", "coordinates": [-50.65740519074924, -23.4967204212511]}}, {"type": "Feature", "properties": {"id": "SA-de350a", "name": "SA-de350a", "etiqueta": "P4", "hacienda": "Hacienda Santo Antonio", "orden": 4, "estrato": "Prioritario", "nivel": "Prioritario", "SI": 0.745, "clorofila_pct_vs_mejor5": 74.5, "area_ha": 0.176, "fecha_img": "2026-07-15", "zona": 4, "clase": "baja"}, "geometry": {"type": "Polygon", "coordinates": [[[-50.65906986405626, -23.496814437003295], [-50.659068803594586, -23.496814055220394], [-50.65880979203438, -23.496733797661275], [-50.658805410797, -23.496732220337396], [-50.6588012138349, -23.49673026265002], [-50.65879723986236, -23.496727942657564], [-50.65879352553673, -23.496725281760476], [-50.65879010512027, -23.496722304503827], [-50.6587870101641, -23.496719038350896], [-50.65878426921718, -23.49671551342985], [-50.658781907562954, -23.49671176225583], [-50.658779946986144, -23.49670781943099], [-50.65877840557176, -23.496703721325357], [-50.65877729753831, -23.496699505741315], [-50.65877663310667, -23.4966952115649], [-50.65877641840572, -23.49669087840712], [-50.65877656429555, -23.49663421202153], [-50.65877651072479, -23.496633155111287], [-50.65877536501873, -23.496633100685376], [-50.65828807535441, -23.496632032799784], [-50.6582869293809, -23.49663208220353], [-50.65828687036476, -23.49663313886699], [-50.65828641031116, -23.496811575756418], [-50.65828646387807, -23.49681263266676], [-50.65828760958544, -23.49681268709628], [-50.65862919366549, -23.496813435836106], [-50.65863399295179, -23.496813663826817], [-50.6586387448981, -23.49681432457162], [-50.658643403740626, -23.496815411707203], [-50.65864792461221, -23.496816914763865], [-50.658652263974425, -23.496818819266338], [-50.65865638003686, -23.49682110687326], [-50.65866023315961, -23.49682375555375], [-50.65866378623502, -23.496826739799577], [-50.65866700504502, -23.496830030870846], [-50.65866985859072, -23.496833597072754], [-50.65867231939088, -23.496837404060862], [-50.65867436374665, -23.496841415171815], [-50.65867597196972, -23.496845591776417], [-50.65867712857199, -23.496849893651703], [-50.65867782241471, -23.496854279368282], [-50.658678046815744, -23.49685870668931], [-50.65867793336082, -23.49690276156081], [-50.65867798693087, -23.496903818471036], [-50.65867913263923, -23.496903872897697], [-50.65882483898784, -23.49690419200709], [-50.65882963827784, -23.496904419991814], [-50.658834390228456, -23.49690508073069], [-50.658839049075844, -23.496906167860473], [-50.65884356995281, -23.49690767091149], [-50.658847909320855, -23.496909575408566], [-50.65885202538954, -23.496911863010368], [-50.658855878518885, -23.49691451168606], [-50.658859431601165, -23.49691749592748], [-50.65886265041826, -23.496920786994746], [-50.65886550397118, -23.496924353193112], [-50.65886796477866, -23.496928160178182], [-50.65887000914175, -23.496932171286595], [-50.65887161737207, -23.49693634788921], [-50.658872773981464, -23.496940649763086], [-50.6588734678311, -23.49694503547882], [-50.658873692238785, -23.496949462799595], [-50.6588735788484, -23.49699351767148], [-50.65887363242004, -23.49699457458165], [-50.65887477812929, -23.49699462900687], [-50.659068251975306, -23.496995052459834], [-50.659069397951754, -23.496995003050383], [-50.659069456961845, -23.496993946386606], [-50.659069916026084, -23.49681548582599], [-50.65906986405626, -23.496814437003295]]]}}, {"type": "Feature", "properties": {"id": "SA-de350a", "name": "SA-de350a", "etiqueta": "P4", "hacienda": "Hacienda Santo Antonio", "orden": 4, "estrato": "Prioritario", "nivel": "Prioritario", "SI": 0.745, "clorofila_pct_vs_mejor5": 74.5, "area_ha": 0.176, "fecha_img": "2026-07-15", "zona": 4, "tipo": "principal", "status": "pending"}, "geometry": {"type": "Point", "coordinates": [-50.658849382942286, -23.49681354983146]}}, {"type": "Feature", "properties": {"id": "SA-3b82be", "name": "SA-3b82be", "etiqueta": "P5", "hacienda": "Hacienda Santo Antonio", "orden": 5, "estrato": "Prioritario", "nivel": "Prioritario", "SI": 1.228, "clorofila_pct_vs_mejor5": 122.8, "area_ha": 0.096, "fecha_img": "2026-07-15", "zona": 5, "clase": "baja"}, "geometry": {"type": "Polygon", "coordinates": [[[-50.65549046108239, -23.479734532672833], [-50.655490156951906, -23.479733517269572], [-50.655393704808624, -23.47946446714524], [-50.65539328302853, -23.479463463270807], [-50.655392212976366, -23.479463893290923], [-50.65519833413029, -23.479552775296323], [-50.65519729071805, -23.47955331564065], [-50.6551972276589, -23.479554417861706], [-50.65519652909516, -23.479823154435753], [-50.65519658263242, -23.479824211349076], [-50.65519772819151, -23.4798242657997], [-50.65524548938151, -23.47982437142434], [-50.65525028804605, -23.47982459951246], [-50.65525503936639, -23.47982526035453], [-50.655259697584775, -23.479826347586297], [-50.65526421784006, -23.479827850737124], [-50.65526855659975, -23.479829755330872], [-50.65527267207924, -23.479832043025258], [-50.65527652464424, -23.479834691788575], [-50.65528007719246, -23.4798376761118], [-50.65528329551091, -23.479840967254283], [-50.65528614860543, -23.479844533520545], [-50.655288608999136, -23.47984834056553], [-50.655290652997074, -23.479852351725306], [-50.6552922609144, -23.479856528370245], [-50.655293417265945, -23.479860830276976], [-50.65529411091538, -23.479865216015806], [-50.655294335182425, -23.479869643349666], [-50.6552942206956, -23.479913698301516], [-50.65529427423367, -23.479914755214807], [-50.655295419793596, -23.479914809664717], [-50.655390942240054, -23.479915020840284], [-50.65539208806979, -23.479914971456047], [-50.6553921470997, -23.4799139147916], [-50.65539249622254, -23.479779532522752], [-50.65539274349424, -23.47977510623125], [-50.65539345992645, -23.47977072360965], [-50.6553946386195, -23.479766426864995], [-50.655396268221885, -23.479762257377264], [-50.65539833303961, -23.47975825530089], [-50.65540081318732, -23.47975445917805], [-50.65540368477982, -23.479750905567464], [-50.65540692016209, -23.4797476286923], [-50.655410488175626, -23.47974466011066], [-50.655414354458514, -23.479742028411586], [-50.655418481776344, -23.47973975893975], [-50.65542283038082, -23.47973787355139], [-50.65542735839253, -23.4797363904038], [-50.65543202220428, -23.479735323780513], [-50.65543677690106, -23.47973468395367], [-50.655441576692596, -23.47973447708514], [-50.65548932030031, -23.47973458259592], [-50.65549046108239, -23.479734532672833]]]}}, {"type": "Feature", "properties": {"id": "SA-3b82be", "name": "SA-3b82be", "etiqueta": "P5", "hacienda": "Hacienda Santo Antonio", "orden": 5, "estrato": "Prioritario", "nivel": "Prioritario", "SI": 1.228, "clorofila_pct_vs_mejor5": 122.8, "area_ha": 0.096, "fecha_img": "2026-07-15", "zona": 5, "tipo": "principal", "status": "pending"}, "geometry": {"type": "Point", "coordinates": [-50.65532752451871, -23.47964396756564]}}, {"type": "Feature", "properties": {"id": "SA-feb81d", "name": "SA-feb81d", "etiqueta": "V1", "hacienda": "Hacienda Santo Antonio", "orden": 6, "estrato": "Vigilancia", "nivel": "Vigilancia", "SI": 0.644, "clorofila_pct_vs_mejor5": 64.4, "area_ha": 0.08, "fecha_img": "2026-07-15", "zona": 6, "clase": "media-baja"}, "geometry": {"type": "Polygon", "coordinates": [[[-50.657215097034715, -23.494461760125194], [-50.65721515605818, -23.494460703461936], [-50.65721561750227, -23.494282266538715], [-50.657215563944646, -23.49428120962778], [-50.6572144182597, -23.494281155190617], [-50.65682507435075, -23.494280298238532], [-50.65682392839719, -23.494280347631765], [-50.656823869370704, -23.494281404294863], [-50.65682340739929, -23.494459841210766], [-50.656823460953824, -23.494460898121776], [-50.65682460664013, -23.49446095256183], [-50.65721395107968, -23.494461809521272], [-50.657215097034715, -23.494461760125194]]]}}, {"type": "Feature", "properties": {"id": "SA-feb81d", "name": "SA-feb81d", "etiqueta": "V1", "hacienda": "Hacienda Santo Antonio", "orden": 6, "estrato": "Vigilancia", "nivel": "Vigilancia", "SI": 0.644, "clorofila_pct_vs_mejor5": 64.4, "area_ha": 0.08, "fecha_img": "2026-07-15", "zona": 6, "tipo": "submuestra", "status": "pending"}, "geometry": {"type": "Point", "coordinates": [-50.657019512581975, -23.49437105387474]}}, {"type": "Feature", "properties": {"id": "SA-f09a9f", "name": "SA-f09a9f", "etiqueta": "V2", "hacienda": "Hacienda Santo Antonio", "orden": 7, "estrato": "Vigilancia", "nivel": "Vigilancia", "SI": 0.674, "clorofila_pct_vs_mejor5": 67.4, "area_ha": 0.096, "fecha_img": "2026-07-15", "zona": 7, "clase": "media-baja"}, "geometry": {"type": "Polygon", "coordinates": [[[-50.65858505474073, -23.49491639528517], [-50.65858511321801, -23.49491534880217], [-50.658585572826205, -23.494736912520295], [-50.65858551925753, -23.49473585560976], [-50.65858437356795, -23.494735801182628], [-50.65834073222465, -23.494735267172217], [-50.658335933014186, -23.4947350391733], [-50.65833118114392, -23.494734378419967], [-50.658326522376996, -23.494733291275644], [-50.65832200157994, -23.49473178821014], [-50.658317662290514, -23.4947298836988], [-50.65831354629849, -23.494727596083138], [-50.65830969324315, -23.49472494739416], [-50.65830614023152, -23.494721963140204], [-50.65830292148105, -23.494718672061293], [-50.658300067990076, -23.494715105852354], [-50.65829760723925, -23.49471129885791], [-50.65829556292692, -23.494707287741445], [-50.65829395474091, -23.49470311113221], [-50.6582927981689, -23.494698809253258], [-50.65829210434925, -23.494694423534032], [-50.65829187996379, -23.494689996211424], [-50.658291993535045, -23.49464594132919], [-50.65829193996874, -23.494644884418573], [-50.6582907942801, -23.494644829989284], [-50.65809732388036, -23.49464440561088], [-50.65809617792398, -23.49464445501344], [-50.658096118907444, -23.49464551167709], [-50.65809565863849, -23.494823949452577], [-50.658095712576326, -23.494825014577064], [-50.65809683309344, -23.49482527716582], [-50.65858393145159, -23.494916238014813], [-50.65858505474073, -23.49491639528517]]]}}, {"type": "Feature", "properties": {"id": "SA-f09a9f", "name": "SA-f09a9f", "etiqueta": "V2", "hacienda": "Hacienda Santo Antonio", "orden": 7, "estrato": "Vigilancia", "nivel": "Vigilancia", "SI": 0.674, "clorofila_pct_vs_mejor5": 67.4, "area_ha": 0.096, "fecha_img": "2026-07-15", "zona": 7, "tipo": "submuestra", "status": "pending"}, "geometry": {"type": "Point", "coordinates": [-50.65834061581245, -23.494780430986438]}}, {"type": "Feature", "properties": {"id": "SA-8d4ea3", "name": "SA-8d4ea3", "etiqueta": "V3", "hacienda": "Hacienda Santo Antonio", "orden": 8, "estrato": "Vigilancia", "nivel": "Vigilancia", "SI": 0.742, "clorofila_pct_vs_mejor5": 74.2, "area_ha": 0.312, "fecha_img": "2026-07-15", "zona": 8, "clase": "media-baja"}, "geometry": {"type": "Polygon", "coordinates": [[[-50.65681446148884, -23.497893318381447], [-50.65681451998172, -23.497892271899676], [-50.65681498203904, -23.497713835719065], [-50.65681492848361, -23.49771277880848], [-50.65681378276923, -23.497712724368043], [-50.656556461638864, -23.497712157384413], [-50.65655176437605, -23.497711938726994], [-50.65654711152208, -23.49771130548181], [-50.656542545996565, -23.49771026349016], [-50.65653810991357, -23.49770882236374], [-50.6565338441931, -23.49770699539604], [-50.65652978818371, -23.497704799439642], [-50.656525979299474, -23.497702254750862], [-50.656522452674906, -23.497699384802814], [-50.656519240840815, -23.497696216068924], [-50.65651637342431, -23.49769277777874], [-50.65651387687542, -23.497689101648294], [-50.65651177422318, -23.497685221587492], [-50.65651008486317, -23.49768117338742], [-50.65642429851753, -23.497441912466275], [-50.656423889616335, -23.497440932616062], [-50.65642275266586, -23.49744087969001], [-50.65617908075043, -23.49744034218505], [-50.65617428144671, -23.49744011411853], [-50.65616952949133, -23.49743945329849], [-50.65616487064825, -23.497438366089003], [-50.65616034978471, -23.49743686296051], [-50.656156010439155, -23.49743495838896], [-50.65615189440186, -23.497432670716446], [-50.656148041312555, -23.497430021974512], [-50.6561444882786, -23.49742703767203], [-50.65614126951766, -23.497423746549458], [-50.65613841602815, -23.497420180302157], [-50.65613595529073, -23.497416373275037], [-50.65613391100362, -23.49741236213188], [-50.65613230285439, -23.4974081855022], [-50.65613114633036, -23.497403883609234], [-50.65613045256945, -23.497399497882576], [-50.6561302282529, -23.49739507055918], [-50.65613034255735, -23.497351015702222], [-50.65613028900749, -23.497349958791418], [-50.65612914329659, -23.49734990434599], [-50.655935686545675, -23.49734947727629], [-50.65593454561206, -23.497349527200747], [-50.65593484978451, -23.497350542601364], [-50.65603133348705, -23.497619641992944], [-50.65603174238586, -23.497620621844142], [-50.656034054330114, -23.497620729472878], [-50.65603883786361, -23.49762117006438], [-50.656043551506244, -23.49762204110638], [-50.656048149831875, -23.497623334204498], [-50.6560525885257, -23.497625036896956], [-50.6560568248113, -23.49762713277462], [-50.65606081786291, -23.49762960163919], [-50.656064529198815, -23.497632419697815], [-50.65606792305226, -23.497635559792407], [-50.65607096671611, -23.49763899166136], [-50.65607363085804, -23.497642682231188], [-50.65607588980323, -23.49764659593528], [-50.65607772178185, -23.497650695056606], [-50.656079109138744, -23.497654940091255], [-50.656080038503696, -23.49765929012913], [-50.6560805009202, -23.497663703248172], [-50.656080491931846, -23.497668136918406], [-50.65608001162518, -23.49767254841181], [-50.65607906462898, -23.497676895214063], [-50.656077660069556, -23.49768113543429], [-50.65607581148284, -23.49768522820875], [-50.65607353668395, -23.49768913409467], [-50.65607085759548, -23.497692815450346], [-50.65606780003625, -23.497696236797903], [-50.656064393472455, -23.497699365165225], [-50.65606067073374, -23.497702170403656], [-50.65605666769678, -23.49770462547865], [-50.656052422939545, -23.4977067067302], [-50.65604797736949, -23.497708394100908], [-50.65604337382938, -23.4977096713293], [-50.65603865668434, -23.497710526106466], [-50.65603387139434, -23.497710950194794], [-50.656031524577195, -23.49771105133266], [-50.6560314655425, -23.497712107994904], [-50.65603076799242, -23.497980871930203], [-50.65603082154167, -23.497981928840943], [-50.65603196725798, -23.497981983287158], [-50.65622541216752, -23.49798241021995], [-50.656226607567966, -23.49798235733446], [-50.65622719844234, -23.497981397489852], [-50.65630824574452, -23.49783279179747], [-50.65631067029012, -23.497828851861673], [-50.65631351061068, -23.497825155761422], [-50.65631673812806, -23.497821740685314], [-50.6563203203683, -23.49781864099441], [-50.656324221288386, -23.497815887876506], [-50.656328401638895, -23.497813509032316], [-50.65633281935888, -23.497811528396756], [-50.656337429999105, -23.497809965898146], [-50.65634218716925, -23.49780883725769], [-50.656347043004686, -23.497808153831283], [-50.65635194864805, -23.497807922495294], [-50.656356854740835, -23.497808145577302], [-50.65636171192003, -23.49780882083277], [-50.656813338176796, -23.49789316109811], [-50.65681446148884, -23.497893318381447]]]}}, {"type": "Feature", "properties": {"id": "SA-8d4ea3", "name": "SA-8d4ea3", "etiqueta": "V3", "hacienda": "Hacienda Santo Antonio", "orden": 8, "estrato": "Vigilancia", "nivel": "Vigilancia", "SI": 0.742, "clorofila_pct_vs_mejor5": 74.2, "area_ha": 0.312, "fecha_img": "2026-07-15", "zona": 8, "tipo": "submuestra", "status": "pending"}, "geometry": {"type": "Point", "coordinates": [-50.65629255612946, -23.49766592008329]}}, {"type": "Feature", "properties": {"id": "SA-df3747", "name": "SA-df3747", "etiqueta": "V4", "hacienda": "Hacienda Santo Antonio", "orden": 9, "estrato": "Vigilancia", "nivel": "Vigilancia", "SI": 0.795, "clorofila_pct_vs_mejor5": 79.5, "area_ha": 0.222, "fecha_img": "2026-07-15", "zona": 9, "clase": "media-baja"}, "geometry": {"type": "Polygon", "coordinates": [[[-50.66082626794653, -23.499347460757022], [-50.66082512726552, -23.499347405829955], [-50.66077737656804, -23.49934730187162], [-50.660772577185455, -23.49934707394589], [-50.66076782513698, -23.499346413265197], [-50.660763166187465, -23.49934532619226], [-50.66075864520519, -23.49934382319619], [-50.660754305729725, -23.499341918751675], [-50.66075018955262, -23.499339631199582], [-50.66074633631493, -23.4993369825703], [-50.66074278312545, -23.499333998371597], [-50.66073956420334, -23.499330707342967], [-50.66073671054858, -23.499327141178828], [-50.66073424964342, -23.49932333422331], [-50.66073220518768, -23.4993193231395], [-50.66073059687055, -23.49931514655634], [-50.660729440181, -23.49931084469663], [-50.660728746258506, -23.499306458989626], [-50.6607285217859, -23.499302031672105], [-50.66072863457212, -23.499257976804756], [-50.66072858098501, -23.49925691989535], [-50.66072743525528, -23.49925686548354], [-50.660483785546404, -23.49925633472785], [-50.660478986167746, -23.49925610679312], [-50.6604742341241, -23.499255446103522], [-50.66046957518031, -23.499254359021855], [-50.66046505420457, -23.49925285601732], [-50.6604607147364, -23.499250951564697], [-50.660456598567265, -23.499248664004913], [-50.66045274533817, -23.49924601536843], [-50.6604491921578, -23.499243031163108], [-50.660445973245245, -23.499239740128477], [-50.66044311960039, -23.499236173959037], [-50.66044065870537, -23.499232366998957], [-50.66043861425993, -23.499228355911363], [-50.66043700595317, -23.499224179325253], [-50.66043584927393, -23.499219877463428], [-50.66043515536161, -23.499215491755187], [-50.66043493089892, -23.4992110644373], [-50.6604352752298, -23.499076682430122], [-50.66043522164508, -23.49907562552062], [-50.66043407591706, -23.499075571106665], [-50.66028836715675, -23.49907525347449], [-50.660283567785065, -23.499075025533816], [-50.66027881574897, -23.499074364838336], [-50.660274156813195, -23.499073277750888], [-50.66026963584591, -23.49907177474075], [-50.66026529638651, -23.49906987028273], [-50.66026118022641, -23.49906758271784], [-50.660257327006484, -23.499064934076575], [-50.660253773835386, -23.499061949866825], [-50.66025055493208, -23.499058658828194], [-50.660247701296356, -23.499055092655194], [-50.66024524041028, -23.499051285692044], [-50.66024319597352, -23.499047274601896], [-50.66024158767507, -23.499043098013765], [-50.660240431003686, -23.499038796150483], [-50.66023973709871, -23.499034410441357], [-50.66023951264279, -23.49902998312317], [-50.66023962559011, -23.498985928256513], [-50.66023957200698, -23.498984871346952], [-50.66023842627985, -23.498984816931568], [-50.66014289004482, -23.498984608567078], [-50.66014174405145, -23.498984657984213], [-50.6601416850488, -23.498985714648217], [-50.6601409957951, -23.499254477473446], [-50.66014105068809, -23.49925555902139], [-50.66014199268956, -23.499256205196303], [-50.660412580104264, -23.499423427202846], [-50.66041644029483, -23.499426075123637], [-50.66042000014067, -23.49942905958881], [-50.66042322528547, -23.499432351795132], [-50.66042608460316, -23.499435919969343], [-50.660428550498274, -23.499439729674773], [-50.66043059917226, -23.499443744143733], [-50.66043221085322, -23.499447924632364], [-50.6604333699867, -23.499452230794507], [-50.66043406538575, -23.499456621071126], [-50.66043429033902, -23.499461053091395], [-50.66043412360177, -23.499526124376956], [-50.66043417558316, -23.499527173198963], [-50.660435236070505, -23.49952755497274], [-50.66072657283532, -23.499617823574063], [-50.66072767697077, -23.499618110912905], [-50.66072809525403, -23.499617125679748], [-50.66082595853794, -23.499348474812493], [-50.66082626794653, -23.499347460757022]]]}}, {"type": "Feature", "properties": {"id": "SA-df3747", "name": "SA-df3747", "etiqueta": "V4", "hacienda": "Hacienda Santo Antonio", "orden": 9, "estrato": "Vigilancia", "nivel": "Vigilancia", "SI": 0.795, "clorofila_pct_vs_mejor5": 79.5, "area_ha": 0.222, "fecha_img": "2026-07-15", "zona": 9, "tipo": "submuestra", "status": "pending"}, "geometry": {"type": "Point", "coordinates": [-50.660454540439694, -23.49928000423843]}}, {"type": "Feature", "properties": {"id": "SA-31f6db", "name": "SA-31f6db", "etiqueta": "V5", "hacienda": "Hacienda Santo Antonio", "orden": 10, "estrato": "Vigilancia", "nivel": "Vigilancia", "SI": 0.817, "clorofila_pct_vs_mejor5": 81.7, "area_ha": 1.636, "fecha_img": "2026-07-15", "zona": 10, "clase": "media-baja"}, "geometry": {"type": "Polygon", "coordinates": [[[-50.65897142215658, -23.49699486730333], [-50.65897035886943, -23.496994482508523], [-50.65871138797838, -23.496914237475657], [-50.658707006736265, -23.49691266014899], [-50.65870280976997, -23.496910702458955], [-50.65869883579383, -23.496908382464003], [-50.65869512146519, -23.4969057215646], [-50.658691701046365, -23.496902744305828], [-50.658688606088496, -23.496899478150997], [-50.658685865140555, -23.49689595322829], [-50.65868350348599, -23.49689220205285], [-50.658681542909534, -23.496888259226868], [-50.65868000149618, -23.496884161120377], [-50.65867889346444, -23.49687994553575], [-50.65867822903516, -23.496875651359037], [-50.65867801433723, -23.496871318201254], [-50.65867816027039, -23.49681465181755], [-50.658678106700364, -23.496813594907316], [-50.658676960992786, -23.496813540480662], [-50.658335376910756, -23.496812791845546], [-50.65833057762512, -23.49681256384564], [-50.65832582568055, -23.49681190309146], [-50.65832116684088, -23.49681081594641], [-50.658316645973336, -23.49680931288032], [-50.65831230661639, -23.49680740836855], [-50.65830819056043, -23.496805120752605], [-50.65830433744537, -23.496802472063493], [-50.65830078437882, -23.496799487809565], [-50.65829756557874, -23.49679619673083], [-50.65829471204395, -23.49679263052221], [-50.658292251255524, -23.496788823528252], [-50.65829020691218, -23.49678481241241], [-50.65828859870203, -23.49678063580394], [-50.658287442112986, -23.496776333925887], [-50.65828674828358, -23.496771948207677], [-50.65828652389573, -23.4967675208862], [-50.658286756781045, -23.49667719373797], [-50.65828700399546, -23.49667276745068], [-50.65828772043119, -23.496668384825206], [-50.65828889918851, -23.496664088068613], [-50.65829052891532, -23.496659918561015], [-50.6582925939164, -23.496655916457016], [-50.65829507430465, -23.496652120299057], [-50.65829794619254, -23.49664856664621], [-50.65830118192221, -23.496645289722053], [-50.65830475033182, -23.49664232108515], [-50.65830861705563, -23.49663968932506], [-50.658312744855, -23.49663741978708], [-50.658317093976976, -23.49663553432805], [-50.65832162253717, -23.496634051105975], [-50.65832628692313, -23.496632984405075], [-50.65833104221428, -23.49663234449825], [-50.65833584261462, -23.49663213754815], [-50.65848154957469, -23.496632456977093], [-50.65848270445398, -23.496632407227857], [-50.6584829891675, -23.49663137378069], [-50.65858161808896, -23.496182108429092], [-50.65858178515608, -23.496181098748593], [-50.6585806849657, -23.496181215378588], [-50.65799520239091, -23.496269893190284], [-50.65799404833938, -23.496270123358805], [-50.65799398628352, -23.496271210819938], [-50.65799363958848, -23.496405567662517], [-50.6579933923649, -23.496409993949374], [-50.657992675920966, -23.496414376573547], [-50.6579914971564, -23.49641867332795], [-50.657989867423304, -23.496422842832477], [-50.65798780241686, -23.496426844932515], [-50.65798532202419, -23.49643064108563], [-50.6579824501328, -23.496434194732778], [-50.657979214400555, -23.49643747165037], [-50.65797564598934, -23.49644044027988], [-50.6579717792649, -23.496443072031756], [-50.65796765146592, -23.496445341560772], [-50.65796330234537, -23.496447227010112], [-50.657958773787726, -23.496448710221827], [-50.65795410940547, -23.496449776911803], [-50.657949354119225, -23.49645041680719], [-50.657944553725024, -23.496450623745446], [-50.65753912492369, -23.49644973320629], [-50.65753442770355, -23.496449514578966], [-50.65752977488872, -23.49644888136349], [-50.65752520939844, -23.49644783940088], [-50.657520773346434, -23.49644639830258], [-50.657516507652446, -23.496444571361803], [-50.65751245166477, -23.496442375430888], [-50.65750864279729, -23.49643983076593], [-50.65750511618434, -23.496436960839794], [-50.657501904356664, -23.49643379212574], [-50.657499036941275, -23.496430353853103], [-50.65749654038821, -23.496426677737755], [-50.65749443772654, -23.496422797689494], [-50.657492748351935, -23.496418749499256], [-50.65740696101061, -23.496179489069256], [-50.65740655210588, -23.49617850922142], [-50.65740541516574, -23.49617845630266], [-50.657211916890816, -23.49617803074245], [-50.65721077092094, -23.496178080138318], [-50.65721071189648, -23.496179136801338], [-50.65721014623901, -23.496397849036352], [-50.65720989136069, -23.49640234451759], [-50.65720915251419, -23.496406794266825], [-50.65720793703975, -23.49641115407668], [-50.65720625701283, -23.496415380633298], [-50.657204129124125, -23.49641943194664], [-50.657201574513756, -23.496423267767724], [-50.65719861856126, -23.496426849988385], [-50.65719529063341, -23.496430143019957], [-50.65719162379253, -23.496433114146786], [-50.65718765446794, -23.49643573385131], [-50.657183422094135, -23.49643797610725], [-50.657178968718924, -23.496439818638226], [-50.65717433858575, -23.49644124313904], [-50.65716957769409, -23.496442235457543], [-50.657164733342526, -23.496442785735237], [-50.657159853658776, -23.49644288850521], [-50.65715498712158, -23.496442542746482], [-50.65642795022127, -23.496357099088808], [-50.65642679652899, -23.49635701711556], [-50.656426736099576, -23.49635808284368], [-50.65642650774336, -23.49644617517254], [-50.65642656129531, -23.496447232083398], [-50.65642770699858, -23.49644728652655], [-50.65667135144001, -23.496447823564818], [-50.65667615070888, -23.496448051615655], [-50.65668090263153, -23.496448712419934], [-50.65668556144438, -23.496449799613774], [-50.656690082280555, -23.496451302726893], [-50.65669442160198, -23.49645320728352], [-50.65669853761865, -23.496455494941742], [-50.65670239069109, -23.49645814367019], [-50.65670594371211, -23.496461127960167], [-50.65670916246418, -23.496464419071366], [-50.656712015948976, -23.496467985308588], [-50.65671447668583, -23.49647179232706], [-50.65671652097651, -23.49647580346312], [-50.656718129133324, -23.496479980087358], [-50.656719285668814, -23.496484281976603], [-50.65671997944487, -23.496488667701325], [-50.65672020378002, -23.4964930950246], [-50.65671938781846, -23.496808131291058], [-50.65671944137286, -23.496809188201794], [-50.6567205870794, -23.49680924264283], [-50.65676835439562, -23.49680934787247], [-50.65677315367778, -23.49680957592046], [-50.65677790561389, -23.496810236721906], [-50.65678256444024, -23.496811323912947], [-50.65678708528984, -23.496812827023348], [-50.656791424624465, -23.496814731577338], [-50.65679554065398, -23.496817019233045], [-50.6567993937388, -23.496819667959112], [-50.65680294677161, -23.496822652246884], [-50.65680616553479, -23.496825943356058], [-50.65680901902986, -23.496829509591457], [-50.65681147977609, -23.496833316608335], [-50.65681352407515, -23.496837327743037], [-50.65681513223927, -23.49684150436616], [-50.65681628878091, -23.49684580625456], [-50.65681698256191, -23.49685019197871], [-50.65681720690075, -23.496854619301686], [-50.65681685894099, -23.496989000114628], [-50.65681691380615, -23.496990081663732], [-50.65681785577518, -23.496990727858552], [-50.65708843432993, -23.49715795558375], [-50.65709229438759, -23.49716060358612], [-50.65709585409736, -23.497163588126536], [-50.657099079104285, -23.49716688040101], [-50.657101938283596, -23.497170448635647], [-50.65710440404116, -23.497174258393184], [-50.65710645257978, -23.497178272905444], [-50.65710806412884, -23.497182453428128], [-50.65710922313515, -23.49718675961476], [-50.65710991841302, -23.497191149906065], [-50.65711014325225, -23.497195581931074], [-50.65710997496216, -23.497260629552205], [-50.6571100285198, -23.49726168646277], [-50.65711117423045, -23.497261740900985], [-50.65750052690902, -23.4972625972404], [-50.65750167288821, -23.49726254784251], [-50.65750173191093, -23.49726149117951], [-50.65750212376395, -23.49710985823188], [-50.65750238332246, -23.49710532073986], [-50.65750313591628, -23.497100830265165], [-50.65750437392772, -23.497096432259717], [-50.657506084825755, -23.497092171239444], [-50.65750825129291, -23.497088090333722], [-50.6575108514005, -23.49708423084888], [-50.65751385883059, -23.497080631850007], [-50.65751724314243, -23.497077329765606], [-50.6575209700805, -23.49707435801885], [-50.657525001921314, -23.497071746689308], [-50.657529297855206, -23.49706952220842], [-50.657697203748484, -23.496992554824402], [-50.65769824728886, -23.496992014466112], [-50.65769831033752, -23.496990912246353], [-50.65769845661817, -23.49693427383283], [-50.657698693664116, -23.496929941666444], [-50.65769938023534, -23.49692565045382], [-50.65770050999862, -23.496921439778617], [-50.65770207253258, -23.496917348481578], [-50.657704053423835, -23.496913414302245], [-50.657706434399906, -23.496909673530862], [-50.65770919349782, -23.496906160673607], [-50.657712305266664, -23.496902908134295], [-50.657715741002384, -23.49689994591547], [-50.65771946901255, -23.49689730134167], [-50.65772345490869, -23.49689499880734], [-50.657727661923516, -23.496893059551862], [-50.657732051250065, -23.496891501463594], [-50.65795226722955, -23.496824338071484], [-50.657956759196956, -23.49682318373688], [-50.65796134984663, -23.49682242868707], [-50.657965997552424, -23.49682207976854], [-50.65797066017087, -23.496822140145156], [-50.65797529542325, -23.496822609269426], [-50.657979861279, -23.496823482887525], [-50.65798431633682, -23.496824753077856], [-50.65798862020006, -23.496826408322846], [-50.65799273384305, -23.496828433613413], [-50.65799661996496, -23.49683081058505], [-50.65800024332801, -23.49683351768436], [-50.658003571076996, -23.49683653036447], [-50.65800657303725, -23.49683982130762], [-50.658009221988166, -23.49684336067289], [-50.65801149391014, -23.49684711636674], [-50.65808951503334, -23.49699189117686], [-50.65809010093075, -23.496992853611076], [-50.65809129603525, -23.49699291175654], [-50.658432850252815, -23.496993660865662], [-50.65843764954522, -23.496993888862495], [-50.65844240149691, -23.496994549613337], [-50.65844706034406, -23.496995636754814], [-50.65845158121946, -23.496997139817182], [-50.65845592058464, -23.496999044325126], [-50.658460036649174, -23.4970013319372], [-50.658463889773124, -23.497003980622505], [-50.65846744284883, -23.497006964872742], [-50.65847066165822, -23.497010255947984], [-50.658473515202395, -23.49701382215339], [-50.658475976000155, -23.497017629144487], [-50.658478020352646, -23.49702164025788], [-50.65847962857161, -23.49702581686437], [-50.658480785168976, -23.49703011874096], [-50.658481479006056, -23.49703450445824], [-50.658481703400746, -23.49703893177938], [-50.65848147064428, -23.49712925892526], [-50.658481223435295, -23.497133685212656], [-50.65848050700322, -23.497138067838808], [-50.65847932824766, -23.497142364596606], [-50.658477698520635, -23.497146534105926], [-50.658475633517256, -23.4971505362121], [-50.65847315312462, -23.49715433237264], [-50.65847028123024, -23.497157886028422], [-50.658467045492, -23.497161162955777], [-50.658463477071855, -23.497164131596083], [-50.658459610335626, -23.497166763359687], [-50.65845548252211, -23.49716903290125], [-50.65845113338443, -23.497170918363828], [-50.6584466048072, -23.497172401589374], [-50.65844194040313, -23.497173468293592], [-50.65843718509302, -23.497174108203527], [-50.65843238467315, -23.497174315156506], [-50.65828670835356, -23.497173995743164], [-50.658285512961015, -23.497174048644563], [-50.658284922105125, -23.49717500849729], [-50.6581876038307, -23.497353455111398], [-50.6581871572034, -23.49735438351134], [-50.65818825705309, -23.49735443510354], [-50.658675505738344, -23.49735550323659], [-50.65867673582934, -23.497355447441773], [-50.6586775267748, -23.497354576786833], [-50.658970780923354, -23.496995739075924], [-50.65897142215658, -23.49699486730333]]]}}, {"type": "Feature", "properties": {"id": "SA-31f6db", "name": "SA-31f6db", "etiqueta": "V5", "hacienda": "Hacienda Santo Antonio", "orden": 10, "estrato": "Vigilancia", "nivel": "Vigilancia", "SI": 0.817, "clorofila_pct_vs_mejor5": 81.7, "area_ha": 1.636, "fecha_img": "2026-07-15", "zona": 10, "tipo": "submuestra", "status": "pending"}, "geometry": {"type": "Point", "coordinates": [-50.65750312515813, -23.496722357312084]}}, {"type": "Feature", "properties": {"id": "SA-30b008", "name": "SA-30b008", "etiqueta": "V6", "hacienda": "Hacienda Santo Antonio", "orden": 11, "estrato": "Vigilancia", "nivel": "Vigilancia", "SI": 0.837, "clorofila_pct_vs_mejor5": 83.7, "area_ha": 0.051, "fecha_img": "2026-07-15", "zona": 11, "clase": "media-baja"}, "geometry": {"type": "Polygon", "coordinates": [[[-50.657106877825264, -23.4984359388274], [-50.6571069368518, -23.498434882164755], [-50.65710739852906, -23.498256445334537], [-50.65710734497114, -23.49825538842409], [-50.657106199251906, -23.49825533398576], [-50.65705843141282, -23.49825522885361], [-50.657053632077734, -23.49825500081382], [-50.65704888008843, -23.498254340020285], [-50.65704422120922, -23.498253252836783], [-50.65703970030769, -23.498251749733516], [-50.65703536092264, -23.498249845186194], [-50.65703124484474, -23.498247557536676], [-50.65702739171408, -23.49824490881629], [-50.65702383863846, -23.498241924533673], [-50.65702061983591, -23.49823863342913], [-50.65701776630528, -23.49823506719782], [-50.6570153055276, -23.498231260184518], [-50.657013261201485, -23.49822724905285], [-50.657011653014884, -23.498223072432246], [-50.65701049645547, -23.498218770545837], [-50.657009802661506, -23.49821438482316], [-50.65700957831456, -23.498209957501132], [-50.657009692331144, -23.498165902644704], [-50.657009638774035, -23.498164845734227], [-50.657008493055635, -23.49816479129518], [-50.656912957444, -23.498164580957088], [-50.656911811456844, -23.49816463035054], [-50.65691175242891, -23.498165687013138], [-50.65691105664894, -23.498434450957667], [-50.65691111020534, -23.498435507868134], [-50.65691225592603, -23.498435562307915], [-50.65710573183582, -23.49843598822226], [-50.657106877825264, -23.4984359388274]]]}}, {"type": "Feature", "properties": {"id": "SA-30b008", "name": "SA-30b008", "etiqueta": "V6", "hacienda": "Hacienda Santo Antonio", "orden": 11, "estrato": "Vigilancia", "nivel": "Vigilancia", "SI": 0.837, "clorofila_pct_vs_mejor5": 83.7, "area_ha": 0.051, "fecha_img": "2026-07-15", "zona": 11, "tipo": "submuestra", "status": "pending"}, "geometry": {"type": "Point", "coordinates": [-50.657009227654484, -23.498345448146104]}}, {"type": "Feature", "properties": {"id": "SA-8b34f0", "name": "SA-8b34f0", "etiqueta": "V7", "hacienda": "Hacienda Santo Antonio", "orden": 12, "estrato": "Vigilancia", "nivel": "Vigilancia", "SI": 0.847, "clorofila_pct_vs_mejor5": 84.7, "area_ha": 0.186, "fecha_img": "2026-07-15", "zona": 12, "clase": "media-baja"}, "geometry": {"type": "Polygon", "coordinates": [[[-50.659852910458085, -23.49699671544892], [-50.659852969461944, -23.496995658784773], [-50.6598534274105, -23.496817221870387], [-50.659853373831105, -23.49681616496044], [-50.6598522281229, -23.496816110542426], [-50.65936493773097, -23.49681504601671], [-50.65936379175617, -23.49681509542836], [-50.65936373274851, -23.4968161520923], [-50.65936361952174, -23.496860206967195], [-50.65936337234282, -23.496864633256493], [-50.65936265594144, -23.496869015887203], [-50.659361477216905, -23.49687331265219], [-50.659359847520925, -23.49687748217125], [-50.65935778254833, -23.49688148428961], [-50.65935530218591, -23.49688528046467], [-50.65935243032089, -23.496888834137174], [-50.659349194610876, -23.49689211108329], [-50.65934562621753, -23.496895079744217], [-50.65934175950644, -23.496897711530107], [-50.659337631716156, -23.496899981095385], [-50.659333282599576, -23.496901866582906], [-50.6593287540411, -23.496903349834362], [-50.65932408965327, -23.49690441656522], [-50.65931933435672, -23.496905056502264], [-50.6593145339476, -23.496905263482557], [-50.659266766584075, -23.496905159033073], [-50.65926562060846, -23.496905208443984], [-50.65926556159998, -23.496906265107867], [-50.65926533507992, -23.49699437485549], [-50.65926538865468, -23.496995431765566], [-50.659266534364136, -23.49699548618791], [-50.65931430176022, -23.496995590637844], [-50.65931910105457, -23.496995818607548], [-50.6593238530111, -23.496996479331557], [-50.659328511865915, -23.49699756644676], [-50.65933303275172, -23.496999069483664], [-50.65933737212996, -23.497000973967207], [-50.659341488210096, -23.497003261556184], [-50.659345341352015, -23.49700591021989], [-50.659348894447895, -23.497008894450257], [-50.65935211327946, -23.497012185507543], [-50.65935496684762, -23.497015751697084], [-50.659357427670926, -23.49701955867456], [-50.659359472050284, -23.49702356977669], [-50.659361080297174, -23.497027746374403], [-50.65936223692326, -23.497032048244783], [-50.659362930789555, -23.497036433958485], [-50.65936315521372, -23.49704086127869], [-50.65936257767175, -23.497265570458588], [-50.65936263124737, -23.497266627368596], [-50.65936377695922, -23.497266681790254], [-50.65955727686704, -23.497267104696697], [-50.65955841407661, -23.497267056762425], [-50.65955882802982, -23.497266078718077], [-50.65964584784264, -23.497027196979502], [-50.65964755806324, -23.497023156238146], [-50.659649680701676, -23.497019285448037], [-50.65965219617792, -23.49701562031469], [-50.65965508128835, -23.497012194646576], [-50.65965830941966, -23.49700904004323], [-50.659661850794436, -23.497006185603823], [-50.659665672745795, -23.497003657658677], [-50.65966974001872, -23.497001479526432], [-50.659674015095284, -23.496999671298934], [-50.6596784585407, -23.496998249655903], [-50.65968302936709, -23.49699722771103], [-50.6596876854116, -23.49699661489112], [-50.65969238372525, -23.49699641684903], [-50.65985176448184, -23.496996764864136], [-50.659852910458085, -23.49699671544892]]]}}, {"type": "Feature", "properties": {"id": "SA-8b34f0", "name": "SA-8b34f0", "etiqueta": "V7", "hacienda": "Hacienda Santo Antonio", "orden": 12, "estrato": "Vigilancia", "nivel": "Vigilancia", "SI": 0.847, "clorofila_pct_vs_mejor5": 84.7, "area_ha": 0.186, "fecha_img": "2026-07-15", "zona": 12, "tipo": "submuestra", "status": "pending"}, "geometry": {"type": "Point", "coordinates": [-50.65948140406932, -23.49715321586864]}}, {"type": "Feature", "properties": {"id": "SA-1111fe", "name": "SA-1111fe", "etiqueta": "V8", "hacienda": "Hacienda Santo Antonio", "orden": 13, "estrato": "Vigilancia", "nivel": "Vigilancia", "SI": 0.849, "clorofila_pct_vs_mejor5": 84.9, "area_ha": 0.321, "fecha_img": "2026-07-15", "zona": 13, "clase": "media-baja"}, "geometry": {"type": "Polygon", "coordinates": [[[-50.659365049463254, -23.496273132696977], [-50.659363908809425, -23.496273077759508], [-50.65887669750337, -23.496272011898544], [-50.65887546742251, -23.496272067695077], [-50.65887467648489, -23.496272938351225], [-50.65858141528611, -23.49663178623146], [-50.65858078387391, -23.496632643595603], [-50.65858185857979, -23.496632946501755], [-50.65894614883409, -23.496717789193337], [-50.658950847666034, -23.496719118146892], [-50.65895537839507, -23.4967208748032], [-50.658959695383, -23.496723041467394], [-50.65896375514467, -23.496725596314608], [-50.65896751678595, -23.496728513609785], [-50.65897094241568, -23.4967317639669], [-50.65897399752735, -23.49673531464501], [-50.65897665134668, -23.496739129878016], [-50.65897887714162, -23.49674317123492], [-50.65898065249162, -23.49674739800701], [-50.659069084722155, -23.496994024914127], [-50.65906949364167, -23.496995004757668], [-50.659070630589646, -23.496995057664375], [-50.6591661607146, -23.496995266659503], [-50.65916735610528, -23.496995213751333], [-50.65916794695399, -23.496994253895146], [-50.65926526364646, -23.496815806642072], [-50.659265710264386, -23.496814878238858], [-50.65926461041864, -23.496814826654315], [-50.6592168272063, -23.496814722155168], [-50.65921202791872, -23.49681449418239], [-50.6592072759693, -23.496813833455036], [-50.65920261712198, -23.49681274633626], [-50.659198096244026, -23.496811243295628], [-50.65919375687401, -23.496809338808255], [-50.65918964080246, -23.496807051215427], [-50.65918578766943, -23.49680440254791], [-50.6591822345827, -23.496801418313847], [-50.65917901576044, -23.496798127253065], [-50.65917616220167, -23.496794561060316], [-50.659173701387694, -23.49679075407998], [-50.65917165701749, -23.49678674297539], [-50.65917004877942, -23.496782566375703], [-50.65916889216165, -23.49677826450386], [-50.65916819830302, -23.496773878789234], [-50.65916797388571, -23.496769451468683], [-50.65916843845377, -23.496588797154576], [-50.659168685638555, -23.4965843708655], [-50.65916940204467, -23.496579988235574], [-50.659170580772674, -23.496575691471925], [-50.659172210470736, -23.496571521954714], [-50.659174275443945, -23.496567519838663], [-50.65917675580544, -23.496563723666316], [-50.65917962766797, -23.496560169996876], [-50.65918286337391, -23.496556893054095], [-50.65918643176163, -23.496553924396707], [-50.65919029846563, -23.496551292614477], [-50.659194426247446, -23.4965490230529], [-50.6591987753543, -23.496547137569053], [-50.65920330390195, -23.49654565432119], [-50.65920796827804, -23.49654458759376], [-50.65921272356213, -23.49654394765994], [-50.65921752395827, -23.49654374068263], [-50.65926531684595, -23.4965438452018], [-50.659266454049394, -23.496543797269577], [-50.65926686800241, -23.49654281922592], [-50.65936474005101, -23.496274146749904], [-50.659365049463254, -23.496273132696977]]]}}, {"type": "Feature", "properties": {"id": "SA-1111fe", "name": "SA-1111fe", "etiqueta": "V8", "hacienda": "Hacienda Santo Antonio", "orden": 13, "estrato": "Vigilancia", "nivel": "Vigilancia", "SI": 0.849, "clorofila_pct_vs_mejor5": 84.9, "area_ha": 0.321, "fecha_img": "2026-07-15", "zona": 13, "tipo": "submuestra", "status": "pending"}, "geometry": {"type": "Point", "coordinates": [-50.65896610976837, -23.496675367847544]}}, {"type": "Feature", "properties": {"id": "SA-2d049d", "name": "SA-2d049d", "etiqueta": "V9", "hacienda": "Hacienda Santo Antonio", "orden": 14, "estrato": "Vigilancia", "nivel": "Vigilancia", "SI": 0.853, "clorofila_pct_vs_mejor5": 85.3, "area_ha": 0.055, "fecha_img": "2026-07-15", "zona": 14, "clase": "media-baja"}, "geometry": {"type": "Polygon", "coordinates": [[[-50.660827668822655, -23.498805420529735], [-50.660827367804565, -23.498804424244838], [-50.66073085677039, -23.498535281105063], [-50.66073044783395, -23.498534301265877], [-50.66072931087194, -23.498534248371126], [-50.6606337493018, -23.4985340402555], [-50.660632603312465, -23.4985340896763], [-50.66063254431398, -23.498535146340597], [-50.66063162471947, -23.498894252169723], [-50.660631675445835, -23.49889526676861], [-50.660632684203, -23.49889485926024], [-50.6608266895232, -23.49880592444534], [-50.660827668822655, -23.498805420529735]]]}}, {"type": "Feature", "properties": {"id": "SA-2d049d", "name": "SA-2d049d", "etiqueta": "V9", "hacienda": "Hacienda Santo Antonio", "orden": 14, "estrato": "Vigilancia", "nivel": "Vigilancia", "SI": 0.853, "clorofila_pct_vs_mejor5": 85.3, "area_ha": 0.055, "fecha_img": "2026-07-15", "zona": 14, "tipo": "submuestra", "status": "pending"}, "geometry": {"type": "Point", "coordinates": [-50.660705655823435, -23.49866985267495]}}, {"type": "Feature", "properties": {"id": "SA-03f1dd", "name": "SA-03f1dd", "etiqueta": "V10", "hacienda": "Hacienda Santo Antonio", "orden": 15, "estrato": "Vigilancia", "nivel": "Vigilancia", "SI": 0.862, "clorofila_pct_vs_mejor5": 86.2, "area_ha": 0.748, "fecha_img": "2026-07-15", "zona": 15, "clase": "media-baja"}, "geometry": {"type": "Polygon", "coordinates": [[[-50.66034028692755, -23.497901072882183], [-50.660340349954794, -23.49789997066123], [-50.660340807123575, -23.497721589685508], [-50.66034074974681, -23.49772048720206], [-50.66033970899266, -23.497719942282412], [-50.66017220026788, -23.497642240682485], [-50.66016791581487, -23.497639997414506], [-50.66016389744502, -23.49763736845841], [-50.66016018583168, -23.49763438042411], [-50.66015681854325, -23.497631063556057], [-50.66015382966292, -23.497627451427118], [-50.660151249443665, -23.497623580598745], [-50.66014910400205, -23.497619490250894], [-50.66014741505389, -23.497615221785487], [-50.66014619969443, -23.49761081840729], [-50.6601454702253, -23.497606324686636], [-50.66014523403003, -23.497601786108312], [-50.66014631773901, -23.49717917164878], [-50.66014626415716, -23.497178114738958], [-50.66014511844568, -23.49717806032306], [-50.65985370510875, -23.497177424430276], [-50.65985255913095, -23.49717747384548], [-50.65985250012699, -23.497178530509604], [-50.659852387060724, -23.4972225853847], [-50.659852139897275, -23.497227011674752], [-50.6598514235099, -23.49723139430767], [-50.65985024479778, -23.4972356910763], [-50.659848615112494, -23.4972398606004], [-50.65984655014877, -23.49724386272516], [-50.65984406979333, -23.497247658907913], [-50.659841197933304, -23.497251212589315], [-50.65983796222627, -23.497254489545476], [-50.659834393833854, -23.49725745821747], [-50.65983052712163, -23.497260090015356], [-50.65982639932817, -23.497262359593446], [-50.65982205020639, -23.497264245094463], [-50.659817521640754, -23.497265728359974], [-50.65981285724386, -23.497266795105315], [-50.65980810193644, -23.497267435057122], [-50.65980330151475, -23.49726764205232], [-50.659755551571685, -23.49726753778949], [-50.659754410639835, -23.497267587741934], [-50.65975471484146, -23.49726860313545], [-50.65992232479613, -23.497736036189128], [-50.6599236224184, -23.49774036675211], [-50.65992444708696, -23.49774479479352], [-50.65992479064062, -23.49774927649225], [-50.65992464967945, -23.497753767496196], [-50.659924025598364, -23.49775822336118], [-50.65992292457341, -23.497762599990747], [-50.659921357500565, -23.49776685407256], [-50.659919339887985, -23.49777094350706], [-50.65991689170247, -23.497774827824095], [-50.659914037171916, -23.497778468583377], [-50.659910804545504, -23.497781829754945], [-50.65990722581418, -23.497784878075716], [-50.65990333639404, -23.497787583378674], [-50.65989917477585, -23.497789918891353], [-50.65989478214415, -23.49779186150089], [-50.65989020196963, -23.497793391982682], [-50.65988547957899, -23.497794495190636], [-50.65988066170631, -23.49779516020711], [-50.65987579603063, -23.497795380450906], [-50.65987093070404, -23.497795153742445], [-50.65986611387517, -23.49779448232527], [-50.659460557963165, -23.49771875388413], [-50.65945938630858, -23.49771859102194], [-50.659458801481414, -23.497719541427326], [-50.65926308680641, -23.498078416745035], [-50.65926262899231, -23.498079370348613], [-50.65926373333608, -23.498079594592163], [-50.659818295199265, -23.498166083259207], [-50.659822919963034, -23.498167018612424], [-50.65982742516935, -23.498168361499403], [-50.65983176870389, -23.498170099366938], [-50.65983590996359, -23.4981722159696], [-50.659839810236264, -23.498174691521502], [-50.65984343306243, -23.498177502881383], [-50.659846744576136, -23.498180623768867], [-50.65984971382159, -23.498184025010115], [-50.65985231304247, -23.49818767481055], [-50.6598545179414, -23.498191539052115], [-50.6598563079071, -23.498195581612144], [-50.65985766620706, -23.498199764701056], [-50.6599466703255, -23.498531442127735], [-50.65994701612738, -23.49853249997692], [-50.65994813117438, -23.498532903964676], [-50.66023943023522, -23.498623162557994], [-50.66024048993457, -23.498623439022538], [-50.66024038975364, -23.498622427556768], [-50.66014914483169, -23.498023243133193], [-50.660148715122496, -23.49801892359575], [-50.660148736703945, -23.498014585961815], [-50.66014920937692, -23.49801027024324], [-50.66015012878127, -23.49800601624975], [-50.66015148643605, -23.498001863221656], [-50.66015326981773, -23.497997849467946], [-50.660155462475736, -23.49799401201288], [-50.66015804418421, -23.49799038625448], [-50.660160991128535, -23.497987005637995], [-50.66016427612505, -23.497983901347418], [-50.66016786887179, -23.497981102017782], [-50.660171736228, -23.49797863347108], [-50.66017584251985, -23.49797651847803], [-50.66033924339036, -23.49790161325822], [-50.66034028692755, -23.497901072882183]]]}}, {"type": "Feature", "properties": {"id": "SA-03f1dd", "name": "SA-03f1dd", "etiqueta": "V10", "hacienda": "Hacienda Santo Antonio", "orden": 15, "estrato": "Vigilancia", "nivel": "Vigilancia", "SI": 0.862, "clorofila_pct_vs_mejor5": 86.2, "area_ha": 0.748, "fecha_img": "2026-07-15", "zona": 15, "tipo": "submuestra", "status": "pending"}, "geometry": {"type": "Point", "coordinates": [-50.65985021063642, -23.497900521771705]}}, {"type": "Feature", "properties": {"id": "SA-391b8f", "name": "SA-391b8f", "etiqueta": "V11", "hacienda": "Hacienda Santo Antonio", "orden": 16, "estrato": "Vigilancia", "nivel": "Vigilancia", "SI": 0.88, "clorofila_pct_vs_mejor5": 88.0, "area_ha": 0.629, "fecha_img": "2026-07-15", "zona": 16, "clase": "media-baja"}, "geometry": {"type": "Polygon", "coordinates": [[[-50.66093047136127, -23.49690873639363], [-50.66093053035649, -23.49690767972897], [-50.66093098685241, -23.496729242792583], [-50.660930933264424, -23.496728185882898], [-50.660929787556434, -23.496728131472803], [-50.66088202024872, -23.49672802751923], [-50.66087722096071, -23.496727799597746], [-50.660872469005405, -23.496727138921116], [-50.660867810146776, -23.496726051851994], [-50.66086328925223, -23.49672454885947], [-50.66085894986047, -23.496722644418217], [-50.66085483376225, -23.496720356869037], [-50.66085098059788, -23.49671770824231], [-50.66084742747543, -23.496714724045784], [-50.660844208613426, -23.49671143301891], [-50.66084135501127, -23.49670786685612], [-50.660838894150686, -23.496704059901507], [-50.66083684973108, -23.496700048818152], [-50.66083524144132, -23.49669587223501], [-50.66083408477005, -23.496691570374853], [-50.66083339085663, -23.496687184666968], [-50.66083316638377, -23.496682757348115], [-50.66083327912112, -23.496638702465482], [-50.66083322553395, -23.49663764555577], [-50.66083207982679, -23.49663759114496], [-50.660565673155915, -23.496637011025342], [-50.66056086877546, -23.49663678261976], [-50.660556111878726, -23.49663612054177], [-50.66055144837488, -23.496635031181146], [-50.66054692327172, -23.496633525051383], [-50.66054258024134, -23.496631616688248], [-50.660538461198634, -23.49662932450949], [-50.66053460589677, -23.4966266706371], [-50.660531051543515, -23.496623680683776], [-50.66052783244215, -23.496620383505768], [-50.66052497966045, -23.49661681092438], [-50.660344947517785, -23.496366470495897], [-50.6603442513547, -23.49636559867646], [-50.660343078942155, -23.496365542936918], [-50.66014962482403, -23.49636512111859], [-50.66014848390006, -23.496365171074018], [-50.66014878810274, -23.496366186466886], [-50.66032156080414, -23.496848016173953], [-50.6603228593566, -23.49685235055395], [-50.66032368412627, -23.496856782545464], [-50.66032402693675, -23.496861268211948], [-50.66032388438955, -23.496865763084763], [-50.66032325789775, -23.49687022260398], [-50.66032215367205, -23.49687460256017], [-50.66032058265913, -23.496878859532597], [-50.66031856043318, -23.496882951319787], [-50.660316107041524, -23.496886837357767], [-50.66031324680583, -23.496890479122296], [-50.66031000808101, -23.49689384051073], [-50.66030642297418, -23.49689688819991], [-50.66030252702628, -23.496899591976547], [-50.66029835885981, -23.49690192503675], [-50.660293959795915, -23.496903864251696], [-50.660289373444726, -23.496905390396954], [-50.660284645273094, -23.49690648834309], [-50.66027982215376, -23.496907147205594], [-50.66027495190079, -23.49690736045282], [-50.66024613093006, -23.496907297611454], [-50.66024499372376, -23.49690734555079], [-50.66024457977675, -23.49690832359708], [-50.660146692056905, -23.497177043181303], [-50.66014638594138, -23.497178038143385], [-50.660147362635854, -23.497178546321155], [-50.66031492974839, -23.49725627530665], [-50.66031921419162, -23.49725851857058], [-50.660323232553225, -23.497261147522696], [-50.66032694415995, -23.497264135553184], [-50.66033031144349, -23.497267452417653], [-50.660333300320694, -23.497271064543337], [-50.66033588053858, -23.49727493536885], [-50.660338025980565, -23.497279025714302], [-50.66033971493075, -23.497283294177862], [-50.660340930293806, -23.497287697554775], [-50.66034165976797, -23.49729219127475], [-50.660341895969566, -23.497296729853026], [-50.660340812878154, -23.497719344314774], [-50.660340866461716, -23.497720401224477], [-50.660342012177985, -23.49772045563899], [-50.6604375475037, -23.497720663870854], [-50.66043869348604, -23.497720614451403], [-50.66043875248563, -23.497719557787082], [-50.66043886535966, -23.49767550291211], [-50.66043911250458, -23.497671076621163], [-50.66043982887512, -23.497666693985582], [-50.66044100757222, -23.497662397212558], [-50.66044263724432, -23.497658227682333], [-50.66044470219678, -23.497654225549752], [-50.66044718254292, -23.49765042935752], [-50.660450054395646, -23.49764687566504], [-50.660453290097436, -23.49764359869627], [-50.6604568584867, -23.497640630010213], [-50.66046072519789, -23.4976379981969], [-50.66046485299252, -23.49763572860212], [-50.660469202117646, -23.497633843083285], [-50.66047373068888, -23.497632359798967], [-50.660478395093634, -23.49763129303398], [-50.66048315041118, -23.497630653061858], [-50.66048795084525, -23.497630446045857], [-50.66073159756509, -23.497630976760504], [-50.66073274354658, -23.497630927338886], [-50.66073280254377, -23.49762987067441], [-50.66073291531958, -23.49758581579758], [-50.66073316245446, -23.497581389506013], [-50.66073387881478, -23.497577006868916], [-50.66073505750154, -23.497572710093486], [-50.66073668716329, -23.497568540560017], [-50.66073875210548, -23.497564538423372], [-50.66074123244155, -23.49756074222631], [-50.66074410428449, -23.497557188528255], [-50.660747339976865, -23.49755391155323], [-50.660750908357194, -23.497550942860297], [-50.66075477506001, -23.49754831103955], [-50.660758902846894, -23.497546041436863], [-50.660763251965, -23.497544155909722], [-50.66076778052998, -23.497542672616763], [-50.660772444929314, -23.4975416058429], [-50.66077720024233, -23.49754096586174], [-50.66078200067282, -23.497540758836646], [-50.660829768272954, -23.497540862824266], [-50.66083091425364, -23.497540813401905], [-50.66083097325, -23.49753975673737], [-50.66083166104816, -23.497270993833748], [-50.66083160615013, -23.49726991228571], [-50.660830664159235, -23.49726926611493], [-50.66056008056833, -23.49710204483321], [-50.660556220441904, -23.497099396915946], [-50.66055266065482, -23.497096412453683], [-50.66054943556283, -23.49709312024967], [-50.66054657629147, -23.497089552077203], [-50.66054411043575, -23.497085742372963], [-50.66054206179378, -23.497081727904654], [-50.66054045013709, -23.4970775474162], [-50.66053929101985, -23.497073241253734], [-50.660538595628736, -23.497068850976355], [-50.660538370674956, -23.497064418954896], [-50.66053865579723, -23.49695309902184], [-50.660538902937134, -23.496948672730277], [-50.66053961930016, -23.496944290093754], [-50.66054079798729, -23.496939993319458], [-50.66054242764707, -23.49693582378767], [-50.660544492584975, -23.496931821653224], [-50.66054697291448, -23.496928025458864], [-50.660549844748644, -23.496924471764007], [-50.660553080430105, -23.496921194792634], [-50.66055664879749, -23.49691822610376], [-50.66056051548547, -23.496915594287458], [-50.66056464325575, -23.496913324689544], [-50.66056899235566, -23.496911439167462], [-50.660573520901025, -23.496909955879804], [-50.66057818527951, -23.496908889111424], [-50.66058294057064, -23.496908249135892], [-50.66058774097842, -23.496908042116498], [-50.66092932538608, -23.49690878581679], [-50.66093047136127, -23.49690873639363]]]}}, {"type": "Feature", "properties": {"id": "SA-391b8f", "name": "SA-391b8f", "etiqueta": "V11", "hacienda": "Hacienda Santo Antonio", "orden": 16, "estrato": "Vigilancia", "nivel": "Vigilancia", "SI": 0.88, "clorofila_pct_vs_mejor5": 88.0, "area_ha": 0.629, "fecha_img": "2026-07-15", "zona": 16, "tipo": "submuestra", "status": "pending"}, "geometry": {"type": "Point", "coordinates": [-50.66037325347528, -23.49700875898837]}}, {"type": "Feature", "properties": {"id": "SA-5eb848", "name": "SA-5eb848", "etiqueta": "V12", "hacienda": "Hacienda Santo Antonio", "orden": 17, "estrato": "Vigilancia", "nivel": "Vigilancia", "SI": 0.884, "clorofila_pct_vs_mejor5": 88.4, "area_ha": 0.071, "fecha_img": "2026-07-15", "zona": 17, "clase": "media-baja"}, "geometry": {"type": "Polygon", "coordinates": [[[-50.66073158739081, -23.498082563129426], [-50.660731646388264, -23.498081506465017], [-50.66073210317751, -23.497903069559193], [-50.66073204959078, -23.49790201264961], [-50.66073090387274, -23.497901958237946], [-50.66034154918456, -23.497901109948945], [-50.66034040320062, -23.49790115936766], [-50.66034034420015, -23.49790221603191], [-50.66034011838387, -23.497990325778147], [-50.66034017196751, -23.49799138268781], [-50.66034131768611, -23.49799143710235], [-50.660389085446496, -23.49799154122695], [-50.6603938847792, -23.497991769163946], [-50.660398636777174, -23.497992429855568], [-50.66040329567614, -23.49799351693901], [-50.66040781660838, -23.49799501994508], [-50.660412156034894, -23.497996924398997], [-50.66041627216466, -23.49799921195987], [-50.660420125357106, -23.49800186059724], [-50.66042367850392, -23.49800484480331], [-50.66042689738633, -23.498008135838568], [-50.660429751004756, -23.49801170200855], [-50.66043221187727, -23.498015508969132], [-50.6604342563043, -23.498019520057213], [-50.66043586459687, -23.498023696643834], [-50.660437021266205, -23.498027998506192], [-50.6604377151729, -23.498032384215023], [-50.660437939634214, -23.498036811533545], [-50.660437826757935, -23.49808086640647], [-50.66043788034237, -23.4980819233161], [-50.66043902606181, -23.498081977729935], [-50.660730441405406, -23.498082612550995], [-50.66073158739081, -23.498082563129426]]]}}, {"type": "Feature", "properties": {"id": "SA-5eb848", "name": "SA-5eb848", "etiqueta": "V12", "hacienda": "Hacienda Santo Antonio", "orden": 17, "estrato": "Vigilancia", "nivel": "Vigilancia", "SI": 0.884, "clorofila_pct_vs_mejor5": 88.4, "area_ha": 0.071, "fecha_img": "2026-07-15", "zona": 17, "tipo": "submuestra", "status": "pending"}, "geometry": {"type": "Point", "coordinates": [-50.66056406802182, -23.49799209950976]}}, {"type": "Feature", "properties": {"id": "SA-9a2ead", "name": "SA-9a2ead", "etiqueta": "V13", "hacienda": "Hacienda Santo Antonio", "orden": 18, "estrato": "Vigilancia", "nivel": "Vigilancia", "SI": 0.899, "clorofila_pct_vs_mejor5": 89.9, "area_ha": 0.065, "fecha_img": "2026-07-15", "zona": 18, "clase": "media-baja"}, "geometry": {"type": "Polygon", "coordinates": [[[-50.65818701437142, -23.49735448429433], [-50.65818586865942, -23.497354429864018], [-50.6578944725478, -23.49735379034098], [-50.657893331614694, -23.497353840279782], [-50.6578936358022, -23.497354855676747], [-50.65799010555505, -23.497623903849718], [-50.657990527410796, -23.4976249077157], [-50.65799159760216, -23.497624477680365], [-50.65818550121819, -23.497535592693644], [-50.65818654476107, -23.497535052332072], [-50.65818660780599, -23.49753395011215], [-50.65818706793769, -23.497355541204623], [-50.65818701437142, -23.49735448429433]]]}}, {"type": "Feature", "properties": {"id": "SA-9a2ead", "name": "SA-9a2ead", "etiqueta": "V13", "hacienda": "Hacienda Santo Antonio", "orden": 18, "estrato": "Vigilancia", "nivel": "Vigilancia", "SI": 0.899, "clorofila_pct_vs_mejor5": 89.9, "area_ha": 0.065, "fecha_img": "2026-07-15", "zona": 18, "tipo": "submuestra", "status": "pending"}, "geometry": {"type": "Point", "coordinates": [-50.658056352286195, -23.497444745658385]}}, {"type": "Feature", "properties": {"id": "SA-efcd42", "name": "SA-efcd42", "etiqueta": "V14", "hacienda": "Hacienda Santo Antonio", "orden": 19, "estrato": "Vigilancia", "nivel": "Vigilancia", "SI": 0.937, "clorofila_pct_vs_mejor5": 93.7, "area_ha": 0.195, "fecha_img": "2026-07-15", "zona": 19, "clase": "media-baja"}, "geometry": {"type": "Polygon", "coordinates": [[[-50.65916455250941, -23.49807911543031], [-50.65916460844237, -23.498078101064262], [-50.6591652996751, -23.497809323578586], [-50.659165244790515, -23.497808242030192], [-50.65916430280409, -23.497807595849434], [-50.65889372026546, -23.49764037169704], [-50.65888986015735, -23.49763772373888], [-50.65888630039403, -23.497634739239018], [-50.65888307533098, -23.497631447001073], [-50.658880216093486, -23.49762787879866], [-50.658877750276226, -23.497624069068753], [-50.658875701676926, -23.4976200545793], [-50.658874090066725, -23.497615874074427], [-50.65887293099933, -23.497611567900442], [-50.65887223566093, -23.497607177616537], [-50.65887201076224, -23.49760274559361], [-50.65887217814859, -23.497537714152628], [-50.65887212399345, -23.497536661896937], [-50.658871023026, -23.497536942448875], [-50.658579246978476, -23.497625932174966], [-50.658578184556696, -23.49762630930945], [-50.65857812718729, -23.49762735789258], [-50.658577667515104, -23.497805790461936], [-50.65857772487722, -23.497806892945853], [-50.658578765624775, -23.49780743787726], [-50.659163545861446, -23.498078703522637], [-50.65916455250941, -23.49807911543031]]]}}, {"type": "Feature", "properties": {"id": "SA-efcd42", "name": "SA-efcd42", "etiqueta": "V14", "hacienda": "Hacienda Santo Antonio", "orden": 19, "estrato": "Vigilancia", "nivel": "Vigilancia", "SI": 0.937, "clorofila_pct_vs_mejor5": 93.7, "area_ha": 0.195, "fecha_img": "2026-07-15", "zona": 19, "tipo": "submuestra", "status": "pending"}, "geometry": {"type": "Point", "coordinates": [-50.658872288235735, -23.497807918939813]}}, {"type": "Feature", "properties": {"id": "SA-3b82be.05", "name": "SA-3b82be.05", "etiqueta": "V15", "hacienda": "Hacienda Santo Antonio", "orden": 20, "estrato": "Vigilancia", "nivel": "Vigilancia", "SI": 1.284, "clorofila_pct_vs_mejor5": 128.4, "area_ha": 0.05, "fecha_img": "2026-07-15", "zona": 20, "clase": "media-baja"}, "geometry": {"type": "Polygon", "coordinates": [[[-50.65539373045963, -23.479282784055346], [-50.65539258490511, -23.479282729606215], [-50.65519913697696, -23.47928230189267], [-50.65519799115264, -23.479282351275558], [-50.65519793212154, -23.47928340793999], [-50.6551972334575, -23.479552187134207], [-50.65519728413688, -23.4795532017368], [-50.65519829276229, -23.479552794261068], [-50.655392214037995, -23.47946389280423], [-50.65539325744875, -23.479463352458573], [-50.655393320506214, -23.479462250237404], [-50.6553937839983, -23.47928384096869], [-50.65539373045963, -23.479282784055346]]]}}, {"type": "Feature", "properties": {"id": "SA-3b82be.05", "name": "SA-3b82be.05", "etiqueta": "V15", "hacienda": "Hacienda Santo Antonio", "orden": 20, "estrato": "Vigilancia", "nivel": "Vigilancia", "SI": 1.284, "clorofila_pct_vs_mejor5": 128.4, "area_ha": 0.05, "fecha_img": "2026-07-15", "zona": 20, "tipo": "submuestra", "status": "pending"}, "geometry": {"type": "Point", "coordinates": [-50.65529562568493, -23.479373045603047]}}]}