{
"type": "FeatureCollection",
"name": "Mapeo_de_Area_Nativa",
"crs": { "type": "name", "properties": { "name": "urn:ogc:def:crs:EPSG::31982" } },
"features": [
{ "type": "Feature", "properties": { "id": null, "Area": 144 }, "geometry": { "type": "MultiPolygon", "coordinates": [ [ [ [ 535153.037592923501506, 7401298.277639682404697 ], [ 534634.189101541182026, 7401091.988581345416605 ], [ 534613.035497828153893, 7401490.77310895640403 ], [ 534608.253409428521991, 7401660.868974301964045 ], [ 534588.584660163149238, 7402112.550912928767502 ], [ 534575.219493802986108, 7402490.137080011889338 ], [ 534554.50098166463431, 7403047.515334021300077 ], [ 534539.771068515605293, 7403396.777491386048496 ], [ 534535.501216085394844, 7403550.762982659973204 ], [ 534527.519500216119923, 7403656.94694822281599 ], [ 534515.548066885909066, 7403769.090803634375334 ], [ 534532.183679276844487, 7403813.893556310795248 ], [ 534593.9155663944548, 7403855.695665365085006 ], [ 534641.634857315686531, 7403885.67991147749126 ], [ 534700.424559034639969, 7403924.766013318672776 ], [ 534766.594967333832756, 7403955.538941287435591 ], [ 534837.934490348328836, 7403979.855736825615168 ], [ 534914.473693152191117, 7404010.603526754304767 ], [ 534979.35505184950307, 7404043.956220876425505 ], [ 535036.71448951610364, 7404055.341750567778945 ], [ 535071.683365637552924, 7403166.423946402035654 ], [ 535098.991090336348861, 7402359.555363105610013 ], [ 535153.037592923501506, 7401298.277639682404697 ] ] ] ] } },
{ "type": "Feature", "properties": { "id": null, "Area": 11 }, "geometry": { "type": "MultiPolygon", "coordinates": [ [ [ [ 535198.410536624840461, 7403947.727906869724393 ], [ 535198.630551998852752, 7403932.330004019662738 ], [ 535211.849133945070207, 7403593.383013244718313 ], [ 535227.281280684517696, 7403202.701925113797188 ], [ 535074.021579575492069, 7403163.539919320493937 ], [ 535045.653710834681988, 7403891.055547239258885 ], [ 535057.422178105451167, 7403886.444092938676476 ], [ 535146.6029468185734, 7403914.240479370579123 ], [ 535147.137030257610604, 7403923.405961899086833 ], [ 535162.523452915251255, 7403932.535902937874198 ], [ 535184.551985715981573, 7403935.029477899894118 ], [ 535198.410536624840461, 7403947.727906869724393 ] ] ] ] } }
]
}
