{
"type": "FeatureCollection",
"name": "Mapeo_de_Area_Nativa_v2_5.8alq",
"crs": { "type": "name", "properties": { "name": "urn:ogc:def:crs:EPSG::31982" } },
"features": [
{ "type": "Feature", "properties": { "id": null, "Area": 144, "nome": "Fazenda Santo Antonio" }, "geometry": { "type": "MultiPolygon", "coordinates": [ [ [ [ 535153.037592923501506, 7401298.277639682404697 ], [ 534634.189101541182026, 7401091.988581345416605 ], [ 534613.035497828153893, 7401490.77310895640403 ], [ 534608.253409428521991, 7401660.868974301964045 ], [ 534588.584660163149238, 7402112.550912928767502 ], [ 534575.219493802986108, 7402490.137080011889338 ], [ 534554.50098166463431, 7403047.515334021300077 ], [ 534539.771068515605293, 7403396.777491386048496 ], [ 534535.501216085394844, 7403550.762982659973204 ], [ 534527.519500216119923, 7403656.94694822281599 ], [ 534515.548066885909066, 7403769.090803634375334 ], [ 534532.183679276844487, 7403813.893556310795248 ], [ 534593.9155663944548, 7403855.695665365085006 ], [ 534641.634857315686531, 7403885.67991147749126 ], [ 534700.424559034639969, 7403924.766013318672776 ], [ 534766.594967333832756, 7403955.538941287435591 ], [ 534837.934490348328836, 7403979.855736825615168 ], [ 534914.473693152191117, 7404010.603526754304767 ], [ 534979.35505184950307, 7404043.956220876425505 ], [ 535036.71448951610364, 7404055.341750567778945 ], [ 535071.683365637552924, 7403166.423946402035654 ], [ 535098.991090336348861, 7402359.555363105610013 ], [ 535153.037592923501506, 7401298.277639682404697 ] ] ] ] } },
{ "type": "Feature", "properties": { "id": null, "Area": 11, "nome": "Area dos 6 alqueires (5,8 alq)" }, "geometry": { "type": "MultiPolygon", "coordinates": [ [ [ [ 535236.297877223347314, 7403948.11197451595217 ], [ 535236.533688203315251, 7403932.714231788180768 ], [ 535252.16950849222485, 7403593.791744791902602 ], [ 535270.436268776189536, 7403203.139391413889825 ], [ 535079.208829611889087, 7403163.592502976767719 ], [ 535045.653710834681988, 7403891.055547239258885 ], [ 535060.318551920703612, 7403886.473453761078417 ], [ 535171.605031808721833, 7403914.493927931413054 ], [ 535172.294042281690054, 7403923.660980969667435 ], [ 535191.505235733813606, 7403932.829694081097841 ], [ 535218.983145948383026, 7403935.378509910777211 ], [ 535236.297877223347314, 7403948.11197451595217 ] ] ] ] } }
]
}
