{
"type": "FeatureCollection",
"name": "delineate_anything_result",
"crs": { "type": "name", "properties": { "name": "urn:ogc:def:crs:OGC:1.3:CRS84" } },
"features": [
{ "type": "Feature", "properties": { "area_ha": 12.122760422563225 }, "geometry": { "type": "Polygon", "coordinates": [ [ [ -50.663454888358011, -23.495975245316558 ], [ -50.663454888358011, -23.500826147850802 ], [ -50.663095562244365, -23.500826147850802 ], [ -50.663095562244365, -23.500736316322389 ], [ -50.662915899187539, -23.500736316322389 ], [ -50.662915899187539, -23.500646484793979 ], [ -50.662646404602306, -23.500646484793979 ], [ -50.662646404602306, -23.500556653265566 ], [ -50.662466741545479, -23.500556653265566 ], [ -50.662466741545479, -23.500466821737152 ], [ -50.662197246960247, -23.500466821737152 ], [ -50.662197246960247, -23.500376990208743 ], [ -50.661927752375007, -23.500376990208743 ], [ -50.661927752375007, -23.500287158680329 ], [ -50.661658257789774, -23.500287158680329 ], [ -50.661658257789774, -23.50019732715192 ], [ -50.661388763204535, -23.50019732715192 ], [ -50.661388763204535, -23.500107495623507 ], [ -50.661209100147715, -23.500107495623507 ], [ -50.661209100147715, -23.500017664095093 ], [ -50.661029437090889, -23.500017664095093 ], [ -50.661029437090889, -23.496334571430204 ], [ -50.661119268619302, -23.496334571430204 ], [ -50.661119268619302, -23.496154908373381 ], [ -50.661478594732948, -23.496154908373381 ], [ -50.661478594732948, -23.496065076844967 ], [ -50.661748089318181, -23.496065076844967 ], [ -50.661748089318181, -23.495975245316558 ], [ -50.663454888358011, -23.495975245316558 ] ] ] } },
{ "type": "Feature", "properties": { "area_ha": 7.5350682107381175 }, "geometry": { "type": "Polygon", "coordinates": [ [ [ -50.655190387744113, -23.484027652037767 ], [ -50.655190387744113, -23.48420731509459 ], [ -50.655280219272527, -23.48420731509459 ], [ -50.655280219272527, -23.484386978151413 ], [ -50.655370050800933, -23.484386978151413 ], [ -50.655370050800933, -23.484476809679826 ], [ -50.655459882329346, -23.484476809679826 ], [ -50.655459882329346, -23.484656472736649 ], [ -50.655549713857759, -23.484656472736649 ], [ -50.655549713857759, -23.484746304265062 ], [ -50.655729376914586, -23.484746304265062 ], [ -50.655729376914586, -23.484836135793476 ], [ -50.655819208442992, -23.484836135793476 ], [ -50.655819208442992, -23.485015798850299 ], [ -50.655909039971405, -23.485015798850299 ], [ -50.655909039971405, -23.485285293435535 ], [ -50.655998871499818, -23.485285293435535 ], [ -50.655998871499818, -23.485734451077594 ], [ -50.656088703028232, -23.485734451077594 ], [ -50.656088703028232, -23.485914114134417 ], [ -50.655998871499818, -23.485914114134417 ], [ -50.655998871499818, -23.48600394566283 ], [ -50.655909039971405, -23.48600394566283 ], [ -50.655909039971405, -23.486093777191243 ], [ -50.655819208442992, -23.486093777191243 ], [ -50.655819208442992, -23.486812429418539 ], [ -50.655909039971405, -23.486812429418539 ], [ -50.655909039971405, -23.486902260946948 ], [ -50.655819208442992, -23.486902260946948 ], [ -50.655819208442992, -23.487081924003775 ], [ -50.655909039971405, -23.487081924003775 ], [ -50.655909039971405, -23.488788723043601 ], [ -50.655819208442992, -23.488788723043601 ], [ -50.655819208442992, -23.488968386100424 ], [ -50.655729376914586, -23.488968386100424 ], [ -50.655729376914586, -23.48968703832772 ], [ -50.655819208442992, -23.48968703832772 ], [ -50.655819208442992, -23.489776869856133 ], [ -50.655909039971405, -23.489776869856133 ], [ -50.655909039971405, -23.490405690555015 ], [ -50.655998871499818, -23.490405690555015 ], [ -50.655998871499818, -23.491034511253901 ], [ -50.655909039971405, -23.491034511253901 ], [ -50.655909039971405, -23.491663331952783 ], [ -50.655819208442992, -23.491663331952783 ], [ -50.655819208442992, -23.491932826538019 ], [ -50.655729376914586, -23.491932826538019 ], [ -50.655729376914586, -23.492292152651665 ], [ -50.655639545386173, -23.492292152651665 ], [ -50.655639545386173, -23.49292097335055 ], [ -50.655549713857759, -23.49292097335055 ], [ -50.655549713857759, -23.493280299464196 ], [ -50.655459882329346, -23.493280299464196 ], [ -50.655459882329346, -23.493370130992609 ], [ -50.655370050800933, -23.493370130992609 ], [ -50.655370050800933, -23.493459962521023 ], [ -50.655280219272527, -23.493459962521023 ], [ -50.655280219272527, -23.493729457106259 ], [ -50.6551005562157, -23.493729457106259 ], [ -50.6551005562157, -23.484027652037767 ], [ -50.655190387744113, -23.484027652037767 ] ] ] } },
{ "type": "Feature", "properties": { "area_ha": 159.50897771865394 }, "geometry": { "type": "Polygon", "coordinates": [ [ [ -50.659232806522652, -23.474236015440862 ], [ -50.659232806522652, -23.474325846969275 ], [ -50.659412469579472, -23.474325846969275 ], [ -50.659412469579472, -23.474415678497689 ], [ -50.659592132636298, -23.474415678497689 ], [ -50.659592132636298, -23.474505510026098 ], [ -50.659681964164712, -23.474505510026098 ], [ -50.659681964164712, -23.474595341554512 ], [ -50.659861627221531, -23.474595341554512 ], [ -50.659861627221531, -23.474685173082925 ], [ -50.660131121806771, -23.474685173082925 ], [ -50.660131121806771, -23.474775004611335 ], [ -50.66031078486359, -23.474775004611335 ], [ -50.66031078486359, -23.474864836139748 ], [ -50.66058027944883, -23.474864836139748 ], [ -50.66058027944883, -23.474954667668161 ], [ -50.660849774034062, -23.474954667668161 ], [ -50.660849774034062, -23.475044499196571 ], [ -50.661029437090889, -23.475044499196571 ], [ -50.661029437090889, -23.475134330724984 ], [ -50.661119268619302, -23.475134330724984 ], [ -50.661119268619302, -23.475224162253394 ], [ -50.661209100147715, -23.475224162253394 ], [ -50.661209100147715, -23.475313993781807 ], [ -50.661298931676122, -23.475313993781807 ], [ -50.661298931676122, -23.47540382531022 ], [ -50.661388763204535, -23.47540382531022 ], [ -50.661388763204535, -23.47549365683863 ], [ -50.661478594732948, -23.47549365683863 ], [ -50.661478594732948, -23.475673319895456 ], [ -50.661658257789774, -23.475673319895456 ], [ -50.661658257789774, -23.475763151423866 ], [ -50.661748089318181, -23.475763151423866 ], [ -50.661748089318181, -23.475852982952279 ], [ -50.661837920846594, -23.475852982952279 ], [ -50.661837920846594, -23.475942814480693 ], [ -50.662556573073893, -23.475942814480693 ], [ -50.662556573073893, -23.476032646009102 ], [ -50.662466741545479, -23.476032646009102 ], [ -50.662466741545479, -23.476391972122752 ], [ -50.662376910017066, -23.476391972122752 ], [ -50.662376910017066, -23.476481803651161 ], [ -50.662287078488653, -23.476481803651161 ], [ -50.662287078488653, -23.476571635179575 ], [ -50.662197246960247, -23.476571635179575 ], [ -50.662197246960247, -23.476751298236398 ], [ -50.662107415431834, -23.476751298236398 ], [ -50.662107415431834, -23.476930961293224 ], [ -50.66201758390342, -23.476930961293224 ], [ -50.66201758390342, -23.47729028740687 ], [ -50.662107415431834, -23.47729028740687 ], [ -50.662107415431834, -23.477380118935283 ], [ -50.662466741545479, -23.477380118935283 ], [ -50.662466741545479, -23.477469950463693 ], [ -50.663365056829598, -23.477469950463693 ], [ -50.663365056829598, -23.477380118935283 ], [ -50.663454888358011, -23.477380118935283 ], [ -50.663454888358011, -23.486273440248066 ], [ -50.663365056829598, -23.486273440248066 ], [ -50.663365056829598, -23.487710744702657 ], [ -50.663454888358011, -23.487710744702657 ], [ -50.663454888358011, -23.488698891515188 ], [ -50.663365056829598, -23.488698891515188 ], [ -50.663365056829598, -23.489866701384543 ], [ -50.663454888358011, -23.489866701384543 ], [ -50.663454888358011, -23.490136195969779 ], [ -50.663365056829598, -23.490136195969779 ], [ -50.663365056829598, -23.490315859026602 ], [ -50.663454888358011, -23.490315859026602 ], [ -50.663454888358011, -23.490495522083428 ], [ -50.663365056829598, -23.490495522083428 ], [ -50.663365056829598, -23.490854848197074 ], [ -50.663275225301184, -23.490854848197074 ], [ -50.663275225301184, -23.49112434278231 ], [ -50.663365056829598, -23.49112434278231 ], [ -50.663365056829598, -23.491573500424369 ], [ -50.663275225301184, -23.491573500424369 ], [ -50.663275225301184, -23.491842995009605 ], [ -50.663365056829598, -23.491842995009605 ], [ -50.663365056829598, -23.492741310293727 ], [ -50.663275225301184, -23.492741310293727 ], [ -50.663275225301184, -23.492831141822137 ], [ -50.663365056829598, -23.492831141822137 ], [ -50.663365056829598, -23.493010804878963 ], [ -50.663275225301184, -23.493010804878963 ], [ -50.663275225301184, -23.493639625577845 ], [ -50.663365056829598, -23.493639625577845 ], [ -50.663365056829598, -23.493729457106259 ], [ -50.663275225301184, -23.493729457106259 ], [ -50.663275225301184, -23.493909120163082 ], [ -50.663365056829598, -23.493909120163082 ], [ -50.663365056829598, -23.494088783219905 ], [ -50.663275225301184, -23.494088783219905 ], [ -50.663275225301184, -23.494358277805141 ], [ -50.663365056829598, -23.494358277805141 ], [ -50.663365056829598, -23.49471760391879 ], [ -50.663454888358011, -23.49471760391879 ], [ -50.663454888358011, -23.4948074354472 ], [ -50.663365056829598, -23.4948074354472 ], [ -50.663365056829598, -23.495076930032436 ], [ -50.663275225301184, -23.495076930032436 ], [ -50.663275225301184, -23.495256593089259 ], [ -50.663185393772778, -23.495256593089259 ], [ -50.663185393772778, -23.495346424617672 ], [ -50.662915899187539, -23.495346424617672 ], [ -50.662915899187539, -23.495256593089259 ], [ -50.662197246960247, -23.495256593089259 ], [ -50.662197246960247, -23.495346424617672 ], [ -50.66201758390342, -23.495346424617672 ], [ -50.66201758390342, -23.495256593089259 ], [ -50.661748089318181, -23.495256593089259 ], [ -50.661748089318181, -23.495166761560849 ], [ -50.661658257789774, -23.495166761560849 ], [ -50.661658257789774, -23.495076930032436 ], [ -50.661388763204535, -23.495076930032436 ], [ -50.661388763204535, -23.494987098504026 ], [ -50.661298931676122, -23.494987098504026 ], [ -50.661298931676122, -23.494897266975613 ], [ -50.661119268619302, -23.494897266975613 ], [ -50.661119268619302, -23.495076930032436 ], [ -50.661029437090889, -23.495076930032436 ], [ -50.661029437090889, -23.495526087674495 ], [ -50.660939605562476, -23.495526087674495 ], [ -50.660939605562476, -23.495615919202908 ], [ -50.660849774034062, -23.495615919202908 ], [ -50.660849774034062, -23.495705750731322 ], [ -50.660759942505649, -23.495705750731322 ], [ -50.660759942505649, -23.495795582259731 ], [ -50.660041290278357, -23.495795582259731 ], [ -50.660041290278357, -23.495705750731322 ], [ -50.659861627221531, -23.495705750731322 ], [ -50.659861627221531, -23.495615919202908 ], [ -50.659502301107885, -23.495615919202908 ], [ -50.659502301107885, -23.495526087674495 ], [ -50.659142974994239, -23.495526087674495 ], [ -50.659142974994239, -23.495436256146085 ], [ -50.658873480409, -23.495436256146085 ], [ -50.658873480409, -23.495346424617672 ], [ -50.65869381735218, -23.495346424617672 ], [ -50.65869381735218, -23.495256593089259 ], [ -50.658603985823767, -23.495256593089259 ], [ -50.658603985823767, -23.495166761560849 ], [ -50.658514154295354, -23.495166761560849 ], [ -50.658514154295354, -23.495076930032436 ], [ -50.65842432276694, -23.495076930032436 ], [ -50.65842432276694, -23.494987098504026 ], [ -50.658154828181708, -23.494987098504026 ], [ -50.658154828181708, -23.494897266975613 ], [ -50.657885333596468, -23.494897266975613 ], [ -50.657885333596468, -23.4948074354472 ], [ -50.657705670539649, -23.4948074354472 ], [ -50.657705670539649, -23.49471760391879 ], [ -50.657436175954409, -23.49471760391879 ], [ -50.657436175954409, -23.494627772390377 ], [ -50.657166681369176, -23.494627772390377 ], [ -50.657166681369176, -23.494537940861964 ], [ -50.656088703028232, -23.494537940861964 ], [ -50.656088703028232, -23.494448109333554 ], [ -50.655998871499818, -23.494448109333554 ], [ -50.655998871499818, -23.493459962521023 ], [ -50.656088703028232, -23.493459962521023 ], [ -50.656088703028232, -23.491753163481196 ], [ -50.656178534556645, -23.491753163481196 ], [ -50.656178534556645, -23.489417543742483 ], [ -50.656268366085058, -23.489417543742483 ], [ -50.656268366085058, -23.487171755532184 ], [ -50.656358197613464, -23.487171755532184 ], [ -50.656358197613464, -23.486363271776476 ], [ -50.656448029141877, -23.486363271776476 ], [ -50.656448029141877, -23.48600394566283 ], [ -50.656358197613464, -23.48600394566283 ], [ -50.656358197613464, -23.485644619549181 ], [ -50.656448029141877, -23.485644619549181 ], [ -50.656448029141877, -23.485464956492358 ], [ -50.656537860670291, -23.485464956492358 ], [ -50.656537860670291, -23.485554788020771 ], [ -50.656807355255523, -23.485554788020771 ], [ -50.656807355255523, -23.485375124963944 ], [ -50.65698701831235, -23.485375124963944 ], [ -50.65698701831235, -23.485554788020771 ], [ -50.657076849840763, -23.485554788020771 ], [ -50.657076849840763, -23.485464956492358 ], [ -50.65725651289759, -23.485464956492358 ], [ -50.65725651289759, -23.485285293435535 ], [ -50.657346344425996, -23.485285293435535 ], [ -50.657346344425996, -23.485195461907121 ], [ -50.657526007482822, -23.485195461907121 ], [ -50.657526007482822, -23.485375124963944 ], [ -50.657615839011235, -23.485375124963944 ], [ -50.657615839011235, -23.485464956492358 ], [ -50.657705670539649, -23.485464956492358 ], [ -50.657705670539649, -23.485554788020771 ], [ -50.657885333596468, -23.485554788020771 ], [ -50.657885333596468, -23.485464956492358 ], [ -50.657975165124881, -23.485464956492358 ], [ -50.657975165124881, -23.485554788020771 ], [ -50.658334491238527, -23.485554788020771 ], [ -50.658334491238527, -23.485464956492358 ], [ -50.658603985823767, -23.485464956492358 ], [ -50.658603985823767, -23.485375124963944 ], [ -50.658873480409, -23.485375124963944 ], [ -50.658873480409, -23.485285293435535 ], [ -50.658963311937413, -23.485285293435535 ], [ -50.658963311937413, -23.485195461907121 ], [ -50.659322638051059, -23.485195461907121 ], [ -50.659322638051059, -23.485105630378712 ], [ -50.659502301107885, -23.485105630378712 ], [ -50.659502301107885, -23.485195461907121 ], [ -50.659681964164712, -23.485195461907121 ], [ -50.659681964164712, -23.485105630378712 ], [ -50.659771795693118, -23.485105630378712 ], [ -50.659771795693118, -23.485195461907121 ], [ -50.659951458749944, -23.485195461907121 ], [ -50.659951458749944, -23.485015798850299 ], [ -50.660041290278357, -23.485015798850299 ], [ -50.660041290278357, -23.484925967321885 ], [ -50.660131121806771, -23.484925967321885 ], [ -50.660131121806771, -23.484836135793476 ], [ -50.659771795693118, -23.484836135793476 ], [ -50.659771795693118, -23.484746304265062 ], [ -50.659592132636298, -23.484746304265062 ], [ -50.659592132636298, -23.484656472736649 ], [ -50.659322638051059, -23.484656472736649 ], [ -50.659322638051059, -23.484566641208239 ], [ -50.65869381735218, -23.484566641208239 ], [ -50.65869381735218, -23.484476809679826 ], [ -50.65842432276694, -23.484476809679826 ], [ -50.65842432276694, -23.484566641208239 ], [ -50.657885333596468, -23.484566641208239 ], [ -50.657885333596468, -23.484656472736649 ], [ -50.657346344425996, -23.484656472736649 ], [ -50.657346344425996, -23.484566641208239 ], [ -50.656717523727117, -23.484566641208239 ], [ -50.656717523727117, -23.484476809679826 ], [ -50.656537860670291, -23.484476809679826 ], [ -50.656537860670291, -23.484566641208239 ], [ -50.656448029141877, -23.484566641208239 ], [ -50.656448029141877, -23.484386978151413 ], [ -50.656358197613464, -23.484386978151413 ], [ -50.656358197613464, -23.484027652037767 ], [ -50.656448029141877, -23.484027652037767 ], [ -50.656448029141877, -23.483488662867295 ], [ -50.656537860670291, -23.483488662867295 ], [ -50.656537860670291, -23.481153043128586 ], [ -50.656178534556645, -23.481153043128586 ], [ -50.656178534556645, -23.481063211600173 ], [ -50.655909039971405, -23.481063211600173 ], [ -50.655909039971405, -23.480973380071759 ], [ -50.655729376914586, -23.480973380071759 ], [ -50.655729376914586, -23.48088354854335 ], [ -50.6551005562157, -23.48088354854335 ], [ -50.6551005562157, -23.47549365683863 ], [ -50.655190387744113, -23.47549365683863 ], [ -50.655190387744113, -23.474864836139748 ], [ -50.655280219272527, -23.474864836139748 ], [ -50.655280219272527, -23.474415678497689 ], [ -50.655190387744113, -23.474415678497689 ], [ -50.655190387744113, -23.474325846969275 ], [ -50.655280219272527, -23.474325846969275 ], [ -50.655280219272527, -23.474236015440862 ], [ -50.655459882329346, -23.474236015440862 ], [ -50.655459882329346, -23.474325846969275 ], [ -50.655729376914586, -23.474325846969275 ], [ -50.655729376914586, -23.474415678497689 ], [ -50.655909039971405, -23.474415678497689 ], [ -50.655909039971405, -23.474505510026098 ], [ -50.656178534556645, -23.474505510026098 ], [ -50.656178534556645, -23.474595341554512 ], [ -50.656448029141877, -23.474595341554512 ], [ -50.656448029141877, -23.474685173082925 ], [ -50.656897186783937, -23.474685173082925 ], [ -50.656897186783937, -23.474775004611335 ], [ -50.657166681369176, -23.474775004611335 ], [ -50.657166681369176, -23.474864836139748 ], [ -50.657436175954409, -23.474864836139748 ], [ -50.657436175954409, -23.474954667668161 ], [ -50.657975165124881, -23.474954667668161 ], [ -50.657975165124881, -23.474864836139748 ], [ -50.658064996653295, -23.474864836139748 ], [ -50.658064996653295, -23.474775004611335 ], [ -50.658244659710121, -23.474775004611335 ], [ -50.658244659710121, -23.474595341554512 ], [ -50.658334491238527, -23.474595341554512 ], [ -50.658334491238527, -23.474505510026098 ], [ -50.65842432276694, -23.474505510026098 ], [ -50.65842432276694, -23.474415678497689 ], [ -50.658603985823767, -23.474415678497689 ], [ -50.658603985823767, -23.474325846969275 ], [ -50.658873480409, -23.474325846969275 ], [ -50.658873480409, -23.474236015440862 ], [ -50.659232806522652, -23.474236015440862 ] ], [ [ -50.66058027944883, -23.476841129764811 ], [ -50.660400616392003, -23.476841129764811 ], [ -50.660400616392003, -23.477020792821634 ], [ -50.66031078486359, -23.477020792821634 ], [ -50.66031078486359, -23.477110624350047 ], [ -50.660220953335184, -23.477110624350047 ], [ -50.660220953335184, -23.477469950463693 ], [ -50.66031078486359, -23.477469950463693 ], [ -50.66031078486359, -23.47729028740687 ], [ -50.660400616392003, -23.47729028740687 ], [ -50.660400616392003, -23.477200455878457 ], [ -50.660490447920417, -23.477200455878457 ], [ -50.660490447920417, -23.476930961293224 ], [ -50.66058027944883, -23.476930961293224 ], [ -50.66058027944883, -23.476841129764811 ] ], [ [ -50.660131121806771, -23.477559781992106 ], [ -50.660041290278357, -23.477559781992106 ], [ -50.660041290278357, -23.478098771162578 ], [ -50.660131121806771, -23.478098771162578 ], [ -50.660131121806771, -23.477559781992106 ] ], [ [ -50.659951458749944, -23.478278434219401 ], [ -50.659861627221531, -23.478278434219401 ], [ -50.659861627221531, -23.478547928804637 ], [ -50.659771795693118, -23.478547928804637 ], [ -50.659771795693118, -23.47917674950352 ], [ -50.659681964164712, -23.47917674950352 ], [ -50.659681964164712, -23.479356412560346 ], [ -50.659592132636298, -23.479356412560346 ], [ -50.659592132636298, -23.479625907145582 ], [ -50.659502301107885, -23.479625907145582 ], [ -50.659502301107885, -23.479715738673992 ], [ -50.659412469579472, -23.479715738673992 ], [ -50.659412469579472, -23.479805570202405 ], [ -50.659322638051059, -23.479805570202405 ], [ -50.659322638051059, -23.479895401730818 ], [ -50.659232806522652, -23.479895401730818 ], [ -50.659232806522652, -23.480075064787641 ], [ -50.659142974994239, -23.480075064787641 ], [ -50.659142974994239, -23.480164896316051 ], [ -50.658963311937413, -23.480164896316051 ], [ -50.658963311937413, -23.480254727844464 ], [ -50.658873480409, -23.480254727844464 ], [ -50.658873480409, -23.480344559372877 ], [ -50.658783648880586, -23.480344559372877 ], [ -50.658783648880586, -23.480434390901287 ], [ -50.658603985823767, -23.480434390901287 ], [ -50.658603985823767, -23.4805242224297 ], [ -50.658514154295354, -23.4805242224297 ], [ -50.658514154295354, -23.480614053958114 ], [ -50.65842432276694, -23.480614053958114 ], [ -50.65842432276694, -23.480703885486523 ], [ -50.658334491238527, -23.480703885486523 ], [ -50.658334491238527, -23.480793717014937 ], [ -50.658244659710121, -23.480793717014937 ], [ -50.658244659710121, -23.48088354854335 ], [ -50.658154828181708, -23.48088354854335 ], [ -50.658154828181708, -23.480973380071759 ], [ -50.658064996653295, -23.480973380071759 ], [ -50.658064996653295, -23.481153043128586 ], [ -50.657885333596468, -23.481153043128586 ], [ -50.657885333596468, -23.481242874656996 ], [ -50.657795502068055, -23.481242874656996 ], [ -50.657795502068055, -23.481602200770645 ], [ -50.657705670539649, -23.481602200770645 ], [ -50.657705670539649, -23.481781863827468 ], [ -50.657795502068055, -23.481781863827468 ], [ -50.657795502068055, -23.481961526884291 ], [ -50.657885333596468, -23.481961526884291 ], [ -50.657885333596468, -23.482141189941117 ], [ -50.657975165124881, -23.482141189941117 ], [ -50.657975165124881, -23.482231021469527 ], [ -50.658244659710121, -23.482231021469527 ], [ -50.658244659710121, -23.48232085299794 ], [ -50.65842432276694, -23.48232085299794 ], [ -50.65842432276694, -23.482231021469527 ], [ -50.659053143465826, -23.482231021469527 ], [ -50.659053143465826, -23.482141189941117 ], [ -50.659771795693118, -23.482141189941117 ], [ -50.659771795693118, -23.482051358412704 ], [ -50.659861627221531, -23.482051358412704 ], [ -50.659861627221531, -23.481961526884291 ], [ -50.659951458749944, -23.481961526884291 ], [ -50.659951458749944, -23.481871695355881 ], [ -50.660041290278357, -23.481871695355881 ], [ -50.660041290278357, -23.481781863827468 ], [ -50.660131121806771, -23.481781863827468 ], [ -50.660131121806771, -23.481512369242232 ], [ -50.660220953335184, -23.481512369242232 ], [ -50.660220953335184, -23.481422537713819 ], [ -50.66031078486359, -23.481422537713819 ], [ -50.66031078486359, -23.481242874656996 ], [ -50.660400616392003, -23.481242874656996 ], [ -50.660400616392003, -23.4805242224297 ], [ -50.66031078486359, -23.4805242224297 ], [ -50.66031078486359, -23.480344559372877 ], [ -50.660220953335184, -23.480344559372877 ], [ -50.660220953335184, -23.480254727844464 ], [ -50.660041290278357, -23.480254727844464 ], [ -50.660041290278357, -23.480164896316051 ], [ -50.659861627221531, -23.480164896316051 ], [ -50.659861627221531, -23.480075064787641 ], [ -50.659771795693118, -23.480075064787641 ], [ -50.659771795693118, -23.479985233259228 ], [ -50.659681964164712, -23.479985233259228 ], [ -50.659681964164712, -23.479805570202405 ], [ -50.659771795693118, -23.479805570202405 ], [ -50.659771795693118, -23.479625907145582 ], [ -50.659861627221531, -23.479625907145582 ], [ -50.659861627221531, -23.479356412560346 ], [ -50.659951458749944, -23.479356412560346 ], [ -50.659951458749944, -23.478278434219401 ] ], [ [ -50.658244659710121, -23.482590347583177 ], [ -50.657705670539649, -23.482590347583177 ], [ -50.657705670539649, -23.482680179111586 ], [ -50.657526007482822, -23.482680179111586 ], [ -50.657526007482822, -23.483039505225236 ], [ -50.658154828181708, -23.483039505225236 ], [ -50.658154828181708, -23.482859842168413 ], [ -50.658244659710121, -23.482859842168413 ], [ -50.658244659710121, -23.482590347583177 ] ], [ [ -50.66031078486359, -23.484925967321885 ], [ -50.660131121806771, -23.484925967321885 ], [ -50.660131121806771, -23.485015798850299 ], [ -50.660220953335184, -23.485015798850299 ], [ -50.660220953335184, -23.485105630378712 ], [ -50.66031078486359, -23.485105630378712 ], [ -50.66031078486359, -23.484925967321885 ] ], [ [ -50.656897186783937, -23.485734451077594 ], [ -50.656807355255523, -23.485734451077594 ], [ -50.656807355255523, -23.485824282606007 ], [ -50.656717523727117, -23.485824282606007 ], [ -50.656717523727117, -23.485914114134417 ], [ -50.656627692198704, -23.485914114134417 ], [ -50.656627692198704, -23.48600394566283 ], [ -50.656537860670291, -23.48600394566283 ], [ -50.656537860670291, -23.486183608719653 ], [ -50.657076849840763, -23.486183608719653 ], [ -50.657076849840763, -23.485914114134417 ], [ -50.656897186783937, -23.485914114134417 ], [ -50.656897186783937, -23.485734451077594 ] ] ] } },
{ "type": "Feature", "properties": { "area_ha": 17.431490486019854 }, "geometry": { "type": "Polygon", "coordinates": [ [ [ -50.654022577874755, -23.497682044356385 ], [ -50.654022577874755, -23.497771875884794 ], [ -50.654202240931582, -23.497771875884794 ], [ -50.654202240931582, -23.497861707413207 ], [ -50.654292072459995, -23.497861707413207 ], [ -50.654292072459995, -23.497951538941621 ], [ -50.654471735516815, -23.497951538941621 ], [ -50.654471735516815, -23.49804137047003 ], [ -50.654651398573641, -23.49804137047003 ], [ -50.654651398573641, -23.498131201998444 ], [ -50.65483106163046, -23.498131201998444 ], [ -50.65483106163046, -23.498221033526857 ], [ -50.655010724687287, -23.498221033526857 ], [ -50.655010724687287, -23.498310865055267 ], [ -50.655190387744113, -23.498310865055267 ], [ -50.655190387744113, -23.49840069658368 ], [ -50.655819208442992, -23.49840069658368 ], [ -50.655819208442992, -23.498490528112089 ], [ -50.656448029141877, -23.498490528112089 ], [ -50.656448029141877, -23.498580359640503 ], [ -50.656717523727117, -23.498580359640503 ], [ -50.656717523727117, -23.498670191168916 ], [ -50.65698701831235, -23.498670191168916 ], [ -50.65698701831235, -23.498760022697326 ], [ -50.65725651289759, -23.498760022697326 ], [ -50.65725651289759, -23.498849854225739 ], [ -50.657526007482822, -23.498849854225739 ], [ -50.657526007482822, -23.498939685754152 ], [ -50.657705670539649, -23.498939685754152 ], [ -50.657705670539649, -23.499029517282562 ], [ -50.657975165124881, -23.499029517282562 ], [ -50.657975165124881, -23.499119348810975 ], [ -50.658154828181708, -23.499119348810975 ], [ -50.658154828181708, -23.499209180339388 ], [ -50.65842432276694, -23.499209180339388 ], [ -50.65842432276694, -23.499299011867798 ], [ -50.65869381735218, -23.499299011867798 ], [ -50.65869381735218, -23.499388843396211 ], [ -50.658873480409, -23.499388843396211 ], [ -50.658873480409, -23.499478674924621 ], [ -50.659053143465826, -23.499478674924621 ], [ -50.659053143465826, -23.499568506453034 ], [ -50.659232806522652, -23.499568506453034 ], [ -50.659232806522652, -23.499658337981447 ], [ -50.659412469579472, -23.499658337981447 ], [ -50.659412469579472, -23.499748169509857 ], [ -50.659771795693118, -23.499748169509857 ], [ -50.659771795693118, -23.49983800103827 ], [ -50.660041290278357, -23.49983800103827 ], [ -50.660041290278357, -23.499927832566684 ], [ -50.66031078486359, -23.499927832566684 ], [ -50.66031078486359, -23.500017664095093 ], [ -50.66058027944883, -23.500017664095093 ], [ -50.66058027944883, -23.500107495623507 ], [ -50.660849774034062, -23.500107495623507 ], [ -50.660849774034062, -23.50019732715192 ], [ -50.661119268619302, -23.50019732715192 ], [ -50.661119268619302, -23.500287158680329 ], [ -50.661298931676122, -23.500287158680329 ], [ -50.661298931676122, -23.500376990208743 ], [ -50.661568426261361, -23.500376990208743 ], [ -50.661568426261361, -23.500466821737152 ], [ -50.661837920846594, -23.500466821737152 ], [ -50.661837920846594, -23.500556653265566 ], [ -50.66201758390342, -23.500556653265566 ], [ -50.66201758390342, -23.500646484793979 ], [ -50.662376910017066, -23.500646484793979 ], [ -50.662376910017066, -23.500736316322389 ], [ -50.662556573073893, -23.500736316322389 ], [ -50.662556573073893, -23.500826147850802 ], [ -50.662915899187539, -23.500826147850802 ], [ -50.662915899187539, -23.500915979379215 ], [ -50.663005730715952, -23.500915979379215 ], [ -50.663005730715952, -23.501005810907625 ], [ -50.663454888358011, -23.501005810907625 ], [ -50.663454888358011, -23.501544800078097 ], [ -50.657526007482822, -23.501544800078097 ], [ -50.657526007482822, -23.501185473964451 ], [ -50.657436175954409, -23.501185473964451 ], [ -50.657436175954409, -23.500826147850802 ], [ -50.657346344425996, -23.500826147850802 ], [ -50.657346344425996, -23.500736316322389 ], [ -50.65725651289759, -23.500736316322389 ], [ -50.65725651289759, -23.500556653265566 ], [ -50.657166681369176, -23.500556653265566 ], [ -50.657166681369176, -23.500376990208743 ], [ -50.657076849840763, -23.500376990208743 ], [ -50.657076849840763, -23.50019732715192 ], [ -50.65698701831235, -23.50019732715192 ], [ -50.65698701831235, -23.49983800103827 ], [ -50.656807355255523, -23.49983800103827 ], [ -50.656807355255523, -23.499748169509857 ], [ -50.656717523727117, -23.499748169509857 ], [ -50.656717523727117, -23.499658337981447 ], [ -50.656537860670291, -23.499658337981447 ], [ -50.656537860670291, -23.499568506453034 ], [ -50.656178534556645, -23.499568506453034 ], [ -50.656178534556645, -23.499478674924621 ], [ -50.655998871499818, -23.499478674924621 ], [ -50.655998871499818, -23.499388843396211 ], [ -50.655909039971405, -23.499388843396211 ], [ -50.655909039971405, -23.499209180339388 ], [ -50.655819208442992, -23.499209180339388 ], [ -50.655819208442992, -23.499119348810975 ], [ -50.655729376914586, -23.499119348810975 ], [ -50.655729376914586, -23.498939685754152 ], [ -50.655639545386173, -23.498939685754152 ], [ -50.655639545386173, -23.498760022697326 ], [ -50.655549713857759, -23.498760022697326 ], [ -50.655549713857759, -23.498670191168916 ], [ -50.655459882329346, -23.498670191168916 ], [ -50.655459882329346, -23.498490528112089 ], [ -50.655010724687287, -23.498490528112089 ], [ -50.655010724687287, -23.498580359640503 ], [ -50.654741230102054, -23.498580359640503 ], [ -50.654741230102054, -23.498760022697326 ], [ -50.654651398573641, -23.498760022697326 ], [ -50.654651398573641, -23.498849854225739 ], [ -50.654561567045228, -23.498849854225739 ], [ -50.654561567045228, -23.499119348810975 ], [ -50.654741230102054, -23.499119348810975 ], [ -50.654741230102054, -23.499209180339388 ], [ -50.654920893158874, -23.499209180339388 ], [ -50.654920893158874, -23.499299011867798 ], [ -50.655010724687287, -23.499299011867798 ], [ -50.655010724687287, -23.499388843396211 ], [ -50.6551005562157, -23.499388843396211 ], [ -50.6551005562157, -23.499568506453034 ], [ -50.655190387744113, -23.499568506453034 ], [ -50.655190387744113, -23.49983800103827 ], [ -50.655010724687287, -23.49983800103827 ], [ -50.655010724687287, -23.499927832566684 ], [ -50.654920893158874, -23.499927832566684 ], [ -50.654920893158874, -23.500107495623507 ], [ -50.654292072459995, -23.500107495623507 ], [ -50.654292072459995, -23.50019732715192 ], [ -50.654202240931582, -23.50019732715192 ], [ -50.654202240931582, -23.500287158680329 ], [ -50.654292072459995, -23.500287158680329 ], [ -50.654292072459995, -23.500466821737152 ], [ -50.654202240931582, -23.500466821737152 ], [ -50.654202240931582, -23.500556653265566 ], [ -50.654292072459995, -23.500556653265566 ], [ -50.654292072459995, -23.500646484793979 ], [ -50.654920893158874, -23.500646484793979 ], [ -50.654920893158874, -23.501005810907625 ], [ -50.65483106163046, -23.501005810907625 ], [ -50.65483106163046, -23.501275305492861 ], [ -50.654651398573641, -23.501275305492861 ], [ -50.654651398573641, -23.501365137021274 ], [ -50.654292072459995, -23.501365137021274 ], [ -50.654292072459995, -23.501544800078097 ], [ -50.65366325176111, -23.501544800078097 ], [ -50.65366325176111, -23.498310865055267 ], [ -50.653753083289523, -23.498310865055267 ], [ -50.653753083289523, -23.497682044356385 ], [ -50.654022577874755, -23.497682044356385 ] ] ] } },
{ "type": "Feature", "properties": { "area_ha": 18.435123529102754 }, "geometry": { "type": "Polygon", "coordinates": [ [ [ -50.656537860670291, -23.495256593089259 ], [ -50.656537860670291, -23.495346424617672 ], [ -50.656807355255523, -23.495346424617672 ], [ -50.656807355255523, -23.495436256146085 ], [ -50.65698701831235, -23.495436256146085 ], [ -50.65698701831235, -23.495526087674495 ], [ -50.65725651289759, -23.495526087674495 ], [ -50.65725651289759, -23.495615919202908 ], [ -50.657705670539649, -23.495615919202908 ], [ -50.657705670539649, -23.495705750731322 ], [ -50.658783648880586, -23.495705750731322 ], [ -50.658783648880586, -23.495615919202908 ], [ -50.659053143465826, -23.495615919202908 ], [ -50.659053143465826, -23.495705750731322 ], [ -50.659232806522652, -23.495705750731322 ], [ -50.659232806522652, -23.495795582259731 ], [ -50.659322638051059, -23.495795582259731 ], [ -50.659322638051059, -23.495885413788145 ], [ -50.66031078486359, -23.495885413788145 ], [ -50.66031078486359, -23.495795582259731 ], [ -50.660670110977243, -23.495795582259731 ], [ -50.660670110977243, -23.495705750731322 ], [ -50.660849774034062, -23.495705750731322 ], [ -50.660849774034062, -23.495795582259731 ], [ -50.661029437090889, -23.495795582259731 ], [ -50.661029437090889, -23.496424402958617 ], [ -50.660939605562476, -23.496424402958617 ], [ -50.660939605562476, -23.499299011867798 ], [ -50.660849774034062, -23.499299011867798 ], [ -50.660849774034062, -23.49983800103827 ], [ -50.660400616392003, -23.49983800103827 ], [ -50.660400616392003, -23.499748169509857 ], [ -50.660131121806771, -23.499748169509857 ], [ -50.660131121806771, -23.499658337981447 ], [ -50.659951458749944, -23.499658337981447 ], [ -50.659951458749944, -23.499568506453034 ], [ -50.659771795693118, -23.499568506453034 ], [ -50.659771795693118, -23.499478674924621 ], [ -50.659592132636298, -23.499478674924621 ], [ -50.659592132636298, -23.499388843396211 ], [ -50.659322638051059, -23.499388843396211 ], [ -50.659322638051059, -23.499299011867798 ], [ -50.659142974994239, -23.499299011867798 ], [ -50.659142974994239, -23.499209180339388 ], [ -50.658963311937413, -23.499209180339388 ], [ -50.658963311937413, -23.499119348810975 ], [ -50.658873480409, -23.499119348810975 ], [ -50.658873480409, -23.499029517282562 ], [ -50.658603985823767, -23.499029517282562 ], [ -50.658603985823767, -23.498939685754152 ], [ -50.65842432276694, -23.498939685754152 ], [ -50.65842432276694, -23.498849854225739 ], [ -50.658154828181708, -23.498849854225739 ], [ -50.658154828181708, -23.498760022697326 ], [ -50.657885333596468, -23.498760022697326 ], [ -50.657885333596468, -23.498670191168916 ], [ -50.657615839011235, -23.498670191168916 ], [ -50.657615839011235, -23.498580359640503 ], [ -50.657346344425996, -23.498580359640503 ], [ -50.657346344425996, -23.498490528112089 ], [ -50.657166681369176, -23.498490528112089 ], [ -50.657166681369176, -23.49840069658368 ], [ -50.656897186783937, -23.49840069658368 ], [ -50.656897186783937, -23.498310865055267 ], [ -50.656627692198704, -23.498310865055267 ], [ -50.656627692198704, -23.498221033526857 ], [ -50.656358197613464, -23.498221033526857 ], [ -50.656358197613464, -23.498131201998444 ], [ -50.656088703028232, -23.498131201998444 ], [ -50.656088703028232, -23.49804137047003 ], [ -50.655909039971405, -23.49804137047003 ], [ -50.655909039971405, -23.497143055185912 ], [ -50.656088703028232, -23.497143055185912 ], [ -50.656088703028232, -23.497053223657499 ], [ -50.656358197613464, -23.497053223657499 ], [ -50.656358197613464, -23.496693897543853 ], [ -50.656448029141877, -23.496693897543853 ], [ -50.656448029141877, -23.496514234487027 ], [ -50.656358197613464, -23.496514234487027 ], [ -50.656358197613464, -23.496424402958617 ], [ -50.655998871499818, -23.496424402958617 ], [ -50.655998871499818, -23.496334571430204 ], [ -50.655909039971405, -23.496334571430204 ], [ -50.655909039971405, -23.495885413788145 ], [ -50.655998871499818, -23.495885413788145 ], [ -50.655998871499818, -23.495346424617672 ], [ -50.656088703028232, -23.495346424617672 ], [ -50.656088703028232, -23.495256593089259 ], [ -50.656537860670291, -23.495256593089259 ] ] ] } },
{ "type": "Feature", "properties": { "area_ha": 6.9597854935395356 }, "geometry": { "type": "Polygon", "coordinates": [ [ [ -50.654292072459995, -23.498760022697326 ], [ -50.654292072459995, -23.498939685754152 ], [ -50.654381903988401, -23.498939685754152 ], [ -50.654381903988401, -23.499029517282562 ], [ -50.654471735516815, -23.499029517282562 ], [ -50.654471735516815, -23.499119348810975 ], [ -50.654651398573641, -23.499119348810975 ], [ -50.654651398573641, -23.499209180339388 ], [ -50.65483106163046, -23.499209180339388 ], [ -50.65483106163046, -23.499299011867798 ], [ -50.655010724687287, -23.499299011867798 ], [ -50.655010724687287, -23.499388843396211 ], [ -50.655190387744113, -23.499388843396211 ], [ -50.655190387744113, -23.499478674924621 ], [ -50.655280219272527, -23.499478674924621 ], [ -50.655280219272527, -23.499568506453034 ], [ -50.655370050800933, -23.499568506453034 ], [ -50.655370050800933, -23.499658337981447 ], [ -50.655459882329346, -23.499658337981447 ], [ -50.655459882329346, -23.499748169509857 ], [ -50.655549713857759, -23.499748169509857 ], [ -50.655549713857759, -23.499927832566684 ], [ -50.655639545386173, -23.499927832566684 ], [ -50.655639545386173, -23.500017664095093 ], [ -50.655729376914586, -23.500017664095093 ], [ -50.655729376914586, -23.50019732715192 ], [ -50.655819208442992, -23.50019732715192 ], [ -50.655819208442992, -23.500376990208743 ], [ -50.655909039971405, -23.500376990208743 ], [ -50.655909039971405, -23.500556653265566 ], [ -50.655998871499818, -23.500556653265566 ], [ -50.655998871499818, -23.500646484793979 ], [ -50.656088703028232, -23.500646484793979 ], [ -50.656088703028232, -23.500826147850802 ], [ -50.656178534556645, -23.500826147850802 ], [ -50.656178534556645, -23.500915979379215 ], [ -50.656358197613464, -23.500915979379215 ], [ -50.656358197613464, -23.500736316322389 ], [ -50.656448029141877, -23.500736316322389 ], [ -50.656448029141877, -23.500556653265566 ], [ -50.656627692198704, -23.500556653265566 ], [ -50.656627692198704, -23.501544800078097 ], [ -50.653483588704283, -23.501544800078097 ], [ -50.653483588704283, -23.498760022697326 ], [ -50.654292072459995, -23.498760022697326 ] ] ] } },
{ "type": "Feature", "properties": { "area_ha": 11.486232233695658 }, "geometry": { "type": "Polygon", "coordinates": [ [ [ -50.663365056829598, -23.472619047929449 ], [ -50.663365056829598, -23.472708879457862 ], [ -50.663454888358011, -23.472708879457862 ], [ -50.663454888358011, -23.475673319895456 ], [ -50.663365056829598, -23.475673319895456 ], [ -50.663365056829598, -23.475763151423866 ], [ -50.663005730715952, -23.475763151423866 ], [ -50.663005730715952, -23.475673319895456 ], [ -50.662826067659125, -23.475673319895456 ], [ -50.662826067659125, -23.475583488367043 ], [ -50.662646404602306, -23.475583488367043 ], [ -50.662646404602306, -23.47549365683863 ], [ -50.662556573073893, -23.47549365683863 ], [ -50.662556573073893, -23.47540382531022 ], [ -50.662376910017066, -23.47540382531022 ], [ -50.662376910017066, -23.475313993781807 ], [ -50.662287078488653, -23.475313993781807 ], [ -50.662287078488653, -23.475224162253394 ], [ -50.66201758390342, -23.475224162253394 ], [ -50.66201758390342, -23.475134330724984 ], [ -50.661748089318181, -23.475134330724984 ], [ -50.661748089318181, -23.475044499196571 ], [ -50.661568426261361, -23.475044499196571 ], [ -50.661568426261361, -23.474954667668161 ], [ -50.661478594732948, -23.474954667668161 ], [ -50.661478594732948, -23.474864836139748 ], [ -50.661298931676122, -23.474864836139748 ], [ -50.661298931676122, -23.474775004611335 ], [ -50.661119268619302, -23.474775004611335 ], [ -50.661119268619302, -23.474685173082925 ], [ -50.661029437090889, -23.474685173082925 ], [ -50.661029437090889, -23.474595341554512 ], [ -50.660849774034062, -23.474595341554512 ], [ -50.660849774034062, -23.474505510026098 ], [ -50.660670110977243, -23.474505510026098 ], [ -50.660670110977243, -23.474415678497689 ], [ -50.66058027944883, -23.474415678497689 ], [ -50.66058027944883, -23.474325846969275 ], [ -50.660400616392003, -23.474325846969275 ], [ -50.660400616392003, -23.474236015440862 ], [ -50.66031078486359, -23.474236015440862 ], [ -50.66031078486359, -23.474146183912453 ], [ -50.660220953335184, -23.474146183912453 ], [ -50.660220953335184, -23.474056352384039 ], [ -50.660041290278357, -23.474056352384039 ], [ -50.660041290278357, -23.47396652085563 ], [ -50.659861627221531, -23.47396652085563 ], [ -50.659861627221531, -23.473876689327216 ], [ -50.659592132636298, -23.473876689327216 ], [ -50.659592132636298, -23.473786857798803 ], [ -50.659412469579472, -23.473786857798803 ], [ -50.659412469579472, -23.473697026270393 ], [ -50.659232806522652, -23.473697026270393 ], [ -50.659232806522652, -23.47360719474198 ], [ -50.658963311937413, -23.47360719474198 ], [ -50.658963311937413, -23.473517363213567 ], [ -50.658783648880586, -23.473517363213567 ], [ -50.658783648880586, -23.473427531685157 ], [ -50.658603985823767, -23.473427531685157 ], [ -50.658603985823767, -23.473337700156744 ], [ -50.658334491238527, -23.473337700156744 ], [ -50.658334491238527, -23.473247868628331 ], [ -50.658154828181708, -23.473247868628331 ], [ -50.658154828181708, -23.473158037099921 ], [ -50.658064996653295, -23.473158037099921 ], [ -50.658064996653295, -23.473068205571508 ], [ -50.657975165124881, -23.473068205571508 ], [ -50.657975165124881, -23.472888542514685 ], [ -50.657885333596468, -23.472888542514685 ], [ -50.657885333596468, -23.472619047929449 ], [ -50.663365056829598, -23.472619047929449 ] ] ] } },
{ "type": "Feature", "properties": { "area_ha": 59.203623383668216 }, "geometry": { "type": "Polygon", "coordinates": [ [ [ -50.661119268619302, -23.484386978151413 ], [ -50.661119268619302, -23.484476809679826 ], [ -50.661029437090889, -23.484476809679826 ], [ -50.661029437090889, -23.484746304265062 ], [ -50.661119268619302, -23.484746304265062 ], [ -50.661119268619302, -23.484925967321885 ], [ -50.661209100147715, -23.484925967321885 ], [ -50.661209100147715, -23.484836135793476 ], [ -50.661298931676122, -23.484836135793476 ], [ -50.661298931676122, -23.484746304265062 ], [ -50.661388763204535, -23.484746304265062 ], [ -50.661388763204535, -23.485105630378712 ], [ -50.661478594732948, -23.485105630378712 ], [ -50.661478594732948, -23.486093777191243 ], [ -50.661388763204535, -23.486093777191243 ], [ -50.661388763204535, -23.487081924003775 ], [ -50.661298931676122, -23.487081924003775 ], [ -50.661298931676122, -23.488339565401539 ], [ -50.661209100147715, -23.488339565401539 ], [ -50.661209100147715, -23.489237880685661 ], [ -50.661119268619302, -23.489237880685661 ], [ -50.661119268619302, -23.493280299464196 ], [ -50.661029437090889, -23.493280299464196 ], [ -50.661029437090889, -23.495166761560849 ], [ -50.660939605562476, -23.495166761560849 ], [ -50.660939605562476, -23.495436256146085 ], [ -50.660849774034062, -23.495436256146085 ], [ -50.660849774034062, -23.495526087674495 ], [ -50.660759942505649, -23.495526087674495 ], [ -50.660759942505649, -23.495615919202908 ], [ -50.659592132636298, -23.495615919202908 ], [ -50.659592132636298, -23.495526087674495 ], [ -50.659322638051059, -23.495526087674495 ], [ -50.659322638051059, -23.495436256146085 ], [ -50.658873480409, -23.495436256146085 ], [ -50.658873480409, -23.495346424617672 ], [ -50.65869381735218, -23.495346424617672 ], [ -50.65869381735218, -23.495256593089259 ], [ -50.658514154295354, -23.495256593089259 ], [ -50.658514154295354, -23.495166761560849 ], [ -50.65842432276694, -23.495166761560849 ], [ -50.65842432276694, -23.495076930032436 ], [ -50.658334491238527, -23.495076930032436 ], [ -50.658334491238527, -23.494987098504026 ], [ -50.658064996653295, -23.494987098504026 ], [ -50.658064996653295, -23.494897266975613 ], [ -50.657795502068055, -23.494897266975613 ], [ -50.657795502068055, -23.4948074354472 ], [ -50.657615839011235, -23.4948074354472 ], [ -50.657615839011235, -23.49471760391879 ], [ -50.657346344425996, -23.49471760391879 ], [ -50.657346344425996, -23.494627772390377 ], [ -50.657076849840763, -23.494627772390377 ], [ -50.657076849840763, -23.494537940861964 ], [ -50.656178534556645, -23.494537940861964 ], [ -50.656178534556645, -23.489507375270897 ], [ -50.656268366085058, -23.489507375270897 ], [ -50.656268366085058, -23.488609059986775 ], [ -50.656178534556645, -23.488609059986775 ], [ -50.656178534556645, -23.488519228458365 ], [ -50.656268366085058, -23.488519228458365 ], [ -50.656268366085058, -23.488339565401539 ], [ -50.656178534556645, -23.488339565401539 ], [ -50.656178534556645, -23.487980239287893 ], [ -50.656268366085058, -23.487980239287893 ], [ -50.656268366085058, -23.486632766361712 ], [ -50.656358197613464, -23.486632766361712 ], [ -50.656358197613464, -23.485824282606007 ], [ -50.656448029141877, -23.485824282606007 ], [ -50.656448029141877, -23.485464956492358 ], [ -50.656627692198704, -23.485464956492358 ], [ -50.656627692198704, -23.485554788020771 ], [ -50.656717523727117, -23.485554788020771 ], [ -50.656717523727117, -23.485464956492358 ], [ -50.656807355255523, -23.485464956492358 ], [ -50.656807355255523, -23.485375124963944 ], [ -50.657166681369176, -23.485375124963944 ], [ -50.657166681369176, -23.485285293435535 ], [ -50.65725651289759, -23.485285293435535 ], [ -50.65725651289759, -23.485105630378712 ], [ -50.657346344425996, -23.485105630378712 ], [ -50.657346344425996, -23.485015798850299 ], [ -50.657436175954409, -23.485015798850299 ], [ -50.657436175954409, -23.484836135793476 ], [ -50.657615839011235, -23.484836135793476 ], [ -50.657615839011235, -23.484746304265062 ], [ -50.657526007482822, -23.484746304265062 ], [ -50.657526007482822, -23.484656472736649 ], [ -50.657346344425996, -23.484656472736649 ], [ -50.657346344425996, -23.484566641208239 ], [ -50.656537860670291, -23.484566641208239 ], [ -50.656537860670291, -23.484836135793476 ], [ -50.656448029141877, -23.484836135793476 ], [ -50.656448029141877, -23.484386978151413 ], [ -50.661119268619302, -23.484386978151413 ] ] ] } },
{ "type": "Feature", "properties": { "area_ha": 56.250046599744856 }, "geometry": { "type": "Polygon", "coordinates": [ [ [ -50.654112409403169, -23.472888542514685 ], [ -50.654112409403169, -23.472978374043098 ], [ -50.654202240931582, -23.472978374043098 ], [ -50.654202240931582, -23.473158037099921 ], [ -50.654292072459995, -23.473158037099921 ], [ -50.654292072459995, -23.473247868628331 ], [ -50.654381903988401, -23.473247868628331 ], [ -50.654381903988401, -23.473337700156744 ], [ -50.654471735516815, -23.473337700156744 ], [ -50.654471735516815, -23.473427531685157 ], [ -50.654561567045228, -23.473427531685157 ], [ -50.654561567045228, -23.473517363213567 ], [ -50.654651398573641, -23.473517363213567 ], [ -50.654651398573641, -23.47360719474198 ], [ -50.654741230102054, -23.47360719474198 ], [ -50.654741230102054, -23.473697026270393 ], [ -50.65483106163046, -23.473697026270393 ], [ -50.65483106163046, -23.473786857798803 ], [ -50.654920893158874, -23.473786857798803 ], [ -50.654920893158874, -23.473876689327216 ], [ -50.655010724687287, -23.473876689327216 ], [ -50.655010724687287, -23.47396652085563 ], [ -50.6551005562157, -23.47396652085563 ], [ -50.6551005562157, -23.474056352384039 ], [ -50.655280219272527, -23.474056352384039 ], [ -50.655280219272527, -23.474146183912453 ], [ -50.655370050800933, -23.474146183912453 ], [ -50.655370050800933, -23.474775004611335 ], [ -50.655280219272527, -23.474775004611335 ], [ -50.655280219272527, -23.47540382531022 ], [ -50.655190387744113, -23.47540382531022 ], [ -50.655190387744113, -23.476571635179575 ], [ -50.6551005562157, -23.476571635179575 ], [ -50.6551005562157, -23.478547928804637 ], [ -50.655010724687287, -23.478547928804637 ], [ -50.655010724687287, -23.480793717014937 ], [ -50.6551005562157, -23.480793717014937 ], [ -50.6551005562157, -23.48088354854335 ], [ -50.655459882329346, -23.48088354854335 ], [ -50.655459882329346, -23.480973380071759 ], [ -50.655729376914586, -23.480973380071759 ], [ -50.655729376914586, -23.481063211600173 ], [ -50.656088703028232, -23.481063211600173 ], [ -50.656088703028232, -23.481153043128586 ], [ -50.656358197613464, -23.481153043128586 ], [ -50.656358197613464, -23.481242874656996 ], [ -50.656448029141877, -23.481242874656996 ], [ -50.656448029141877, -23.482500516054763 ], [ -50.656358197613464, -23.482500516054763 ], [ -50.656358197613464, -23.483847988980944 ], [ -50.656268366085058, -23.483847988980944 ], [ -50.656268366085058, -23.486722597890125 ], [ -50.656178534556645, -23.486722597890125 ], [ -50.656178534556645, -23.490854848197074 ], [ -50.656088703028232, -23.490854848197074 ], [ -50.656088703028232, -23.491932826538019 ], [ -50.655998871499818, -23.491932826538019 ], [ -50.655998871499818, -23.493370130992609 ], [ -50.655909039971405, -23.493370130992609 ], [ -50.655909039971405, -23.493998951691495 ], [ -50.655819208442992, -23.493998951691495 ], [ -50.655819208442992, -23.49471760391879 ], [ -50.653483588704283, -23.49471760391879 ], [ -50.653483588704283, -23.472888542514685 ], [ -50.654112409403169, -23.472888542514685 ] ] ] } },
{ "type": "Feature", "properties": { "area_ha": 39.518747992869045 }, "geometry": { "type": "Polygon", "coordinates": [ [ [ -50.66201758390342, -23.477200455878457 ], [ -50.66201758390342, -23.47729028740687 ], [ -50.662197246960247, -23.47729028740687 ], [ -50.662197246960247, -23.477380118935283 ], [ -50.662466741545479, -23.477380118935283 ], [ -50.662466741545479, -23.477469950463693 ], [ -50.662646404602306, -23.477469950463693 ], [ -50.662646404602306, -23.477559781992106 ], [ -50.663185393772778, -23.477559781992106 ], [ -50.663185393772778, -23.477469950463693 ], [ -50.663275225301184, -23.477469950463693 ], [ -50.663275225301184, -23.477380118935283 ], [ -50.663365056829598, -23.477380118935283 ], [ -50.663365056829598, -23.47729028740687 ], [ -50.663454888358011, -23.47729028740687 ], [ -50.663454888358011, -23.495436256146085 ], [ -50.663005730715952, -23.495436256146085 ], [ -50.663005730715952, -23.495346424617672 ], [ -50.66201758390342, -23.495346424617672 ], [ -50.66201758390342, -23.495256593089259 ], [ -50.661927752375007, -23.495256593089259 ], [ -50.661927752375007, -23.495166761560849 ], [ -50.661748089318181, -23.495166761560849 ], [ -50.661748089318181, -23.495076930032436 ], [ -50.661478594732948, -23.495076930032436 ], [ -50.661478594732948, -23.494987098504026 ], [ -50.661388763204535, -23.494987098504026 ], [ -50.661388763204535, -23.487261587060598 ], [ -50.661478594732948, -23.487261587060598 ], [ -50.661478594732948, -23.485554788020771 ], [ -50.661568426261361, -23.485554788020771 ], [ -50.661568426261361, -23.483937820509354 ], [ -50.661658257789774, -23.483937820509354 ], [ -50.661658257789774, -23.482770010639999 ], [ -50.661748089318181, -23.482770010639999 ], [ -50.661748089318181, -23.480703885486523 ], [ -50.661658257789774, -23.480703885486523 ], [ -50.661658257789774, -23.479985233259228 ], [ -50.661568426261361, -23.479985233259228 ], [ -50.661568426261361, -23.479446244088756 ], [ -50.661658257789774, -23.479446244088756 ], [ -50.661658257789774, -23.479356412560346 ], [ -50.661568426261361, -23.479356412560346 ], [ -50.661568426261361, -23.478637760333051 ], [ -50.661388763204535, -23.478637760333051 ], [ -50.661388763204535, -23.477469950463693 ], [ -50.661478594732948, -23.477469950463693 ], [ -50.661478594732948, -23.477559781992106 ], [ -50.661658257789774, -23.477559781992106 ], [ -50.661658257789774, -23.477469950463693 ], [ -50.661748089318181, -23.477469950463693 ], [ -50.661748089318181, -23.477380118935283 ], [ -50.661837920846594, -23.477380118935283 ], [ -50.661837920846594, -23.477200455878457 ], [ -50.66201758390342, -23.477200455878457 ] ] ] } },
{ "type": "Feature", "properties": { "area_ha": 10.034086629801878 }, "geometry": { "type": "Polygon", "coordinates": [ [ [ -50.655729376914586, -23.493639625577845 ], [ -50.655729376914586, -23.493729457106259 ], [ -50.655549713857759, -23.493729457106259 ], [ -50.655549713857759, -23.493819288634668 ], [ -50.655459882329346, -23.493819288634668 ], [ -50.655459882329346, -23.493909120163082 ], [ -50.655370050800933, -23.493909120163082 ], [ -50.655370050800933, -23.494268446276728 ], [ -50.655459882329346, -23.494268446276728 ], [ -50.655459882329346, -23.494358277805141 ], [ -50.655549713857759, -23.494358277805141 ], [ -50.655549713857759, -23.494448109333554 ], [ -50.655639545386173, -23.494448109333554 ], [ -50.655639545386173, -23.494537940861964 ], [ -50.655729376914586, -23.494537940861964 ], [ -50.655729376914586, -23.49471760391879 ], [ -50.655819208442992, -23.49471760391879 ], [ -50.655819208442992, -23.496065076844967 ], [ -50.655729376914586, -23.496065076844967 ], [ -50.655729376914586, -23.497322718242735 ], [ -50.655639545386173, -23.497322718242735 ], [ -50.655639545386173, -23.497951538941621 ], [ -50.655190387744113, -23.497951538941621 ], [ -50.655190387744113, -23.497861707413207 ], [ -50.655010724687287, -23.497861707413207 ], [ -50.655010724687287, -23.497771875884794 ], [ -50.654741230102054, -23.497771875884794 ], [ -50.654741230102054, -23.497682044356385 ], [ -50.654561567045228, -23.497682044356385 ], [ -50.654561567045228, -23.497592212827971 ], [ -50.654381903988401, -23.497592212827971 ], [ -50.654381903988401, -23.497502381299558 ], [ -50.654022577874755, -23.497502381299558 ], [ -50.654022577874755, -23.497412549771148 ], [ -50.653753083289523, -23.497412549771148 ], [ -50.653753083289523, -23.497322718242735 ], [ -50.653483588704283, -23.497322718242735 ], [ -50.653483588704283, -23.493639625577845 ], [ -50.655729376914586, -23.493639625577845 ] ] ] } },
{ "type": "Feature", "properties": { "area_ha": 144.15011797119371 }, "geometry": { "type": "Polygon", "coordinates": [ [ [ -50.661568426261361, -23.481692032299055 ], [ -50.661568426261361, -23.48780057623107 ], [ -50.661478594732948, -23.48780057623107 ], [ -50.661478594732948, -23.487620913174243 ], [ -50.661388763204535, -23.487620913174243 ], [ -50.661388763204535, -23.48780057623107 ], [ -50.661298931676122, -23.48780057623107 ], [ -50.661298931676122, -23.488968386100424 ], [ -50.661209100147715, -23.488968386100424 ], [ -50.661209100147715, -23.489776869856133 ], [ -50.661388763204535, -23.489776869856133 ], [ -50.661388763204535, -23.489417543742483 ], [ -50.661478594732948, -23.489417543742483 ], [ -50.661478594732948, -23.488788723043601 ], [ -50.661568426261361, -23.488788723043601 ], [ -50.661568426261361, -23.494987098504026 ], [ -50.661478594732948, -23.494987098504026 ], [ -50.661478594732948, -23.494897266975613 ], [ -50.661388763204535, -23.494897266975613 ], [ -50.661388763204535, -23.4948074354472 ], [ -50.661298931676122, -23.4948074354472 ], [ -50.661298931676122, -23.494627772390377 ], [ -50.661119268619302, -23.494627772390377 ], [ -50.661119268619302, -23.495076930032436 ], [ -50.661029437090889, -23.495076930032436 ], [ -50.661029437090889, -23.495615919202908 ], [ -50.661568426261361, -23.495615919202908 ], [ -50.661568426261361, -23.496065076844967 ], [ -50.661119268619302, -23.496065076844967 ], [ -50.661119268619302, -23.496154908373381 ], [ -50.661029437090889, -23.496154908373381 ], [ -50.661029437090889, -23.496514234487027 ], [ -50.660939605562476, -23.496514234487027 ], [ -50.660939605562476, -23.496693897543853 ], [ -50.661029437090889, -23.496693897543853 ], [ -50.661029437090889, -23.498310865055267 ], [ -50.661119268619302, -23.498310865055267 ], [ -50.661119268619302, -23.49840069658368 ], [ -50.661568426261361, -23.49840069658368 ], [ -50.661568426261361, -23.500107495623507 ], [ -50.661478594732948, -23.500107495623507 ], [ -50.661478594732948, -23.500017664095093 ], [ -50.661298931676122, -23.500017664095093 ], [ -50.661298931676122, -23.499927832566684 ], [ -50.661209100147715, -23.499927832566684 ], [ -50.661209100147715, -23.49983800103827 ], [ -50.661119268619302, -23.49983800103827 ], [ -50.661119268619302, -23.499748169509857 ], [ -50.661298931676122, -23.499748169509857 ], [ -50.661298931676122, -23.499568506453034 ], [ -50.661119268619302, -23.499568506453034 ], [ -50.661119268619302, -23.499658337981447 ], [ -50.661029437090889, -23.499658337981447 ], [ -50.661029437090889, -23.499748169509857 ], [ -50.660939605562476, -23.499748169509857 ], [ -50.660939605562476, -23.49983800103827 ], [ -50.660400616392003, -23.49983800103827 ], [ -50.660400616392003, -23.499748169509857 ], [ -50.660220953335184, -23.499748169509857 ], [ -50.660220953335184, -23.499658337981447 ], [ -50.660041290278357, -23.499658337981447 ], [ -50.660041290278357, -23.499568506453034 ], [ -50.659861627221531, -23.499568506453034 ], [ -50.659861627221531, -23.499478674924621 ], [ -50.659592132636298, -23.499478674924621 ], [ -50.659592132636298, -23.499388843396211 ], [ -50.659412469579472, -23.499388843396211 ], [ -50.659412469579472, -23.499299011867798 ], [ -50.659232806522652, -23.499299011867798 ], [ -50.659232806522652, -23.499209180339388 ], [ -50.659053143465826, -23.499209180339388 ], [ -50.659053143465826, -23.499119348810975 ], [ -50.658873480409, -23.499119348810975 ], [ -50.658873480409, -23.499029517282562 ], [ -50.65869381735218, -23.499029517282562 ], [ -50.65869381735218, -23.498939685754152 ], [ -50.658514154295354, -23.498939685754152 ], [ -50.658514154295354, -23.498849854225739 ], [ -50.658244659710121, -23.498849854225739 ], [ -50.658244659710121, -23.498760022697326 ], [ -50.657975165124881, -23.498760022697326 ], [ -50.657975165124881, -23.498670191168916 ], [ -50.657705670539649, -23.498670191168916 ], [ -50.657705670539649, -23.498580359640503 ], [ -50.657436175954409, -23.498580359640503 ], [ -50.657436175954409, -23.498490528112089 ], [ -50.657166681369176, -23.498490528112089 ], [ -50.657166681369176, -23.49840069658368 ], [ -50.65698701831235, -23.49840069658368 ], [ -50.65698701831235, -23.498310865055267 ], [ -50.656717523727117, -23.498310865055267 ], [ -50.656717523727117, -23.498221033526857 ], [ -50.656448029141877, -23.498221033526857 ], [ -50.656448029141877, -23.498131201998444 ], [ -50.656358197613464, -23.498131201998444 ], [ -50.656358197613464, -23.49804137047003 ], [ -50.655819208442992, -23.49804137047003 ], [ -50.655819208442992, -23.497951538941621 ], [ -50.655639545386173, -23.497951538941621 ], [ -50.655639545386173, -23.49804137047003 ], [ -50.655459882329346, -23.49804137047003 ], [ -50.655459882329346, -23.497951538941621 ], [ -50.655280219272527, -23.497951538941621 ], [ -50.655280219272527, -23.497861707413207 ], [ -50.655010724687287, -23.497861707413207 ], [ -50.655010724687287, -23.497771875884794 ], [ -50.65483106163046, -23.497771875884794 ], [ -50.65483106163046, -23.497682044356385 ], [ -50.654561567045228, -23.497682044356385 ], [ -50.654561567045228, -23.497592212827971 ], [ -50.654381903988401, -23.497592212827971 ], [ -50.654381903988401, -23.497502381299558 ], [ -50.654112409403169, -23.497502381299558 ], [ -50.654112409403169, -23.497412549771148 ], [ -50.653753083289523, -23.497412549771148 ], [ -50.653753083289523, -23.497322718242735 ], [ -50.653573420232696, -23.497322718242735 ], [ -50.653573420232696, -23.481692032299055 ], [ -50.6551005562157, -23.481692032299055 ], [ -50.6551005562157, -23.481781863827468 ], [ -50.655280219272527, -23.481781863827468 ], [ -50.655280219272527, -23.481692032299055 ], [ -50.657615839011235, -23.481692032299055 ], [ -50.657615839011235, -23.482231021469527 ], [ -50.657705670539649, -23.482231021469527 ], [ -50.657705670539649, -23.48232085299794 ], [ -50.657615839011235, -23.48232085299794 ], [ -50.657615839011235, -23.482500516054763 ], [ -50.657526007482822, -23.482500516054763 ], [ -50.657526007482822, -23.482590347583177 ], [ -50.657436175954409, -23.482590347583177 ], [ -50.657436175954409, -23.482770010639999 ], [ -50.657346344425996, -23.482770010639999 ], [ -50.657346344425996, -23.482949673696822 ], [ -50.657436175954409, -23.482949673696822 ], [ -50.657436175954409, -23.483129336753649 ], [ -50.657615839011235, -23.483129336753649 ], [ -50.657615839011235, -23.483219168282059 ], [ -50.658064996653295, -23.483219168282059 ], [ -50.658064996653295, -23.483129336753649 ], [ -50.658244659710121, -23.483129336753649 ], [ -50.658244659710121, -23.482949673696822 ], [ -50.658334491238527, -23.482949673696822 ], [ -50.658334491238527, -23.482770010639999 ], [ -50.65842432276694, -23.482770010639999 ], [ -50.65842432276694, -23.482590347583177 ], [ -50.658514154295354, -23.482590347583177 ], [ -50.658514154295354, -23.482500516054763 ], [ -50.65869381735218, -23.482500516054763 ], [ -50.65869381735218, -23.48241068452635 ], [ -50.658963311937413, -23.48241068452635 ], [ -50.658963311937413, -23.48232085299794 ], [ -50.659232806522652, -23.48232085299794 ], [ -50.659232806522652, -23.482231021469527 ], [ -50.659861627221531, -23.482231021469527 ], [ -50.659861627221531, -23.482141189941117 ], [ -50.660131121806771, -23.482141189941117 ], [ -50.660131121806771, -23.481961526884291 ], [ -50.660220953335184, -23.481961526884291 ], [ -50.660220953335184, -23.481781863827468 ], [ -50.66031078486359, -23.481781863827468 ], [ -50.66031078486359, -23.481692032299055 ], [ -50.661568426261361, -23.481692032299055 ] ], [ [ -50.656537860670291, -23.482500516054763 ], [ -50.656448029141877, -23.482500516054763 ], [ -50.656448029141877, -23.482770010639999 ], [ -50.656358197613464, -23.482770010639999 ], [ -50.656358197613464, -23.483308999810472 ], [ -50.656448029141877, -23.483308999810472 ], [ -50.656448029141877, -23.483398831338882 ], [ -50.656537860670291, -23.483398831338882 ], [ -50.656537860670291, -23.482500516054763 ] ], [ [ -50.661298931676122, -23.489956532912956 ], [ -50.661209100147715, -23.489956532912956 ], [ -50.661209100147715, -23.490136195969779 ], [ -50.661298931676122, -23.490136195969779 ], [ -50.661298931676122, -23.489956532912956 ] ], [ [ -50.661298931676122, -23.490315859026602 ], [ -50.661209100147715, -23.490315859026602 ], [ -50.661209100147715, -23.490765016668664 ], [ -50.661119268619302, -23.490765016668664 ], [ -50.661119268619302, -23.494088783219905 ], [ -50.661209100147715, -23.494088783219905 ], [ -50.661209100147715, -23.494178614748318 ], [ -50.661298931676122, -23.494178614748318 ], [ -50.661298931676122, -23.493909120163082 ], [ -50.661388763204535, -23.493909120163082 ], [ -50.661388763204535, -23.493549794049432 ], [ -50.661298931676122, -23.493549794049432 ], [ -50.661298931676122, -23.493459962521023 ], [ -50.661388763204535, -23.493459962521023 ], [ -50.661388763204535, -23.492381984180078 ], [ -50.661298931676122, -23.492381984180078 ], [ -50.661298931676122, -23.491932826538019 ], [ -50.661388763204535, -23.491932826538019 ], [ -50.661388763204535, -23.491753163481196 ], [ -50.661298931676122, -23.491753163481196 ], [ -50.661298931676122, -23.491573500424369 ], [ -50.661388763204535, -23.491573500424369 ], [ -50.661388763204535, -23.49148366889596 ], [ -50.661298931676122, -23.49148366889596 ], [ -50.661298931676122, -23.490315859026602 ] ], [ [ -50.65725651289759, -23.49471760391879 ], [ -50.655819208442992, -23.49471760391879 ], [ -50.655819208442992, -23.494897266975613 ], [ -50.655729376914586, -23.494897266975613 ], [ -50.655729376914586, -23.494987098504026 ], [ -50.655639545386173, -23.494987098504026 ], [ -50.655639545386173, -23.495076930032436 ], [ -50.655549713857759, -23.495076930032436 ], [ -50.655549713857759, -23.495166761560849 ], [ -50.655459882329346, -23.495166761560849 ], [ -50.655459882329346, -23.495256593089259 ], [ -50.655370050800933, -23.495256593089259 ], [ -50.655370050800933, -23.495436256146085 ], [ -50.655459882329346, -23.495436256146085 ], [ -50.655459882329346, -23.495526087674495 ], [ -50.655549713857759, -23.495526087674495 ], [ -50.655549713857759, -23.495615919202908 ], [ -50.655729376914586, -23.495615919202908 ], [ -50.655729376914586, -23.497771875884794 ], [ -50.655819208442992, -23.497771875884794 ], [ -50.655819208442992, -23.497322718242735 ], [ -50.655909039971405, -23.497322718242735 ], [ -50.655909039971405, -23.497143055185912 ], [ -50.655998871499818, -23.497143055185912 ], [ -50.655998871499818, -23.497053223657499 ], [ -50.656178534556645, -23.497053223657499 ], [ -50.656178534556645, -23.496963392129089 ], [ -50.656358197613464, -23.496963392129089 ], [ -50.656358197613464, -23.496514234487027 ], [ -50.656088703028232, -23.496514234487027 ], [ -50.656088703028232, -23.496424402958617 ], [ -50.655819208442992, -23.496424402958617 ], [ -50.655819208442992, -23.495795582259731 ], [ -50.655909039971405, -23.495795582259731 ], [ -50.655909039971405, -23.495705750731322 ], [ -50.655998871499818, -23.495705750731322 ], [ -50.655998871499818, -23.495256593089259 ], [ -50.656268366085058, -23.495256593089259 ], [ -50.656268366085058, -23.495166761560849 ], [ -50.656358197613464, -23.495166761560849 ], [ -50.656358197613464, -23.495256593089259 ], [ -50.656717523727117, -23.495256593089259 ], [ -50.656717523727117, -23.495346424617672 ], [ -50.656897186783937, -23.495346424617672 ], [ -50.656897186783937, -23.495436256146085 ], [ -50.657076849840763, -23.495436256146085 ], [ -50.657076849840763, -23.495526087674495 ], [ -50.65725651289759, -23.495526087674495 ], [ -50.65725651289759, -23.495615919202908 ], [ -50.657885333596468, -23.495615919202908 ], [ -50.657885333596468, -23.495705750731322 ], [ -50.658514154295354, -23.495705750731322 ], [ -50.658514154295354, -23.495526087674495 ], [ -50.658603985823767, -23.495526087674495 ], [ -50.658603985823767, -23.495436256146085 ], [ -50.658514154295354, -23.495436256146085 ], [ -50.658514154295354, -23.495256593089259 ], [ -50.65842432276694, -23.495256593089259 ], [ -50.65842432276694, -23.495166761560849 ], [ -50.658334491238527, -23.495166761560849 ], [ -50.658334491238527, -23.495076930032436 ], [ -50.657885333596468, -23.495076930032436 ], [ -50.657885333596468, -23.494987098504026 ], [ -50.657615839011235, -23.494987098504026 ], [ -50.657615839011235, -23.494897266975613 ], [ -50.657436175954409, -23.494897266975613 ], [ -50.657436175954409, -23.4948074354472 ], [ -50.65725651289759, -23.4948074354472 ], [ -50.65725651289759, -23.49471760391879 ] ] ] } },
{ "type": "Feature", "properties": { "area_ha": 4.2514768242708918 }, "geometry": { "type": "Polygon", "coordinates": [ [ [ -50.663365056829598, -23.472619047929449 ], [ -50.663365056829598, -23.472708879457862 ], [ -50.663454888358011, -23.472708879457862 ], [ -50.663454888358011, -23.475673319895456 ], [ -50.662915899187539, -23.475673319895456 ], [ -50.662915899187539, -23.475583488367043 ], [ -50.662736236130712, -23.475583488367043 ], [ -50.662736236130712, -23.47549365683863 ], [ -50.662646404602306, -23.47549365683863 ], [ -50.662646404602306, -23.47540382531022 ], [ -50.662466741545479, -23.47540382531022 ], [ -50.662466741545479, -23.475313993781807 ], [ -50.662376910017066, -23.475313993781807 ], [ -50.662376910017066, -23.475224162253394 ], [ -50.662197246960247, -23.475224162253394 ], [ -50.662197246960247, -23.475134330724984 ], [ -50.66201758390342, -23.475134330724984 ], [ -50.66201758390342, -23.475044499196571 ], [ -50.661837920846594, -23.475044499196571 ], [ -50.661837920846594, -23.473697026270393 ], [ -50.661927752375007, -23.473697026270393 ], [ -50.661927752375007, -23.47360719474198 ], [ -50.662107415431834, -23.47360719474198 ], [ -50.662107415431834, -23.473517363213567 ], [ -50.662197246960247, -23.473517363213567 ], [ -50.662197246960247, -23.473427531685157 ], [ -50.662376910017066, -23.473427531685157 ], [ -50.662376910017066, -23.473337700156744 ], [ -50.662556573073893, -23.473337700156744 ], [ -50.662556573073893, -23.473247868628331 ], [ -50.662646404602306, -23.473247868628331 ], [ -50.662646404602306, -23.473158037099921 ], [ -50.662736236130712, -23.473158037099921 ], [ -50.662736236130712, -23.472978374043098 ], [ -50.662826067659125, -23.472978374043098 ], [ -50.662826067659125, -23.472619047929449 ], [ -50.663365056829598, -23.472619047929449 ] ] ] } },
{ "type": "Feature", "properties": { "area_ha": 1.9520118772998067 }, "geometry": { "type": "Polygon", "coordinates": [ [ [ -50.661748089318181, -23.500466821737152 ], [ -50.661748089318181, -23.500556653265566 ], [ -50.662107415431834, -23.500556653265566 ], [ -50.662107415431834, -23.500646484793979 ], [ -50.662376910017066, -23.500646484793979 ], [ -50.662376910017066, -23.500736316322389 ], [ -50.662556573073893, -23.500736316322389 ], [ -50.662556573073893, -23.500826147850802 ], [ -50.662826067659125, -23.500826147850802 ], [ -50.662826067659125, -23.500915979379215 ], [ -50.663005730715952, -23.500915979379215 ], [ -50.663005730715952, -23.501005810907625 ], [ -50.663275225301184, -23.501005810907625 ], [ -50.663275225301184, -23.500915979379215 ], [ -50.663454888358011, -23.500915979379215 ], [ -50.663454888358011, -23.501544800078097 ], [ -50.661298931676122, -23.501544800078097 ], [ -50.661298931676122, -23.501095642436038 ], [ -50.661388763204535, -23.501095642436038 ], [ -50.661388763204535, -23.500556653265566 ], [ -50.661478594732948, -23.500556653265566 ], [ -50.661478594732948, -23.500466821737152 ], [ -50.661748089318181, -23.500466821737152 ] ] ] } },
{ "type": "Feature", "properties": { "area_ha": 6.5592281348281976 }, "geometry": { "type": "Polygon", "coordinates": [ [ [ -50.656358197613464, -23.481153043128586 ], [ -50.656358197613464, -23.481242874656996 ], [ -50.656448029141877, -23.481242874656996 ], [ -50.656448029141877, -23.483578494395708 ], [ -50.656358197613464, -23.483578494395708 ], [ -50.656358197613464, -23.485105630378712 ], [ -50.656268366085058, -23.485105630378712 ], [ -50.656268366085058, -23.48600394566283 ], [ -50.655280219272527, -23.48600394566283 ], [ -50.655280219272527, -23.485914114134417 ], [ -50.655190387744113, -23.485914114134417 ], [ -50.655190387744113, -23.485824282606007 ], [ -50.6551005562157, -23.485824282606007 ], [ -50.6551005562157, -23.485734451077594 ], [ -50.654920893158874, -23.485734451077594 ], [ -50.654920893158874, -23.48420731509459 ], [ -50.655010724687287, -23.48420731509459 ], [ -50.655010724687287, -23.483937820509354 ], [ -50.6551005562157, -23.483937820509354 ], [ -50.6551005562157, -23.483578494395708 ], [ -50.655190387744113, -23.483578494395708 ], [ -50.655190387744113, -23.483219168282059 ], [ -50.655280219272527, -23.483219168282059 ], [ -50.655280219272527, -23.482949673696822 ], [ -50.655370050800933, -23.482949673696822 ], [ -50.655370050800933, -23.482680179111586 ], [ -50.655459882329346, -23.482680179111586 ], [ -50.655459882329346, -23.481153043128586 ], [ -50.656358197613464, -23.481153043128586 ] ] ] } },
{ "type": "Feature", "properties": { "area_ha": 37.833572567878427 }, "geometry": { "type": "Polygon", "coordinates": [ [ [ -50.659322638051059, -23.474236015440862 ], [ -50.659322638051059, -23.474325846969275 ], [ -50.659502301107885, -23.474325846969275 ], [ -50.659502301107885, -23.474415678497689 ], [ -50.659681964164712, -23.474415678497689 ], [ -50.659681964164712, -23.474505510026098 ], [ -50.659771795693118, -23.474505510026098 ], [ -50.659771795693118, -23.474595341554512 ], [ -50.659951458749944, -23.474595341554512 ], [ -50.659951458749944, -23.474685173082925 ], [ -50.660131121806771, -23.474685173082925 ], [ -50.660131121806771, -23.474775004611335 ], [ -50.660400616392003, -23.474775004611335 ], [ -50.660400616392003, -23.474864836139748 ], [ -50.66058027944883, -23.474864836139748 ], [ -50.66058027944883, -23.474954667668161 ], [ -50.660849774034062, -23.474954667668161 ], [ -50.660849774034062, -23.475044499196571 ], [ -50.661029437090889, -23.475044499196571 ], [ -50.661029437090889, -23.475134330724984 ], [ -50.661119268619302, -23.475134330724984 ], [ -50.661119268619302, -23.475224162253394 ], [ -50.661209100147715, -23.475224162253394 ], [ -50.661209100147715, -23.475313993781807 ], [ -50.661298931676122, -23.475313993781807 ], [ -50.661298931676122, -23.47540382531022 ], [ -50.661388763204535, -23.47540382531022 ], [ -50.661388763204535, -23.47549365683863 ], [ -50.661478594732948, -23.47549365683863 ], [ -50.661478594732948, -23.475673319895456 ], [ -50.661658257789774, -23.475673319895456 ], [ -50.661658257789774, -23.475763151423866 ], [ -50.661748089318181, -23.475763151423866 ], [ -50.661748089318181, -23.476212309065925 ], [ -50.661298931676122, -23.476212309065925 ], [ -50.661298931676122, -23.476302140594338 ], [ -50.661119268619302, -23.476302140594338 ], [ -50.661119268619302, -23.476391972122752 ], [ -50.660939605562476, -23.476391972122752 ], [ -50.660939605562476, -23.476481803651161 ], [ -50.660759942505649, -23.476481803651161 ], [ -50.660759942505649, -23.476571635179575 ], [ -50.660670110977243, -23.476571635179575 ], [ -50.660670110977243, -23.476661466707988 ], [ -50.66058027944883, -23.476661466707988 ], [ -50.66058027944883, -23.476751298236398 ], [ -50.660490447920417, -23.476751298236398 ], [ -50.660490447920417, -23.476841129764811 ], [ -50.660400616392003, -23.476841129764811 ], [ -50.660400616392003, -23.477020792821634 ], [ -50.66031078486359, -23.477020792821634 ], [ -50.66031078486359, -23.477110624350047 ], [ -50.660220953335184, -23.477110624350047 ], [ -50.660220953335184, -23.477380118935283 ], [ -50.660131121806771, -23.477380118935283 ], [ -50.660131121806771, -23.477649613520519 ], [ -50.660041290278357, -23.477649613520519 ], [ -50.660041290278357, -23.478008939634165 ], [ -50.659951458749944, -23.478008939634165 ], [ -50.659951458749944, -23.478458097276224 ], [ -50.659861627221531, -23.478458097276224 ], [ -50.659861627221531, -23.47908691797511 ], [ -50.659771795693118, -23.47908691797511 ], [ -50.659771795693118, -23.479356412560346 ], [ -50.659681964164712, -23.479356412560346 ], [ -50.659681964164712, -23.479536075617169 ], [ -50.659592132636298, -23.479536075617169 ], [ -50.659592132636298, -23.479715738673992 ], [ -50.659502301107885, -23.479715738673992 ], [ -50.659502301107885, -23.479805570202405 ], [ -50.659412469579472, -23.479805570202405 ], [ -50.659412469579472, -23.479895401730818 ], [ -50.659322638051059, -23.479895401730818 ], [ -50.659322638051059, -23.479985233259228 ], [ -50.659232806522652, -23.479985233259228 ], [ -50.659232806522652, -23.480075064787641 ], [ -50.659142974994239, -23.480075064787641 ], [ -50.659142974994239, -23.480164896316051 ], [ -50.659053143465826, -23.480164896316051 ], [ -50.659053143465826, -23.480254727844464 ], [ -50.658963311937413, -23.480254727844464 ], [ -50.658963311937413, -23.480344559372877 ], [ -50.658873480409, -23.480344559372877 ], [ -50.658873480409, -23.480434390901287 ], [ -50.65869381735218, -23.480434390901287 ], [ -50.65869381735218, -23.4805242224297 ], [ -50.658603985823767, -23.4805242224297 ], [ -50.658603985823767, -23.480614053958114 ], [ -50.658514154295354, -23.480614053958114 ], [ -50.658514154295354, -23.480703885486523 ], [ -50.65842432276694, -23.480703885486523 ], [ -50.65842432276694, -23.480793717014937 ], [ -50.658244659710121, -23.480793717014937 ], [ -50.658244659710121, -23.48088354854335 ], [ -50.658154828181708, -23.48088354854335 ], [ -50.658154828181708, -23.480973380071759 ], [ -50.658064996653295, -23.480973380071759 ], [ -50.658064996653295, -23.481063211600173 ], [ -50.657975165124881, -23.481063211600173 ], [ -50.657975165124881, -23.481153043128586 ], [ -50.657795502068055, -23.481153043128586 ], [ -50.657795502068055, -23.481242874656996 ], [ -50.657705670539649, -23.481242874656996 ], [ -50.657705670539649, -23.482051358412704 ], [ -50.656537860670291, -23.482051358412704 ], [ -50.656537860670291, -23.481602200770645 ], [ -50.656627692198704, -23.481602200770645 ], [ -50.656627692198704, -23.481332706185409 ], [ -50.656537860670291, -23.481332706185409 ], [ -50.656537860670291, -23.481153043128586 ], [ -50.656448029141877, -23.481153043128586 ], [ -50.656448029141877, -23.481063211600173 ], [ -50.655998871499818, -23.481063211600173 ], [ -50.655998871499818, -23.480973380071759 ], [ -50.655729376914586, -23.480973380071759 ], [ -50.655729376914586, -23.48088354854335 ], [ -50.655280219272527, -23.48088354854335 ], [ -50.655280219272527, -23.480793717014937 ], [ -50.6551005562157, -23.480793717014937 ], [ -50.6551005562157, -23.476930961293224 ], [ -50.655190387744113, -23.476930961293224 ], [ -50.655190387744113, -23.47540382531022 ], [ -50.655280219272527, -23.47540382531022 ], [ -50.655280219272527, -23.474236015440862 ], [ -50.655549713857759, -23.474236015440862 ], [ -50.655549713857759, -23.474325846969275 ], [ -50.655819208442992, -23.474325846969275 ], [ -50.655819208442992, -23.474415678497689 ], [ -50.655998871499818, -23.474415678497689 ], [ -50.655998871499818, -23.474505510026098 ], [ -50.656268366085058, -23.474505510026098 ], [ -50.656268366085058, -23.474595341554512 ], [ -50.656717523727117, -23.474595341554512 ], [ -50.656717523727117, -23.474685173082925 ], [ -50.65698701831235, -23.474685173082925 ], [ -50.65698701831235, -23.474775004611335 ], [ -50.65725651289759, -23.474775004611335 ], [ -50.65725651289759, -23.474864836139748 ], [ -50.657615839011235, -23.474864836139748 ], [ -50.657615839011235, -23.474954667668161 ], [ -50.657885333596468, -23.474954667668161 ], [ -50.657885333596468, -23.474864836139748 ], [ -50.658064996653295, -23.474864836139748 ], [ -50.658064996653295, -23.474775004611335 ], [ -50.658154828181708, -23.474775004611335 ], [ -50.658154828181708, -23.474685173082925 ], [ -50.658244659710121, -23.474685173082925 ], [ -50.658244659710121, -23.474595341554512 ], [ -50.658334491238527, -23.474595341554512 ], [ -50.658334491238527, -23.474415678497689 ], [ -50.658514154295354, -23.474415678497689 ], [ -50.658514154295354, -23.474325846969275 ], [ -50.658603985823767, -23.474325846969275 ], [ -50.658603985823767, -23.474236015440862 ], [ -50.659322638051059, -23.474236015440862 ] ] ] } }
]
}
