{
"type": "FeatureCollection",
"name": "python_slic_canny_result",
"crs": { "type": "name", "properties": { "name": "urn:ogc:def:crs:OGC:1.3:CRS84" } },
"features": [
{ "type": "Feature", "properties": { "area_ha": 21.88676291029708 }, "geometry": { "type": "Polygon", "coordinates": [ [ [ -50.663454888358011, -23.472619047929445 ], [ -50.663454888358011, -23.477469950463696 ], [ -50.663365056829598, -23.477469950463689 ], [ -50.663365056829598, -23.477380118935287 ], [ -50.662736236130712, -23.477380118935287 ], [ -50.662736236130712, -23.47729028740687 ], [ -50.662376910017066, -23.477290287406866 ], [ -50.662376910017066, -23.476661466707988 ], [ -50.662466741545479, -23.476661466707995 ], [ -50.662466741545479, -23.476481803651158 ], [ -50.662556573073893, -23.476481803651161 ], [ -50.662556573073893, -23.476391972122752 ], [ -50.662646404602306, -23.476391972122748 ], [ -50.662646404602306, -23.476302140594335 ], [ -50.662736236130712, -23.476302140594335 ], [ -50.662736236130712, -23.475852982952276 ], [ -50.662646404602306, -23.475852982952269 ], [ -50.662646404602306, -23.475763151423862 ], [ -50.662107415431834, -23.475763151423862 ], [ -50.662107415431834, -23.475673319895456 ], [ -50.661748089318181, -23.475673319895453 ], [ -50.661748089318181, -23.47558348836704 ], [ -50.661658257789774, -23.47558348836704 ], [ -50.661658257789774, -23.475403825310227 ], [ -50.661568426261361, -23.47540382531022 ], [ -50.661568426261361, -23.475313993781803 ], [ -50.661478594732948, -23.4753139937818 ], [ -50.661478594732948, -23.475224162253394 ], [ -50.661388763204535, -23.475224162253397 ], [ -50.661388763204535, -23.47513433072498 ], [ -50.661298931676122, -23.475134330724984 ], [ -50.661298931676122, -23.475044499196567 ], [ -50.661209100147715, -23.475044499196567 ], [ -50.661209100147715, -23.474954667668165 ], [ -50.661119268619302, -23.474954667668165 ], [ -50.661119268619302, -23.474864836139744 ], [ -50.661029437090889, -23.474864836139741 ], [ -50.661029437090889, -23.474775004611338 ], [ -50.660670110977243, -23.474775004611338 ], [ -50.660670110977243, -23.474685173082921 ], [ -50.66031078486359, -23.474685173082925 ], [ -50.66031078486359, -23.474595341554508 ], [ -50.660131121806771, -23.474595341554505 ], [ -50.660131121806771, -23.474505510026102 ], [ -50.659951458749944, -23.474505510026098 ], [ -50.659951458749944, -23.474415678497682 ], [ -50.659771795693118, -23.474415678497678 ], [ -50.659771795693118, -23.474325846969272 ], [ -50.659681964164719, -23.474325846969275 ], [ -50.659681964164719, -23.474236015440859 ], [ -50.659142974994246, -23.474236015440862 ], [ -50.659142974994246, -23.474146183912453 ], [ -50.658514154295354, -23.474146183912453 ], [ -50.658514154295354, -23.474236015440859 ], [ -50.65842432276694, -23.474236015440862 ], [ -50.65842432276694, -23.474325846969275 ], [ -50.658244659710128, -23.474325846969279 ], [ -50.658244659710128, -23.474415678497689 ], [ -50.658154828181708, -23.474415678497685 ], [ -50.658154828181708, -23.474505510026098 ], [ -50.658064996653302, -23.474505510026095 ], [ -50.658064996653302, -23.474595341554512 ], [ -50.657975165124881, -23.474595341554505 ], [ -50.657975165124881, -23.474685173082918 ], [ -50.657705670539656, -23.474685173082932 ], [ -50.657705670539656, -23.474775004611324 ], [ -50.657436175954409, -23.474775004611338 ], [ -50.657436175954409, -23.474685173082928 ], [ -50.65725651289759, -23.474685173082925 ], [ -50.65725651289759, -23.474595341554505 ], [ -50.657076849840763, -23.474595341554505 ], [ -50.657076849840763, -23.474505510026095 ], [ -50.656897186783937, -23.474505510026095 ], [ -50.656897186783937, -23.474415678497689 ], [ -50.656537860670291, -23.474415678497685 ], [ -50.656537860670291, -23.474325846969272 ], [ -50.656268366085058, -23.474325846969265 ], [ -50.656268366085058, -23.474236015440859 ], [ -50.655819208442992, -23.474236015440859 ], [ -50.655819208442992, -23.474146183912453 ], [ -50.655459882329346, -23.474146183912449 ], [ -50.655459882329346, -23.474056352384036 ], [ -50.65537005080094, -23.474056352384039 ], [ -50.65537005080094, -23.473966520855633 ], [ -50.655280219272527, -23.47396652085563 ], [ -50.655280219272527, -23.4737868577988 ], [ -50.655190387744113, -23.473786857798803 ], [ -50.655190387744113, -23.47369702627039 ], [ -50.6551005562157, -23.473697026270393 ], [ -50.6551005562157, -23.47360719474198 ], [ -50.655010724687294, -23.47360719474197 ], [ -50.655010724687294, -23.473517363213563 ], [ -50.654920893158874, -23.473517363213563 ], [ -50.654920893158874, -23.473427531685157 ], [ -50.654831061630468, -23.473427531685161 ], [ -50.654831061630468, -23.473337700156748 ], [ -50.654741230102054, -23.473337700156744 ], [ -50.654741230102054, -23.473247868628331 ], [ -50.654651398573641, -23.473247868628331 ], [ -50.654651398573641, -23.473158037099918 ], [ -50.654561567045228, -23.473158037099914 ], [ -50.654561567045228, -23.473068205571508 ], [ -50.654381903988401, -23.473068205571508 ], [ -50.654381903988401, -23.472978374043091 ], [ -50.65366325176111, -23.472978374043098 ], [ -50.65366325176111, -23.472888542514678 ], [ -50.653573420232696, -23.472888542514685 ], [ -50.653573420232696, -23.472978374043091 ], [ -50.653483588704283, -23.472978374043098 ], [ -50.653483588704283, -23.472619047929442 ], [ -50.655909039971412, -23.472619047929452 ], [ -50.655909039971412, -23.472708879457862 ], [ -50.655819208442992, -23.472708879457855 ], [ -50.655819208442992, -23.472978374043091 ], [ -50.655909039971412, -23.472978374043095 ], [ -50.655909039971412, -23.473068205571508 ], [ -50.656088703028239, -23.473068205571508 ], [ -50.656088703028239, -23.473158037099921 ], [ -50.656358197613464, -23.473158037099914 ], [ -50.656358197613464, -23.473247868628327 ], [ -50.656717523727117, -23.473247868628331 ], [ -50.656717523727117, -23.473337700156748 ], [ -50.656807355255523, -23.473337700156748 ], [ -50.656807355255523, -23.473247868628324 ], [ -50.656897186783937, -23.473247868628338 ], [ -50.656897186783937, -23.473158037099921 ], [ -50.656987018312357, -23.473158037099918 ], [ -50.656987018312357, -23.472798710986265 ], [ -50.656897186783937, -23.472798710986265 ], [ -50.656897186783937, -23.472708879457866 ], [ -50.656807355255523, -23.472708879457855 ], [ -50.656807355255523, -23.472619047929452 ], [ -50.663454888358011, -23.472619047929445 ] ] ] } },
{ "type": "Feature", "properties": { "area_ha": 1.4688011901149689 }, "geometry": { "type": "Polygon", "coordinates": [ [ [ -50.661029437090889, -23.478278434219398 ], [ -50.661029437090889, -23.478637760333051 ], [ -50.660939605562476, -23.478637760333051 ], [ -50.660939605562476, -23.479086917975106 ], [ -50.660849774034062, -23.479086917975103 ], [ -50.660849774034062, -23.480793717014929 ], [ -50.66058027944883, -23.480793717014926 ], [ -50.66058027944883, -23.480344559372874 ], [ -50.660490447920417, -23.480344559372881 ], [ -50.660490447920417, -23.480164896316051 ], [ -50.660400616392003, -23.480164896316055 ], [ -50.660400616392003, -23.480075064787641 ], [ -50.66031078486359, -23.480075064787645 ], [ -50.66031078486359, -23.479985233259224 ], [ -50.660041290278357, -23.479985233259235 ], [ -50.660041290278357, -23.479895401730822 ], [ -50.659951458749944, -23.479895401730822 ], [ -50.659951458749944, -23.479805570202402 ], [ -50.660041290278357, -23.479805570202405 ], [ -50.660041290278357, -23.479625907145579 ], [ -50.660131121806771, -23.479625907145579 ], [ -50.660131121806771, -23.479446244088752 ], [ -50.660220953335191, -23.479446244088749 ], [ -50.660220953335191, -23.479176749503509 ], [ -50.66031078486359, -23.479176749503512 ], [ -50.66031078486359, -23.47881742338987 ], [ -50.660400616392003, -23.478817423389874 ], [ -50.660400616392003, -23.478637760333051 ], [ -50.66058027944883, -23.47863776033304 ], [ -50.66058027944883, -23.47854792880463 ], [ -50.660670110977243, -23.478547928804634 ], [ -50.660670110977243, -23.478458097276228 ], [ -50.660759942505649, -23.478458097276224 ], [ -50.660759942505649, -23.478368265747815 ], [ -50.660849774034062, -23.478368265747807 ], [ -50.660849774034062, -23.478278434219401 ], [ -50.661029437090889, -23.478278434219398 ] ] ] } },
{ "type": "Feature", "properties": { "area_ha": 0.60205817949371765 }, "geometry": { "type": "Polygon", "coordinates": [ [ [ -50.655909039971412, -23.492292152651665 ], [ -50.655909039971412, -23.492381984180078 ], [ -50.656088703028239, -23.492381984180074 ], [ -50.656088703028239, -23.492741310293727 ], [ -50.655909039971412, -23.492741310293727 ], [ -50.655909039971412, -23.493549794049436 ], [ -50.655819208442992, -23.493549794049429 ], [ -50.655819208442992, -23.493370130992613 ], [ -50.655729376914586, -23.493370130992613 ], [ -50.655729376914586, -23.493280299464196 ], [ -50.655639545386173, -23.493280299464192 ], [ -50.655639545386173, -23.493190467935786 ], [ -50.655549713857766, -23.493190467935783 ], [ -50.655549713857766, -23.49310063640737 ], [ -50.655459882329346, -23.49310063640737 ], [ -50.655459882329346, -23.49301080487896 ], [ -50.655280219272527, -23.493010804878963 ], [ -50.655280219272527, -23.493190467935783 ], [ -50.655190387744113, -23.493190467935786 ], [ -50.655190387744113, -23.493100636407373 ], [ -50.6551005562157, -23.49310063640737 ], [ -50.6551005562157, -23.493010804878963 ], [ -50.655190387744113, -23.493010804878956 ], [ -50.655190387744113, -23.492920973350554 ], [ -50.655280219272527, -23.492920973350543 ], [ -50.655280219272527, -23.49283114182214 ], [ -50.65537005080094, -23.492831141822133 ], [ -50.65537005080094, -23.492651478765318 ], [ -50.655549713857766, -23.492651478765321 ], [ -50.655549713857766, -23.492561647236894 ], [ -50.655639545386173, -23.492561647236897 ], [ -50.655639545386173, -23.492381984180078 ], [ -50.655729376914586, -23.492381984180081 ], [ -50.655729376914586, -23.492292152651668 ], [ -50.655909039971412, -23.492292152651665 ] ] ] } },
{ "type": "Feature", "properties": { "area_ha": 0.66589903286888352 }, "geometry": { "type": "Polygon", "coordinates": [ [ [ -50.662736236130712, -23.49507693003244 ], [ -50.662736236130712, -23.495166761560839 ], [ -50.663095562244365, -23.495166761560842 ], [ -50.663095562244365, -23.495256593089263 ], [ -50.663365056829598, -23.495256593089263 ], [ -50.663365056829598, -23.495166761560846 ], [ -50.663454888358011, -23.495166761560849 ], [ -50.663454888358011, -23.495705750731322 ], [ -50.663365056829598, -23.495705750731318 ], [ -50.663365056829598, -23.495615919202905 ], [ -50.663095562244365, -23.495615919202905 ], [ -50.663095562244365, -23.495705750731325 ], [ -50.663005730715952, -23.495705750731325 ], [ -50.663005730715952, -23.495795582259731 ], [ -50.662646404602306, -23.495795582259728 ], [ -50.662646404602306, -23.495885413788134 ], [ -50.662466741545479, -23.495885413788141 ], [ -50.662466741545479, -23.495705750731315 ], [ -50.662287078488653, -23.495705750731315 ], [ -50.662287078488653, -23.495436256146075 ], [ -50.662376910017066, -23.495436256146085 ], [ -50.662376910017066, -23.495256593089259 ], [ -50.662466741545479, -23.495256593089259 ], [ -50.662466741545479, -23.495166761560849 ], [ -50.662646404602306, -23.495166761560842 ], [ -50.662646404602306, -23.495076930032429 ], [ -50.662736236130712, -23.49507693003244 ] ], [ [ -50.662915899187539, -23.495526087674499 ], [ -50.662736236130712, -23.495526087674499 ], [ -50.662736236130712, -23.495705750731322 ], [ -50.662915899187539, -23.495705750731311 ], [ -50.662915899187539, -23.495526087674499 ] ] ] } },
{ "type": "Feature", "properties": { "area_ha": 224.50564125503908 }, "geometry": { "type": "Polygon", "coordinates": [ [ [ -50.653573420232696, -23.473158037099914 ], [ -50.653573420232696, -23.473247868628331 ], [ -50.654292072459995, -23.473247868628334 ], [ -50.654292072459995, -23.473337700156744 ], [ -50.654471735516822, -23.473337700156744 ], [ -50.654471735516822, -23.473427531685154 ], [ -50.654561567045228, -23.473427531685157 ], [ -50.654561567045228, -23.473517363213556 ], [ -50.654651398573641, -23.47351736321356 ], [ -50.654651398573641, -23.473607194741973 ], [ -50.654741230102054, -23.47360719474198 ], [ -50.654741230102054, -23.473697026270393 ], [ -50.654831061630468, -23.473697026270397 ], [ -50.654831061630468, -23.473786857798807 ], [ -50.654920893158874, -23.4737868577988 ], [ -50.654920893158874, -23.473876689327209 ], [ -50.655010724687294, -23.473876689327216 ], [ -50.655010724687294, -23.473966520855623 ], [ -50.6551005562157, -23.473966520855626 ], [ -50.6551005562157, -23.474146183912449 ], [ -50.655190387744113, -23.474146183912456 ], [ -50.655190387744113, -23.475224162253394 ], [ -50.6551005562157, -23.47522416225339 ], [ -50.6551005562157, -23.475583488367047 ], [ -50.655010724687294, -23.47558348836704 ], [ -50.655010724687294, -23.476661466707984 ], [ -50.6551005562157, -23.476661466707988 ], [ -50.6551005562157, -23.477110624350054 ], [ -50.655010724687294, -23.477110624350043 ], [ -50.655010724687294, -23.478637760333044 ], [ -50.6551005562157, -23.478637760333061 ], [ -50.6551005562157, -23.4789970864467 ], [ -50.655010724687294, -23.478997086446697 ], [ -50.655010724687294, -23.479985233259232 ], [ -50.654920893158874, -23.479985233259228 ], [ -50.654920893158874, -23.480164896316051 ], [ -50.655010724687294, -23.48016489631604 ], [ -50.655010724687294, -23.480973380071749 ], [ -50.6551005562157, -23.480973380071749 ], [ -50.6551005562157, -23.48106321160018 ], [ -50.655190387744113, -23.481063211600169 ], [ -50.655190387744113, -23.481153043128586 ], [ -50.65537005080094, -23.48115304312859 ], [ -50.65537005080094, -23.481242874656989 ], [ -50.655639545386173, -23.481242874656985 ], [ -50.655639545386173, -23.481332706185409 ], [ -50.655998871499818, -23.481332706185409 ], [ -50.655998871499818, -23.481422537713815 ], [ -50.656178534556645, -23.481422537713819 ], [ -50.656178534556645, -23.481692032299055 ], [ -50.656268366085058, -23.481692032299048 ], [ -50.656268366085058, -23.482680179111579 ], [ -50.656178534556645, -23.482680179111586 ], [ -50.656178534556645, -23.483937820509354 ], [ -50.656268366085058, -23.48393782050935 ], [ -50.656268366085058, -23.484027652037764 ], [ -50.656358197613464, -23.484027652037764 ], [ -50.656358197613464, -23.484476809679819 ], [ -50.656268366085058, -23.484476809679819 ], [ -50.656268366085058, -23.484386978151409 ], [ -50.656178534556645, -23.484386978151413 ], [ -50.656178534556645, -23.484476809679823 ], [ -50.656088703028239, -23.484476809679826 ], [ -50.656088703028239, -23.484746304265059 ], [ -50.656178534556645, -23.484746304265059 ], [ -50.656178534556645, -23.485195461907114 ], [ -50.656088703028239, -23.485195461907121 ], [ -50.656088703028239, -23.485554788020771 ], [ -50.656178534556645, -23.485554788020778 ], [ -50.656178534556645, -23.485644619549181 ], [ -50.656268366085058, -23.485644619549184 ], [ -50.656268366085058, -23.485554788020764 ], [ -50.656358197613464, -23.485554788020771 ], [ -50.656358197613464, -23.485105630378712 ], [ -50.656448029141885, -23.485105630378712 ], [ -50.656448029141885, -23.484925967321882 ], [ -50.656627692198711, -23.484925967321889 ], [ -50.656627692198711, -23.484836135793465 ], [ -50.656717523727117, -23.484836135793479 ], [ -50.656717523727117, -23.484656472736649 ], [ -50.656987018312357, -23.484656472736646 ], [ -50.656987018312357, -23.484746304265055 ], [ -50.657615839011235, -23.484746304265066 ], [ -50.657615839011235, -23.484836135793469 ], [ -50.657975165124881, -23.484836135793465 ], [ -50.657975165124881, -23.484746304265066 ], [ -50.659592132636298, -23.484746304265062 ], [ -50.659592132636298, -23.484836135793479 ], [ -50.659951458749944, -23.484836135793476 ], [ -50.659951458749944, -23.484925967321885 ], [ -50.66031078486359, -23.484925967321882 ], [ -50.66031078486359, -23.485015798850295 ], [ -50.660759942505649, -23.485015798850291 ], [ -50.660759942505649, -23.485105630378705 ], [ -50.660939605562476, -23.485105630378712 ], [ -50.660939605562476, -23.485195461907114 ], [ -50.661029437090889, -23.485195461907114 ], [ -50.661029437090889, -23.485285293435535 ], [ -50.661119268619302, -23.485285293435531 ], [ -50.661119268619302, -23.485375124963944 ], [ -50.661209100147715, -23.485375124963937 ], [ -50.661209100147715, -23.485285293435531 ], [ -50.661298931676122, -23.485285293435531 ], [ -50.661298931676122, -23.485195461907118 ], [ -50.661209100147715, -23.485195461907118 ], [ -50.661209100147715, -23.485015798850302 ], [ -50.661119268619302, -23.485015798850291 ], [ -50.661119268619302, -23.484925967321889 ], [ -50.661029437090889, -23.484925967321889 ], [ -50.661029437090889, -23.484836135793472 ], [ -50.660759942505649, -23.484836135793472 ], [ -50.660759942505649, -23.484746304265059 ], [ -50.660400616392003, -23.484746304265066 ], [ -50.660400616392003, -23.484656472736646 ], [ -50.660041290278357, -23.484656472736649 ], [ -50.660041290278357, -23.484566641208239 ], [ -50.659502301107885, -23.484566641208232 ], [ -50.659502301107885, -23.484476809679823 ], [ -50.657885333596468, -23.484476809679826 ], [ -50.657885333596468, -23.484566641208232 ], [ -50.657615839011235, -23.484566641208236 ], [ -50.657615839011235, -23.484476809679826 ], [ -50.656987018312357, -23.484476809679819 ], [ -50.656987018312357, -23.484386978151413 ], [ -50.656627692198711, -23.484386978151409 ], [ -50.656627692198711, -23.484476809679823 ], [ -50.656537860670291, -23.484476809679823 ], [ -50.656537860670291, -23.484566641208236 ], [ -50.656448029141885, -23.484566641208236 ], [ -50.656448029141885, -23.483039505225232 ], [ -50.656537860670291, -23.483039505225243 ], [ -50.656537860670291, -23.481602200770649 ], [ -50.656448029141885, -23.481602200770638 ], [ -50.656448029141885, -23.481422537713815 ], [ -50.656537860670291, -23.481422537713808 ], [ -50.656537860670291, -23.481512369242239 ], [ -50.656627692198711, -23.481512369242232 ], [ -50.656627692198711, -23.481602200770642 ], [ -50.656717523727117, -23.481602200770638 ], [ -50.656717523727117, -23.481512369242228 ], [ -50.656807355255523, -23.481512369242239 ], [ -50.656807355255523, -23.481153043128593 ], [ -50.656717523727117, -23.481153043128579 ], [ -50.656717523727117, -23.48088354854335 ], [ -50.656627692198711, -23.48088354854335 ], [ -50.656627692198711, -23.480793717014937 ], [ -50.656537860670291, -23.480793717014933 ], [ -50.656537860670291, -23.480883548543357 ], [ -50.656448029141885, -23.48088354854335 ], [ -50.656448029141885, -23.481153043128582 ], [ -50.656358197613464, -23.481153043128593 ], [ -50.656358197613464, -23.481242874656999 ], [ -50.656178534556645, -23.481242874656992 ], [ -50.656178534556645, -23.48115304312859 ], [ -50.655998871499818, -23.481153043128579 ], [ -50.655998871499818, -23.481063211600176 ], [ -50.655729376914586, -23.481063211600169 ], [ -50.655729376914586, -23.480973380071752 ], [ -50.655459882329346, -23.480973380071759 ], [ -50.655459882329346, -23.480883548543353 ], [ -50.655280219272527, -23.480883548543346 ], [ -50.655280219272527, -23.48016489631604 ], [ -50.655190387744113, -23.480164896316051 ], [ -50.655190387744113, -23.479985233259228 ], [ -50.655280219272527, -23.479985233259224 ], [ -50.655280219272527, -23.479446244088756 ], [ -50.65537005080094, -23.479446244088756 ], [ -50.65537005080094, -23.479356412560346 ], [ -50.655280219272527, -23.47935641256035 ], [ -50.655280219272527, -23.479176749503509 ], [ -50.65537005080094, -23.479176749503516 ], [ -50.65537005080094, -23.478637760333051 ], [ -50.655280219272527, -23.478637760333051 ], [ -50.655280219272527, -23.477110624350036 ], [ -50.65537005080094, -23.47711062435005 ], [ -50.65537005080094, -23.476571635179578 ], [ -50.655280219272527, -23.476571635179578 ], [ -50.655280219272527, -23.475673319895449 ], [ -50.65537005080094, -23.475673319895453 ], [ -50.65537005080094, -23.475224162253394 ], [ -50.655459882329346, -23.475224162253397 ], [ -50.655459882329346, -23.474505510026095 ], [ -50.655639545386173, -23.474505510026102 ], [ -50.655639545386173, -23.474415678497685 ], [ -50.655729376914586, -23.474415678497685 ], [ -50.655729376914586, -23.474505510026091 ], [ -50.656178534556645, -23.474505510026098 ], [ -50.656178534556645, -23.474595341554515 ], [ -50.656537860670291, -23.474595341554515 ], [ -50.656537860670291, -23.474685173082925 ], [ -50.656897186783937, -23.474685173082918 ], [ -50.656897186783937, -23.474775004611327 ], [ -50.656987018312357, -23.474775004611335 ], [ -50.656987018312357, -23.474864836139741 ], [ -50.657166681369183, -23.474864836139751 ], [ -50.657166681369183, -23.474954667668158 ], [ -50.657346344425996, -23.474954667668165 ], [ -50.657346344425996, -23.475044499196567 ], [ -50.657705670539656, -23.475044499196571 ], [ -50.657705670539656, -23.474954667668161 ], [ -50.657975165124881, -23.474954667668158 ], [ -50.657975165124881, -23.474864836139741 ], [ -50.658154828181708, -23.474864836139741 ], [ -50.658154828181708, -23.474775004611338 ], [ -50.658244659710128, -23.474775004611335 ], [ -50.658244659710128, -23.474685173082921 ], [ -50.658334491238527, -23.474685173082918 ], [ -50.658334491238527, -23.474595341554508 ], [ -50.658514154295354, -23.474595341554515 ], [ -50.658514154295354, -23.474505510026095 ], [ -50.658603985823774, -23.474505510026095 ], [ -50.658603985823774, -23.474415678497682 ], [ -50.659142974994246, -23.474415678497692 ], [ -50.659142974994246, -23.474505510026088 ], [ -50.659592132636298, -23.474505510026102 ], [ -50.659592132636298, -23.474595341554515 ], [ -50.659771795693118, -23.474595341554508 ], [ -50.659771795693118, -23.474685173082921 ], [ -50.659951458749944, -23.474685173082928 ], [ -50.659951458749944, -23.474775004611335 ], [ -50.660131121806771, -23.474775004611327 ], [ -50.660131121806771, -23.474864836139744 ], [ -50.66031078486359, -23.474864836139744 ], [ -50.66031078486359, -23.474954667668158 ], [ -50.660670110977243, -23.474954667668168 ], [ -50.660670110977243, -23.475044499196567 ], [ -50.660939605562476, -23.475044499196567 ], [ -50.660939605562476, -23.475134330724973 ], [ -50.661029437090889, -23.47513433072498 ], [ -50.661029437090889, -23.475224162253394 ], [ -50.661119268619302, -23.475224162253387 ], [ -50.661119268619302, -23.475313993781814 ], [ -50.661209100147715, -23.475313993781803 ], [ -50.661209100147715, -23.475403825310213 ], [ -50.661298931676122, -23.475403825310224 ], [ -50.661298931676122, -23.475493656838633 ], [ -50.661388763204535, -23.47549365683863 ], [ -50.661388763204535, -23.47558348836704 ], [ -50.661478594732948, -23.475583488367043 ], [ -50.661478594732948, -23.475763151423862 ], [ -50.661568426261361, -23.475763151423862 ], [ -50.661568426261361, -23.475852982952279 ], [ -50.661658257789774, -23.475852982952276 ], [ -50.661658257789774, -23.475942814480693 ], [ -50.66201758390342, -23.475942814480693 ], [ -50.66201758390342, -23.476032646009099 ], [ -50.662466741545479, -23.476032646009106 ], [ -50.662466741545479, -23.476212309065929 ], [ -50.662376910017066, -23.476212309065914 ], [ -50.662376910017066, -23.476302140594335 ], [ -50.662287078488653, -23.476302140594342 ], [ -50.662287078488653, -23.476391972122752 ], [ -50.662197246960247, -23.476391972122755 ], [ -50.662197246960247, -23.476571635179571 ], [ -50.662107415431834, -23.476571635179571 ], [ -50.662107415431834, -23.476751298236405 ], [ -50.66201758390342, -23.476751298236398 ], [ -50.66201758390342, -23.476841129764811 ], [ -50.662107415431834, -23.476841129764811 ], [ -50.662107415431834, -23.476930961293217 ], [ -50.66201758390342, -23.476930961293231 ], [ -50.66201758390342, -23.477110624350047 ], [ -50.662107415431834, -23.47711062435005 ], [ -50.662107415431834, -23.47738011893528 ], [ -50.662197246960247, -23.47738011893528 ], [ -50.662197246960247, -23.477469950463693 ], [ -50.662376910017066, -23.477469950463686 ], [ -50.662376910017066, -23.477559781992106 ], [ -50.662736236130712, -23.477559781992113 ], [ -50.662736236130712, -23.477649613520519 ], [ -50.663365056829598, -23.477649613520523 ], [ -50.663365056829598, -23.477559781992106 ], [ -50.663454888358011, -23.47755978199211 ], [ -50.663454888358011, -23.479805570202405 ], [ -50.663365056829598, -23.479805570202409 ], [ -50.663365056829598, -23.479715738673985 ], [ -50.662736236130712, -23.479715738673985 ], [ -50.662736236130712, -23.479805570202405 ], [ -50.662646404602306, -23.479805570202402 ], [ -50.662646404602306, -23.479895401730811 ], [ -50.662556573073893, -23.479895401730818 ], [ -50.662556573073893, -23.479985233259221 ], [ -50.662466741545479, -23.479985233259224 ], [ -50.662466741545479, -23.480164896316051 ], [ -50.662376910017066, -23.480164896316051 ], [ -50.662376910017066, -23.480075064787638 ], [ -50.662287078488653, -23.480075064787641 ], [ -50.662287078488653, -23.479985233259221 ], [ -50.66201758390342, -23.479985233259221 ], [ -50.66201758390342, -23.479895401730811 ], [ -50.661927752375007, -23.479895401730815 ], [ -50.661927752375007, -23.479985233259232 ], [ -50.661748089318181, -23.479985233259224 ], [ -50.661748089318181, -23.480075064787645 ], [ -50.661658257789774, -23.480075064787638 ], [ -50.661658257789774, -23.480164896316051 ], [ -50.661568426261361, -23.480164896316044 ], [ -50.661568426261361, -23.480254727844457 ], [ -50.661478594732948, -23.480254727844461 ], [ -50.661478594732948, -23.480793717014926 ], [ -50.661568426261361, -23.480793717014937 ], [ -50.661568426261361, -23.48088354854335 ], [ -50.661658257789774, -23.480883548543346 ], [ -50.661658257789774, -23.482590347583173 ], [ -50.661568426261361, -23.482590347583166 ], [ -50.661568426261361, -23.483308999810472 ], [ -50.661658257789774, -23.483308999810475 ], [ -50.661658257789774, -23.483398831338874 ], [ -50.661748089318181, -23.483398831338878 ], [ -50.661748089318181, -23.483308999810468 ], [ -50.661837920846594, -23.483308999810475 ], [ -50.661837920846594, -23.482590347583166 ], [ -50.661927752375007, -23.482590347583184 ], [ -50.661927752375007, -23.480883548543353 ], [ -50.661837920846594, -23.480883548543353 ], [ -50.661837920846594, -23.480793717014929 ], [ -50.661748089318181, -23.480793717014926 ], [ -50.661748089318181, -23.480344559372877 ], [ -50.661837920846594, -23.480344559372877 ], [ -50.661837920846594, -23.480254727844461 ], [ -50.661927752375007, -23.480254727844461 ], [ -50.661927752375007, -23.480164896316044 ], [ -50.66201758390342, -23.48016489631604 ], [ -50.66201758390342, -23.480254727844461 ], [ -50.662197246960247, -23.480254727844454 ], [ -50.662197246960247, -23.480344559372881 ], [ -50.662376910017066, -23.480344559372881 ], [ -50.662376910017066, -23.480254727844457 ], [ -50.662466741545479, -23.480254727844461 ], [ -50.662466741545479, -23.480344559372877 ], [ -50.662556573073893, -23.480344559372877 ], [ -50.662556573073893, -23.480254727844457 ], [ -50.662646404602306, -23.480254727844461 ], [ -50.662646404602306, -23.480164896316051 ], [ -50.662736236130712, -23.480164896316044 ], [ -50.662736236130712, -23.480075064787638 ], [ -50.662826067659125, -23.480075064787641 ], [ -50.662826067659125, -23.479985233259221 ], [ -50.663365056829598, -23.479985233259221 ], [ -50.663365056829598, -23.479895401730811 ], [ -50.663454888358011, -23.479895401730815 ], [ -50.663454888358011, -23.495076930032436 ], [ -50.663365056829598, -23.49507693003244 ], [ -50.663365056829598, -23.49498709850403 ], [ -50.663095562244365, -23.494987098504023 ], [ -50.663095562244365, -23.494897266975613 ], [ -50.662826067659125, -23.494897266975613 ], [ -50.662826067659125, -23.494807435447196 ], [ -50.662646404602306, -23.494807435447193 ], [ -50.662646404602306, -23.49489726697561 ], [ -50.662376910017066, -23.494897266975613 ], [ -50.662376910017066, -23.494987098504026 ], [ -50.662287078488653, -23.49498709850403 ], [ -50.662287078488653, -23.49507693003244 ], [ -50.662197246960247, -23.495076930032436 ], [ -50.662197246960247, -23.495166761560839 ], [ -50.662107415431834, -23.495166761560846 ], [ -50.662107415431834, -23.495256593089259 ], [ -50.66201758390342, -23.495256593089263 ], [ -50.66201758390342, -23.495166761560842 ], [ -50.661837920846594, -23.495166761560846 ], [ -50.661837920846594, -23.495076930032436 ], [ -50.661748089318181, -23.495076930032436 ], [ -50.661748089318181, -23.494987098504026 ], [ -50.661478594732948, -23.494987098504019 ], [ -50.661478594732948, -23.49507693003244 ], [ -50.661209100147715, -23.495076930032432 ], [ -50.661209100147715, -23.495166761560846 ], [ -50.661119268619302, -23.495166761560853 ], [ -50.661119268619302, -23.495256593089252 ], [ -50.661029437090889, -23.495256593089255 ], [ -50.661029437090889, -23.495526087674495 ], [ -50.661119268619302, -23.495526087674492 ], [ -50.661119268619302, -23.495615919202905 ], [ -50.661209100147715, -23.495615919202905 ], [ -50.661209100147715, -23.495705750731322 ], [ -50.661029437090889, -23.495705750731307 ], [ -50.661029437090889, -23.495615919202898 ], [ -50.660939605562476, -23.495615919202905 ], [ -50.660939605562476, -23.495705750731322 ], [ -50.660849774034062, -23.495705750731315 ], [ -50.660849774034062, -23.495795582259728 ], [ -50.660759942505649, -23.495795582259724 ], [ -50.660759942505649, -23.495885413788145 ], [ -50.660849774034062, -23.495885413788141 ], [ -50.660849774034062, -23.495975245316554 ], [ -50.661478594732948, -23.495975245316558 ], [ -50.661478594732948, -23.495885413788148 ], [ -50.661568426261361, -23.495885413788145 ], [ -50.661568426261361, -23.495795582259724 ], [ -50.661658257789774, -23.495795582259728 ], [ -50.661658257789774, -23.495615919202905 ], [ -50.661568426261361, -23.495615919202898 ], [ -50.661568426261361, -23.495526087674492 ], [ -50.661478594732948, -23.495526087674492 ], [ -50.661478594732948, -23.495436256146082 ], [ -50.661748089318181, -23.495436256146089 ], [ -50.661748089318181, -23.495526087674492 ], [ -50.66201758390342, -23.495526087674492 ], [ -50.66201758390342, -23.495795582259728 ], [ -50.662107415431834, -23.495795582259728 ], [ -50.662107415431834, -23.49588541378813 ], [ -50.66201758390342, -23.495885413788145 ], [ -50.66201758390342, -23.495975245316551 ], [ -50.661837920846594, -23.495975245316554 ], [ -50.661837920846594, -23.496065076844967 ], [ -50.661658257789774, -23.496065076844957 ], [ -50.661658257789774, -23.496154908373381 ], [ -50.661029437090889, -23.496154908373384 ], [ -50.661029437090889, -23.49624473990179 ], [ -50.660939605562476, -23.49624473990179 ], [ -50.660939605562476, -23.496334571430211 ], [ -50.660849774034062, -23.496334571430204 ], [ -50.660849774034062, -23.496604066015436 ], [ -50.660939605562476, -23.496604066015433 ], [ -50.660939605562476, -23.49669389754385 ], [ -50.661029437090889, -23.49669389754385 ], [ -50.661029437090889, -23.496783729072252 ], [ -50.660939605562476, -23.496783729072252 ], [ -50.660939605562476, -23.496963392129086 ], [ -50.660849774034062, -23.496963392129086 ], [ -50.660849774034062, -23.497861707413207 ], [ -50.660759942505649, -23.497861707413207 ], [ -50.660759942505649, -23.49858035964051 ], [ -50.660849774034062, -23.498580359640499 ], [ -50.660849774034062, -23.498849854225735 ], [ -50.660939605562476, -23.498849854225732 ], [ -50.660939605562476, -23.499209180339381 ], [ -50.660849774034062, -23.499209180339388 ], [ -50.660849774034062, -23.499119348810972 ], [ -50.660759942505649, -23.499119348810975 ], [ -50.660759942505649, -23.499209180339388 ], [ -50.660670110977243, -23.499209180339385 ], [ -50.660670110977243, -23.499299011867798 ], [ -50.660759942505649, -23.499299011867802 ], [ -50.660759942505649, -23.499388843396211 ], [ -50.660849774034062, -23.499388843396218 ], [ -50.660849774034062, -23.499478674924624 ], [ -50.661029437090889, -23.499478674924617 ], [ -50.661029437090889, -23.499568506453034 ], [ -50.660939605562476, -23.499568506453027 ], [ -50.660939605562476, -23.499748169509843 ], [ -50.66058027944883, -23.49974816950985 ], [ -50.66058027944883, -23.49965833798144 ], [ -50.660220953335191, -23.499658337981447 ], [ -50.660220953335191, -23.499568506453034 ], [ -50.660041290278357, -23.499568506453031 ], [ -50.660041290278357, -23.499478674924628 ], [ -50.659681964164719, -23.499478674924621 ], [ -50.659681964164719, -23.499388843396204 ], [ -50.659322638051059, -23.499388843396211 ], [ -50.659322638051059, -23.499299011867805 ], [ -50.659142974994246, -23.499299011867794 ], [ -50.659142974994246, -23.499209180339385 ], [ -50.659053143465826, -23.499209180339392 ], [ -50.659053143465826, -23.499119348810979 ], [ -50.658963311937413, -23.499119348810968 ], [ -50.658963311937413, -23.499029517282565 ], [ -50.65869381735218, -23.499029517282565 ], [ -50.65869381735218, -23.498939685754145 ], [ -50.65842432276694, -23.498939685754149 ], [ -50.65842432276694, -23.498849854225739 ], [ -50.658244659710128, -23.498849854225739 ], [ -50.658244659710128, -23.498760022697322 ], [ -50.657975165124881, -23.498760022697329 ], [ -50.657975165124881, -23.498670191168912 ], [ -50.657795502068055, -23.498670191168912 ], [ -50.657795502068055, -23.49858035964051 ], [ -50.657615839011235, -23.498580359640499 ], [ -50.657615839011235, -23.498490528112079 ], [ -50.657436175954409, -23.498490528112089 ], [ -50.657436175954409, -23.498400696583683 ], [ -50.657076849840763, -23.498400696583673 ], [ -50.657076849840763, -23.498310865055267 ], [ -50.656807355255523, -23.498310865055267 ], [ -50.656807355255523, -23.49840069658368 ], [ -50.656717523727117, -23.498400696583687 ], [ -50.656717523727117, -23.498310865055263 ], [ -50.656627692198711, -23.498310865055267 ], [ -50.656627692198711, -23.49822103352685 ], [ -50.656448029141885, -23.49822103352685 ], [ -50.656448029141885, -23.498131201998437 ], [ -50.656268366085058, -23.498131201998444 ], [ -50.656268366085058, -23.498041370470027 ], [ -50.656178534556645, -23.498041370470027 ], [ -50.656178534556645, -23.497951538941624 ], [ -50.656088703028239, -23.49795153894161 ], [ -50.656088703028239, -23.497502381299558 ], [ -50.655998871499818, -23.497502381299551 ], [ -50.655998871499818, -23.497412549771148 ], [ -50.655909039971412, -23.497412549771145 ], [ -50.655909039971412, -23.497322718242724 ], [ -50.656448029141885, -23.497322718242728 ], [ -50.656448029141885, -23.497232886714333 ], [ -50.656537860670291, -23.497232886714325 ], [ -50.656537860670291, -23.497143055185909 ], [ -50.656627692198711, -23.497143055185912 ], [ -50.656627692198711, -23.496604066015436 ], [ -50.656537860670291, -23.496604066015436 ], [ -50.656537860670291, -23.49651423448703 ], [ -50.656358197613464, -23.496514234487019 ], [ -50.656358197613464, -23.49642440295861 ], [ -50.656178534556645, -23.496424402958617 ], [ -50.656178534556645, -23.4963345714302 ], [ -50.656268366085058, -23.496334571430197 ], [ -50.656268366085058, -23.496244739901787 ], [ -50.656448029141885, -23.496244739901794 ], [ -50.656448029141885, -23.496154908373388 ], [ -50.656537860670291, -23.496154908373381 ], [ -50.656537860670291, -23.495885413788137 ], [ -50.656448029141885, -23.495885413788141 ], [ -50.656448029141885, -23.495705750731322 ], [ -50.656358197613464, -23.495705750731325 ], [ -50.656358197613464, -23.495615919202908 ], [ -50.656178534556645, -23.495615919202915 ], [ -50.656178534556645, -23.495526087674499 ], [ -50.656088703028239, -23.495526087674495 ], [ -50.656088703028239, -23.495436256146089 ], [ -50.656178534556645, -23.495436256146085 ], [ -50.656178534556645, -23.494987098504033 ], [ -50.656268366085058, -23.49498709850403 ], [ -50.656268366085058, -23.495256593089252 ], [ -50.656358197613464, -23.495256593089255 ], [ -50.656358197613464, -23.495346424617672 ], [ -50.656448029141885, -23.495346424617669 ], [ -50.656448029141885, -23.495436256146082 ], [ -50.656537860670291, -23.495436256146085 ], [ -50.656537860670291, -23.495346424617672 ], [ -50.656627692198711, -23.495346424617669 ], [ -50.656627692198711, -23.495256593089263 ], [ -50.656537860670291, -23.495256593089255 ], [ -50.656537860670291, -23.495166761560846 ], [ -50.656627692198711, -23.495166761560846 ], [ -50.656627692198711, -23.49498709850403 ], [ -50.656537860670291, -23.494987098504026 ], [ -50.656537860670291, -23.494897266975613 ], [ -50.656717523727117, -23.494897266975617 ], [ -50.656717523727117, -23.494807435447193 ], [ -50.656897186783937, -23.494807435447196 ], [ -50.656897186783937, -23.494717603918794 ], [ -50.656987018312357, -23.49471760391879 ], [ -50.656987018312357, -23.494627772390373 ], [ -50.656897186783937, -23.49462777239038 ], [ -50.656897186783937, -23.49453794086196 ], [ -50.656627692198711, -23.494537940861964 ], [ -50.656627692198711, -23.494627772390373 ], [ -50.656537860670291, -23.49462777239037 ], [ -50.656537860670291, -23.494717603918794 ], [ -50.656448029141885, -23.494717603918794 ], [ -50.656448029141885, -23.494807435447203 ], [ -50.656358197613464, -23.494807435447193 ], [ -50.656358197613464, -23.494627772390373 ], [ -50.656268366085058, -23.49462777239037 ], [ -50.656268366085058, -23.494448109333558 ], [ -50.656178534556645, -23.494448109333558 ], [ -50.656178534556645, -23.494358277805144 ], [ -50.656088703028239, -23.494358277805134 ], [ -50.656088703028239, -23.494448109333558 ], [ -50.655998871499818, -23.494448109333558 ], [ -50.655998871499818, -23.493909120163085 ], [ -50.655909039971412, -23.493909120163085 ], [ -50.655909039971412, -23.494807435447193 ], [ -50.655998871499818, -23.4948074354472 ], [ -50.655998871499818, -23.49489726697561 ], [ -50.655549713857766, -23.494897266975606 ], [ -50.655549713857766, -23.4948074354472 ], [ -50.655639545386173, -23.494807435447203 ], [ -50.655639545386173, -23.494717603918794 ], [ -50.655549713857766, -23.494717603918787 ], [ -50.655549713857766, -23.494627772390373 ], [ -50.654471735516822, -23.49462777239037 ], [ -50.654471735516822, -23.494717603918794 ], [ -50.654381903988401, -23.494717603918787 ], [ -50.654381903988401, -23.4948074354472 ], [ -50.654202240931582, -23.494807435447203 ], [ -50.654202240931582, -23.494897266975613 ], [ -50.654112409403169, -23.494897266975602 ], [ -50.654112409403169, -23.494987098504026 ], [ -50.654022577874755, -23.49498709850403 ], [ -50.654022577874755, -23.495076930032432 ], [ -50.654112409403169, -23.495076930032432 ], [ -50.654112409403169, -23.495346424617672 ], [ -50.654022577874755, -23.495346424617669 ], [ -50.654022577874755, -23.495436256146085 ], [ -50.653842914817929, -23.495436256146085 ], [ -50.653842914817929, -23.495526087674495 ], [ -50.653932746346349, -23.495526087674495 ], [ -50.653932746346349, -23.495615919202912 ], [ -50.653842914817929, -23.495615919202912 ], [ -50.653842914817929, -23.495705750731322 ], [ -50.653753083289523, -23.495705750731318 ], [ -50.653753083289523, -23.495795582259731 ], [ -50.65366325176111, -23.495795582259731 ], [ -50.65366325176111, -23.495705750731311 ], [ -50.653573420232696, -23.495705750731315 ], [ -50.653573420232696, -23.495795582259735 ], [ -50.653483588704283, -23.495795582259735 ], [ -50.653483588704283, -23.494088783219897 ], [ -50.653573420232696, -23.494088783219905 ], [ -50.653573420232696, -23.493998951691498 ], [ -50.653483588704283, -23.493998951691498 ], [ -50.653483588704283, -23.493639625577849 ], [ -50.653573420232696, -23.493639625577842 ], [ -50.653573420232696, -23.493549794049425 ], [ -50.653753083289523, -23.493549794049422 ], [ -50.653753083289523, -23.493459962521023 ], [ -50.653932746346349, -23.493459962521026 ], [ -50.653932746346349, -23.493370130992613 ], [ -50.654022577874755, -23.493370130992613 ], [ -50.654022577874755, -23.4932802994642 ], [ -50.654202240931582, -23.493280299464189 ], [ -50.654202240931582, -23.49319046793579 ], [ -50.654292072459995, -23.493190467935786 ], [ -50.654292072459995, -23.49310063640737 ], [ -50.654381903988401, -23.493100636407377 ], [ -50.654381903988401, -23.493010804878963 ], [ -50.654920893158874, -23.493010804878963 ], [ -50.654920893158874, -23.49310063640737 ], [ -50.6551005562157, -23.49310063640737 ], [ -50.6551005562157, -23.49319046793579 ], [ -50.655010724687294, -23.493190467935783 ], [ -50.655010724687294, -23.493370130992609 ], [ -50.6551005562157, -23.493370130992613 ], [ -50.6551005562157, -23.493459962521023 ], [ -50.655190387744113, -23.493459962521026 ], [ -50.655190387744113, -23.493549794049425 ], [ -50.655549713857766, -23.493549794049425 ], [ -50.655549713857766, -23.493639625577845 ], [ -50.655639545386173, -23.493639625577849 ], [ -50.655639545386173, -23.493729457106262 ], [ -50.655729376914586, -23.493729457106262 ], [ -50.655729376914586, -23.493819288634668 ], [ -50.655998871499818, -23.493819288634668 ], [ -50.655998871499818, -23.493729457106259 ], [ -50.656088703028239, -23.493729457106262 ], [ -50.656088703028239, -23.493549794049432 ], [ -50.656178534556645, -23.493549794049422 ], [ -50.656178534556645, -23.493459962521019 ], [ -50.656268366085058, -23.493459962521026 ], [ -50.656268366085058, -23.493010804878963 ], [ -50.656358197613464, -23.493010804878967 ], [ -50.656358197613464, -23.492381984180078 ], [ -50.656268366085058, -23.492381984180078 ], [ -50.656268366085058, -23.492112489594845 ], [ -50.656178534556645, -23.492112489594845 ], [ -50.656178534556645, -23.492022658066432 ], [ -50.655639545386173, -23.492022658066432 ], [ -50.655639545386173, -23.492112489594835 ], [ -50.655549713857766, -23.492112489594838 ], [ -50.655549713857766, -23.492202321123255 ], [ -50.655459882329346, -23.492202321123251 ], [ -50.655459882329346, -23.492381984180078 ], [ -50.65537005080094, -23.492381984180081 ], [ -50.65537005080094, -23.492471815708495 ], [ -50.655190387744113, -23.492471815708495 ], [ -50.655190387744113, -23.492561647236897 ], [ -50.6551005562157, -23.492561647236904 ], [ -50.6551005562157, -23.492741310293734 ], [ -50.655010724687294, -23.492741310293724 ], [ -50.655010724687294, -23.492831141822133 ], [ -50.654920893158874, -23.49283114182213 ], [ -50.654920893158874, -23.492741310293734 ], [ -50.654292072459995, -23.492741310293727 ], [ -50.654292072459995, -23.492831141822137 ], [ -50.654202240931582, -23.492831141822133 ], [ -50.654202240931582, -23.492920973350554 ], [ -50.654112409403169, -23.49292097335055 ], [ -50.654112409403169, -23.493010804878963 ], [ -50.653573420232696, -23.493010804878963 ], [ -50.653573420232696, -23.493100636407377 ], [ -50.653483588704283, -23.493100636407373 ], [ -50.653483588704283, -23.492471815708488 ], [ -50.65366325176111, -23.492471815708495 ], [ -50.65366325176111, -23.492561647236901 ], [ -50.654022577874755, -23.492561647236894 ], [ -50.654022577874755, -23.492651478765314 ], [ -50.654202240931582, -23.492651478765314 ], [ -50.654202240931582, -23.49247181570848 ], [ -50.653753083289523, -23.492471815708491 ], [ -50.653753083289523, -23.492381984180081 ], [ -50.653573420232696, -23.492381984180078 ], [ -50.653573420232696, -23.492292152651668 ], [ -50.653483588704283, -23.492292152651668 ], [ -50.653483588704283, -23.473158037099918 ], [ -50.653573420232696, -23.473158037099914 ] ], [ [ -50.655909039971412, -23.475763151423862 ], [ -50.655819208442992, -23.475763151423862 ], [ -50.655819208442992, -23.475852982952283 ], [ -50.655729376914586, -23.475852982952272 ], [ -50.655729376914586, -23.476122477537508 ], [ -50.655819208442992, -23.476122477537508 ], [ -50.655819208442992, -23.476302140594338 ], [ -50.655909039971412, -23.476302140594338 ], [ -50.655909039971412, -23.476391972122748 ], [ -50.655998871499818, -23.476391972122748 ], [ -50.655998871499818, -23.476481803651168 ], [ -50.655909039971412, -23.476481803651165 ], [ -50.655909039971412, -23.476571635179575 ], [ -50.655819208442992, -23.476571635179575 ], [ -50.655819208442992, -23.476751298236394 ], [ -50.655729376914586, -23.476751298236394 ], [ -50.655729376914586, -23.476841129764811 ], [ -50.655819208442992, -23.476841129764807 ], [ -50.655819208442992, -23.476930961293228 ], [ -50.655909039971412, -23.47693096129322 ], [ -50.655909039971412, -23.476841129764804 ], [ -50.655998871499818, -23.476841129764811 ], [ -50.655998871499818, -23.47675129823639 ], [ -50.656088703028239, -23.476751298236398 ], [ -50.656088703028239, -23.476571635179575 ], [ -50.656178534556645, -23.476571635179578 ], [ -50.656178534556645, -23.476481803651158 ], [ -50.656268366085058, -23.476481803651158 ], [ -50.656268366085058, -23.476391972122745 ], [ -50.656178534556645, -23.476391972122741 ], [ -50.656178534556645, -23.476212309065922 ], [ -50.656088703028239, -23.476212309065925 ], [ -50.656088703028239, -23.476122477537515 ], [ -50.655998871499818, -23.476122477537512 ], [ -50.655998871499818, -23.475852982952276 ], [ -50.655909039971412, -23.475852982952269 ], [ -50.655909039971412, -23.475763151423862 ] ], [ [ -50.661478594732948, -23.475942814480689 ], [ -50.661388763204535, -23.475942814480689 ], [ -50.661388763204535, -23.476032646009102 ], [ -50.661298931676122, -23.476032646009106 ], [ -50.661298931676122, -23.476122477537519 ], [ -50.661209100147715, -23.476122477537512 ], [ -50.661209100147715, -23.476212309065914 ], [ -50.661029437090889, -23.476212309065914 ], [ -50.661029437090889, -23.476302140594338 ], [ -50.660939605562476, -23.476302140594342 ], [ -50.660939605562476, -23.476391972122755 ], [ -50.660759942505649, -23.476391972122748 ], [ -50.660759942505649, -23.476481803651154 ], [ -50.660670110977243, -23.476481803651161 ], [ -50.660670110977243, -23.476571635179575 ], [ -50.66058027944883, -23.476571635179564 ], [ -50.66058027944883, -23.477290287406863 ], [ -50.660490447920417, -23.477290287406866 ], [ -50.660490447920417, -23.477380118935287 ], [ -50.66031078486359, -23.47738011893528 ], [ -50.66031078486359, -23.477469950463696 ], [ -50.660220953335191, -23.477469950463693 ], [ -50.660220953335191, -23.477919108105759 ], [ -50.660131121806771, -23.477919108105763 ], [ -50.660131121806771, -23.47872759186146 ], [ -50.660041290278357, -23.47872759186146 ], [ -50.660041290278357, -23.479176749503516 ], [ -50.659951458749944, -23.47917674950352 ], [ -50.659951458749944, -23.479356412560353 ], [ -50.659861627221531, -23.479356412560342 ], [ -50.659861627221531, -23.479625907145575 ], [ -50.659412469579472, -23.479625907145582 ], [ -50.659412469579472, -23.479715738673988 ], [ -50.659322638051059, -23.479715738673992 ], [ -50.659322638051059, -23.479895401730818 ], [ -50.659232806522652, -23.479895401730822 ], [ -50.659232806522652, -23.479985233259228 ], [ -50.659053143465826, -23.479985233259232 ], [ -50.659053143465826, -23.480075064787641 ], [ -50.658963311937413, -23.480075064787638 ], [ -50.658963311937413, -23.480164896316047 ], [ -50.658873480409, -23.480164896316044 ], [ -50.658873480409, -23.480254727844454 ], [ -50.65869381735218, -23.480254727844471 ], [ -50.65869381735218, -23.480344559372881 ], [ -50.658603985823774, -23.480344559372877 ], [ -50.658603985823774, -23.48043439090128 ], [ -50.658514154295354, -23.480434390901287 ], [ -50.658514154295354, -23.48052422242969 ], [ -50.658334491238527, -23.480524222429693 ], [ -50.658334491238527, -23.48061405395811 ], [ -50.657975165124881, -23.48061405395811 ], [ -50.657975165124881, -23.48070388548652 ], [ -50.657795502068055, -23.48070388548652 ], [ -50.657795502068055, -23.48079371701494 ], [ -50.657615839011235, -23.480793717014933 ], [ -50.657615839011235, -23.480883548543357 ], [ -50.657526007482829, -23.480883548543343 ], [ -50.657526007482829, -23.480973380071752 ], [ -50.657436175954409, -23.480973380071752 ], [ -50.657436175954409, -23.481332706185409 ], [ -50.657526007482829, -23.481332706185402 ], [ -50.657526007482829, -23.481512369242232 ], [ -50.657615839011235, -23.481512369242228 ], [ -50.657615839011235, -23.481781863827468 ], [ -50.657526007482829, -23.481781863827461 ], [ -50.657526007482829, -23.481871695355878 ], [ -50.657436175954409, -23.481871695355878 ], [ -50.657436175954409, -23.482051358412697 ], [ -50.657346344425996, -23.482051358412704 ], [ -50.657346344425996, -23.482141189941107 ], [ -50.65725651289759, -23.482141189941117 ], [ -50.65725651289759, -23.482231021469524 ], [ -50.656987018312357, -23.48223102146952 ], [ -50.656987018312357, -23.482141189941121 ], [ -50.656897186783937, -23.482141189941117 ], [ -50.656897186783937, -23.482231021469527 ], [ -50.656807355255523, -23.482231021469524 ], [ -50.656807355255523, -23.482410684526339 ], [ -50.656897186783937, -23.482410684526343 ], [ -50.656897186783937, -23.482500516054756 ], [ -50.657346344425996, -23.48250051605476 ], [ -50.657346344425996, -23.482410684526339 ], [ -50.657436175954409, -23.482410684526357 ], [ -50.657436175954409, -23.482320852997933 ], [ -50.657526007482829, -23.482320852997944 ], [ -50.657526007482829, -23.482231021469527 ], [ -50.657615839011235, -23.482231021469531 ], [ -50.657615839011235, -23.482051358412697 ], [ -50.657705670539656, -23.482051358412708 ], [ -50.657705670539656, -23.482141189941117 ], [ -50.657795502068055, -23.482141189941121 ], [ -50.657795502068055, -23.48232085299793 ], [ -50.657705670539656, -23.48232085299794 ], [ -50.657705670539656, -23.48241068452635 ], [ -50.657615839011235, -23.48241068452635 ], [ -50.657615839011235, -23.482500516054763 ], [ -50.657526007482829, -23.482500516054767 ], [ -50.657526007482829, -23.482590347583173 ], [ -50.657436175954409, -23.482590347583173 ], [ -50.657436175954409, -23.482680179111593 ], [ -50.657346344425996, -23.48268017911159 ], [ -50.657346344425996, -23.482949673696815 ], [ -50.65725651289759, -23.482949673696826 ], [ -50.65725651289759, -23.483039505225232 ], [ -50.657166681369183, -23.483039505225236 ], [ -50.657166681369183, -23.483129336753649 ], [ -50.65725651289759, -23.483129336753652 ], [ -50.65725651289759, -23.483219168282055 ], [ -50.657526007482829, -23.483219168282059 ], [ -50.657526007482829, -23.483308999810475 ], [ -50.657705670539656, -23.483308999810475 ], [ -50.657705670539656, -23.483219168282066 ], [ -50.657795502068055, -23.483219168282051 ], [ -50.657795502068055, -23.483129336753645 ], [ -50.657705670539656, -23.483129336753645 ], [ -50.657705670539656, -23.482949673696815 ], [ -50.657615839011235, -23.482949673696822 ], [ -50.657615839011235, -23.482770010640007 ], [ -50.657705670539656, -23.482770010640003 ], [ -50.657705670539656, -23.482680179111593 ], [ -50.657795502068055, -23.48268017911159 ], [ -50.657795502068055, -23.482590347583177 ], [ -50.657885333596468, -23.48259034758318 ], [ -50.657885333596468, -23.48250051605477 ], [ -50.658064996653302, -23.482500516054767 ], [ -50.658064996653302, -23.482590347583173 ], [ -50.658334491238527, -23.482590347583173 ], [ -50.658334491238527, -23.48268017911159 ], [ -50.65842432276694, -23.482680179111586 ], [ -50.65842432276694, -23.482590347583177 ], [ -50.658963311937413, -23.482590347583173 ], [ -50.658963311937413, -23.482500516054763 ], [ -50.659322638051059, -23.48250051605476 ], [ -50.659322638051059, -23.482410684526354 ], [ -50.659502301107885, -23.482410684526347 ], [ -50.659502301107885, -23.482320852997937 ], [ -50.659771795693118, -23.48232085299793 ], [ -50.659771795693118, -23.482231021469527 ], [ -50.659861627221531, -23.482231021469524 ], [ -50.659861627221531, -23.482141189941114 ], [ -50.659951458749944, -23.482141189941117 ], [ -50.659951458749944, -23.482051358412704 ], [ -50.660041290278357, -23.482051358412701 ], [ -50.660041290278357, -23.481961526884284 ], [ -50.660131121806771, -23.481961526884287 ], [ -50.660131121806771, -23.482231021469531 ], [ -50.660220953335191, -23.48223102146952 ], [ -50.660220953335191, -23.482590347583173 ], [ -50.660131121806771, -23.482590347583177 ], [ -50.660131121806771, -23.48268017911159 ], [ -50.659592132636298, -23.482680179111586 ], [ -50.659592132636298, -23.482590347583177 ], [ -50.659502301107885, -23.482590347583166 ], [ -50.659502301107885, -23.482500516054753 ], [ -50.659412469579472, -23.482500516054753 ], [ -50.659412469579472, -23.482590347583173 ], [ -50.659322638051059, -23.482590347583177 ], [ -50.659322638051059, -23.482770010639999 ], [ -50.659412469579472, -23.482770010639996 ], [ -50.659412469579472, -23.482859842168409 ], [ -50.659502301107885, -23.482859842168409 ], [ -50.659502301107885, -23.482949673696822 ], [ -50.660131121806771, -23.482949673696826 ], [ -50.660131121806771, -23.482859842168406 ], [ -50.66031078486359, -23.482859842168409 ], [ -50.66031078486359, -23.482770010639996 ], [ -50.660400616392003, -23.482770010639999 ], [ -50.660400616392003, -23.48259034758318 ], [ -50.660490447920417, -23.482590347583177 ], [ -50.660490447920417, -23.482141189941114 ], [ -50.660400616392003, -23.482141189941117 ], [ -50.660400616392003, -23.481961526884294 ], [ -50.66031078486359, -23.481961526884284 ], [ -50.66031078486359, -23.481692032299055 ], [ -50.660220953335191, -23.481692032299048 ], [ -50.660220953335191, -23.481602200770638 ], [ -50.660041290278357, -23.481602200770634 ], [ -50.660041290278357, -23.481692032299048 ], [ -50.659951458749944, -23.481692032299048 ], [ -50.659951458749944, -23.481781863827468 ], [ -50.659861627221531, -23.481781863827464 ], [ -50.659861627221531, -23.481871695355881 ], [ -50.659771795693118, -23.481871695355881 ], [ -50.659771795693118, -23.481961526884287 ], [ -50.659681964164719, -23.481961526884298 ], [ -50.659681964164719, -23.482051358412704 ], [ -50.659502301107885, -23.482051358412701 ], [ -50.659502301107885, -23.482141189941117 ], [ -50.659232806522652, -23.48214118994111 ], [ -50.659232806522652, -23.482231021469527 ], [ -50.658963311937413, -23.482231021469527 ], [ -50.658963311937413, -23.482320852997937 ], [ -50.658154828181708, -23.482320852997937 ], [ -50.658154828181708, -23.482231021469524 ], [ -50.658064996653302, -23.482231021469527 ], [ -50.658064996653302, -23.482051358412701 ], [ -50.657975165124881, -23.482051358412708 ], [ -50.657975165124881, -23.481961526884291 ], [ -50.657885333596468, -23.481961526884284 ], [ -50.657885333596468, -23.481422537713822 ], [ -50.657795502068055, -23.481422537713811 ], [ -50.657795502068055, -23.481332706185398 ], [ -50.657705670539656, -23.481332706185398 ], [ -50.657705670539656, -23.481063211600166 ], [ -50.657885333596468, -23.481063211600173 ], [ -50.657885333596468, -23.480973380071756 ], [ -50.658064996653302, -23.480973380071752 ], [ -50.658064996653302, -23.480883548543346 ], [ -50.658514154295354, -23.480883548543346 ], [ -50.658514154295354, -23.480793717014937 ], [ -50.658603985823774, -23.480793717014937 ], [ -50.658603985823774, -23.48070388548652 ], [ -50.65869381735218, -23.480703885486523 ], [ -50.65869381735218, -23.48061405395811 ], [ -50.658783648880586, -23.480614053958114 ], [ -50.658783648880586, -23.480524222429693 ], [ -50.658873480409, -23.480524222429697 ], [ -50.658873480409, -23.480434390901291 ], [ -50.659053143465826, -23.480434390901287 ], [ -50.659053143465826, -23.480344559372874 ], [ -50.659142974994246, -23.48034455937287 ], [ -50.659142974994246, -23.480254727844468 ], [ -50.659232806522652, -23.480254727844457 ], [ -50.659232806522652, -23.480164896316047 ], [ -50.659412469579472, -23.480164896316047 ], [ -50.659412469579472, -23.480075064787641 ], [ -50.659502301107885, -23.480075064787641 ], [ -50.659502301107885, -23.479895401730825 ], [ -50.659681964164719, -23.479895401730822 ], [ -50.659681964164719, -23.479985233259224 ], [ -50.659771795693118, -23.479985233259224 ], [ -50.659771795693118, -23.480075064787638 ], [ -50.659861627221531, -23.480075064787648 ], [ -50.659861627221531, -23.480164896316044 ], [ -50.660041290278357, -23.480164896316047 ], [ -50.660041290278357, -23.480254727844461 ], [ -50.660220953335191, -23.480254727844461 ], [ -50.660220953335191, -23.480344559372877 ], [ -50.66031078486359, -23.480344559372874 ], [ -50.66031078486359, -23.480793717014933 ], [ -50.660400616392003, -23.48079371701494 ], [ -50.660400616392003, -23.480973380071749 ], [ -50.66031078486359, -23.480973380071756 ], [ -50.66031078486359, -23.481063211600173 ], [ -50.660220953335191, -23.481063211600166 ], [ -50.660220953335191, -23.48115304312859 ], [ -50.660131121806771, -23.481153043128586 ], [ -50.660131121806771, -23.481242874656989 ], [ -50.660220953335191, -23.481242874656992 ], [ -50.660220953335191, -23.481332706185402 ], [ -50.66031078486359, -23.481332706185405 ], [ -50.66031078486359, -23.481242874656999 ], [ -50.660400616392003, -23.481242874656996 ], [ -50.660400616392003, -23.481153043128593 ], [ -50.660490447920417, -23.481153043128586 ], [ -50.660490447920417, -23.481063211600169 ], [ -50.660849774034062, -23.481063211600176 ], [ -50.660849774034062, -23.480973380071752 ], [ -50.661029437090889, -23.480973380071756 ], [ -50.661029437090889, -23.48088354854335 ], [ -50.661119268619302, -23.48088354854335 ], [ -50.661119268619302, -23.479086917975106 ], [ -50.661209100147715, -23.479086917975117 ], [ -50.661209100147715, -23.478637760333044 ], [ -50.661298931676122, -23.478637760333044 ], [ -50.661298931676122, -23.478278434219398 ], [ -50.661209100147715, -23.478278434219401 ], [ -50.661209100147715, -23.478098771162568 ], [ -50.661119268619302, -23.478098771162582 ], [ -50.661119268619302, -23.478008939634158 ], [ -50.660849774034062, -23.478008939634158 ], [ -50.660849774034062, -23.478098771162571 ], [ -50.660670110977243, -23.478098771162571 ], [ -50.660670110977243, -23.478188602690985 ], [ -50.66058027944883, -23.478188602690988 ], [ -50.66058027944883, -23.478278434219394 ], [ -50.660490447920417, -23.478278434219398 ], [ -50.660490447920417, -23.478368265747811 ], [ -50.660400616392003, -23.478368265747807 ], [ -50.660400616392003, -23.477919108105755 ], [ -50.660490447920417, -23.477919108105759 ], [ -50.660490447920417, -23.477559781992102 ], [ -50.660670110977243, -23.477559781992102 ], [ -50.660670110977243, -23.477469950463689 ], [ -50.660759942505649, -23.477469950463689 ], [ -50.660759942505649, -23.477290287406859 ], [ -50.660849774034062, -23.477290287406866 ], [ -50.660849774034062, -23.476661466707988 ], [ -50.660939605562476, -23.476661466707984 ], [ -50.660939605562476, -23.476571635179575 ], [ -50.661119268619302, -23.476571635179567 ], [ -50.661119268619302, -23.476481803651158 ], [ -50.661209100147715, -23.476481803651154 ], [ -50.661209100147715, -23.476391972122748 ], [ -50.661298931676122, -23.476391972122748 ], [ -50.661298931676122, -23.476302140594342 ], [ -50.661388763204535, -23.476302140594338 ], [ -50.661388763204535, -23.476212309065922 ], [ -50.661478594732948, -23.476212309065929 ], [ -50.661478594732948, -23.476122477537505 ], [ -50.661568426261361, -23.476122477537512 ], [ -50.661568426261361, -23.476032646009102 ], [ -50.661478594732948, -23.476032646009102 ], [ -50.661478594732948, -23.475942814480689 ] ], [ [ -50.658064996653302, -23.476481803651168 ], [ -50.657795502068055, -23.476481803651158 ], [ -50.657795502068055, -23.476571635179567 ], [ -50.657705670539656, -23.476571635179575 ], [ -50.657705670539656, -23.476661466707981 ], [ -50.657795502068055, -23.476661466707984 ], [ -50.657795502068055, -23.476751298236398 ], [ -50.658064996653302, -23.476751298236401 ], [ -50.658064996653302, -23.476841129764814 ], [ -50.658154828181708, -23.476841129764804 ], [ -50.658154828181708, -23.476930961293231 ], [ -50.658244659710128, -23.476930961293217 ], [ -50.658244659710128, -23.477020792821627 ], [ -50.658334491238527, -23.47702079282163 ], [ -50.658334491238527, -23.477110624350047 ], [ -50.65842432276694, -23.477110624350047 ], [ -50.65842432276694, -23.477380118935283 ], [ -50.658514154295354, -23.47738011893528 ], [ -50.658514154295354, -23.477649613520523 ], [ -50.65842432276694, -23.477649613520512 ], [ -50.65842432276694, -23.477739445048929 ], [ -50.658334491238527, -23.477739445048925 ], [ -50.658334491238527, -23.477919108105752 ], [ -50.658244659710128, -23.477919108105752 ], [ -50.658244659710128, -23.478008939634165 ], [ -50.658154828181708, -23.478008939634154 ], [ -50.658154828181708, -23.478098771162575 ], [ -50.657885333596468, -23.478098771162571 ], [ -50.657885333596468, -23.478188602690985 ], [ -50.657346344425996, -23.478188602690981 ], [ -50.657346344425996, -23.478278434219394 ], [ -50.657076849840763, -23.478278434219394 ], [ -50.657076849840763, -23.478368265747818 ], [ -50.656987018312357, -23.478368265747815 ], [ -50.656987018312357, -23.478547928804637 ], [ -50.656897186783937, -23.478547928804634 ], [ -50.656897186783937, -23.4789970864467 ], [ -50.656807355255523, -23.478997086446697 ], [ -50.656807355255523, -23.479086917975106 ], [ -50.656897186783937, -23.479086917975117 ], [ -50.656897186783937, -23.479176749503516 ], [ -50.656987018312357, -23.479176749503516 ], [ -50.656987018312357, -23.479266581031926 ], [ -50.657076849840763, -23.479266581031919 ], [ -50.657076849840763, -23.479176749503512 ], [ -50.657166681369183, -23.479176749503516 ], [ -50.657166681369183, -23.47863776033304 ], [ -50.65725651289759, -23.478637760333047 ], [ -50.65725651289759, -23.478547928804634 ], [ -50.657346344425996, -23.478547928804634 ], [ -50.657346344425996, -23.478458097276221 ], [ -50.657975165124881, -23.478458097276221 ], [ -50.657975165124881, -23.478368265747811 ], [ -50.658154828181708, -23.478368265747815 ], [ -50.658154828181708, -23.478278434219398 ], [ -50.658334491238527, -23.478278434219394 ], [ -50.658334491238527, -23.478188602690988 ], [ -50.65842432276694, -23.478188602690992 ], [ -50.65842432276694, -23.478098771162575 ], [ -50.658514154295354, -23.478098771162575 ], [ -50.658514154295354, -23.477919108105755 ], [ -50.658603985823774, -23.477919108105752 ], [ -50.658603985823774, -23.477829276577339 ], [ -50.65869381735218, -23.477829276577339 ], [ -50.65869381735218, -23.477739445048933 ], [ -50.659322638051059, -23.477739445048929 ], [ -50.659322638051059, -23.477649613520519 ], [ -50.659412469579472, -23.477649613520523 ], [ -50.659412469579472, -23.47755978199211 ], [ -50.659322638051059, -23.47755978199211 ], [ -50.659322638051059, -23.477469950463693 ], [ -50.658783648880586, -23.477469950463686 ], [ -50.658783648880586, -23.477380118935283 ], [ -50.65869381735218, -23.47738011893528 ], [ -50.65869381735218, -23.477020792821623 ], [ -50.658603985823774, -23.47702079282163 ], [ -50.658603985823774, -23.476930961293213 ], [ -50.658514154295354, -23.476930961293224 ], [ -50.658514154295354, -23.476841129764807 ], [ -50.65842432276694, -23.476841129764814 ], [ -50.65842432276694, -23.476751298236401 ], [ -50.658334491238527, -23.476751298236401 ], [ -50.658334491238527, -23.476661466707991 ], [ -50.658244659710128, -23.476661466707984 ], [ -50.658244659710128, -23.476571635179575 ], [ -50.658064996653302, -23.476571635179567 ], [ -50.658064996653302, -23.476481803651168 ] ], [ [ -50.659592132636298, -23.478458097276221 ], [ -50.659502301107885, -23.478458097276217 ], [ -50.659502301107885, -23.478547928804637 ], [ -50.659412469579472, -23.478547928804641 ], [ -50.659412469579472, -23.479086917975113 ], [ -50.659502301107885, -23.47908691797511 ], [ -50.659502301107885, -23.479176749503516 ], [ -50.659592132636298, -23.47917674950352 ], [ -50.659592132636298, -23.479356412560346 ], [ -50.659681964164719, -23.479356412560346 ], [ -50.659681964164719, -23.479446244088752 ], [ -50.659771795693118, -23.479446244088752 ], [ -50.659771795693118, -23.47935641256035 ], [ -50.659861627221531, -23.479356412560342 ], [ -50.659861627221531, -23.479086917975106 ], [ -50.659771795693118, -23.479086917975106 ], [ -50.659771795693118, -23.478997086446697 ], [ -50.659681964164719, -23.478997086446697 ], [ -50.659681964164719, -23.478547928804634 ], [ -50.659592132636298, -23.478547928804634 ], [ -50.659592132636298, -23.478458097276221 ] ], [ [ -50.658244659710128, -23.482949673696815 ], [ -50.658064996653302, -23.482949673696815 ], [ -50.658064996653302, -23.483039505225229 ], [ -50.658244659710128, -23.483039505225225 ], [ -50.658244659710128, -23.482949673696815 ] ], [ [ -50.656537860670291, -23.487171755532188 ], [ -50.656448029141885, -23.487171755532181 ], [ -50.656448029141885, -23.487261587060601 ], [ -50.656358197613464, -23.487261587060601 ], [ -50.656358197613464, -23.487351418589007 ], [ -50.656268366085058, -23.487351418588997 ], [ -50.656268366085058, -23.48762091317424 ], [ -50.656358197613464, -23.48762091317424 ], [ -50.656358197613464, -23.487710744702653 ], [ -50.656448029141885, -23.487710744702653 ], [ -50.656448029141885, -23.48762091317424 ], [ -50.656537860670291, -23.48762091317424 ], [ -50.656537860670291, -23.487441250117417 ], [ -50.656627692198711, -23.487441250117421 ], [ -50.656627692198711, -23.487261587060591 ], [ -50.656537860670291, -23.487261587060594 ], [ -50.656537860670291, -23.487171755532188 ] ], [ [ -50.656268366085058, -23.488788723043605 ], [ -50.656178534556645, -23.488788723043601 ], [ -50.656178534556645, -23.489237880685664 ], [ -50.656268366085058, -23.489237880685657 ], [ -50.656268366085058, -23.488788723043605 ] ], [ [ -50.656268366085058, -23.48959720679931 ], [ -50.656178534556645, -23.48959720679931 ], [ -50.656178534556645, -23.490495522083421 ], [ -50.656268366085058, -23.490495522083425 ], [ -50.656268366085058, -23.48959720679931 ] ], [ [ -50.661119268619302, -23.493998951691498 ], [ -50.661029437090889, -23.493998951691495 ], [ -50.661029437090889, -23.49444810933355 ], [ -50.661119268619302, -23.494448109333558 ], [ -50.661119268619302, -23.493998951691498 ] ], [ [ -50.661478594732948, -23.494897266975606 ], [ -50.661388763204535, -23.49489726697561 ], [ -50.661388763204535, -23.49498709850403 ], [ -50.661478594732948, -23.494987098504019 ], [ -50.661478594732948, -23.494897266975606 ] ], [ [ -50.658064996653302, -23.49489726697561 ], [ -50.657436175954409, -23.494897266975613 ], [ -50.657436175954409, -23.49498709850403 ], [ -50.65725651289759, -23.49498709850403 ], [ -50.65725651289759, -23.495076930032429 ], [ -50.657166681369183, -23.495076930032429 ], [ -50.657166681369183, -23.495166761560839 ], [ -50.656987018312357, -23.495166761560846 ], [ -50.656987018312357, -23.495346424617662 ], [ -50.656807355255523, -23.495346424617669 ], [ -50.656807355255523, -23.495436256146075 ], [ -50.656717523727117, -23.495436256146089 ], [ -50.656717523727117, -23.495526087674492 ], [ -50.656807355255523, -23.495526087674499 ], [ -50.656807355255523, -23.495615919202908 ], [ -50.656987018312357, -23.495615919202908 ], [ -50.656987018312357, -23.495705750731318 ], [ -50.657166681369183, -23.495705750731318 ], [ -50.657166681369183, -23.495795582259731 ], [ -50.657436175954409, -23.495795582259731 ], [ -50.657436175954409, -23.495885413788148 ], [ -50.658514154295354, -23.495885413788141 ], [ -50.658514154295354, -23.495795582259735 ], [ -50.658603985823774, -23.495795582259728 ], [ -50.658603985823774, -23.495166761560853 ], [ -50.658514154295354, -23.495166761560846 ], [ -50.658514154295354, -23.495076930032436 ], [ -50.65842432276694, -23.495076930032436 ], [ -50.65842432276694, -23.494987098504026 ], [ -50.658064996653302, -23.49498709850403 ], [ -50.658064996653302, -23.49489726697561 ] ], [ [ -50.656987018312357, -23.49498709850403 ], [ -50.656807355255523, -23.494987098504026 ], [ -50.656807355255523, -23.495166761560839 ], [ -50.656987018312357, -23.495166761560846 ], [ -50.656987018312357, -23.49498709850403 ] ] ] } },
{ "type": "Feature", "properties": { "area_ha": 9.5778046096078686 }, "geometry": { "type": "Polygon", "coordinates": [ [ [ -50.663454888358011, -23.495885413788137 ], [ -50.663454888358011, -23.500646484793975 ], [ -50.663365056829598, -23.500646484793986 ], [ -50.663365056829598, -23.500556653265569 ], [ -50.663095562244365, -23.500556653265569 ], [ -50.663095562244365, -23.500466821737149 ], [ -50.662826067659125, -23.500466821737152 ], [ -50.662826067659125, -23.500376990208736 ], [ -50.662646404602306, -23.500376990208743 ], [ -50.662646404602306, -23.500287158680322 ], [ -50.662466741545479, -23.500287158680326 ], [ -50.662466741545479, -23.500197327151916 ], [ -50.662197246960247, -23.50019732715192 ], [ -50.662197246960247, -23.500107495623514 ], [ -50.661837920846594, -23.500107495623507 ], [ -50.661837920846594, -23.500017664095093 ], [ -50.661568426261361, -23.50001766409509 ], [ -50.661568426261361, -23.499927832566676 ], [ -50.661298931676122, -23.49992783256668 ], [ -50.661298931676122, -23.499838001038267 ], [ -50.661209100147715, -23.499838001038263 ], [ -50.661209100147715, -23.499658337981451 ], [ -50.661298931676122, -23.499658337981444 ], [ -50.661298931676122, -23.499119348810975 ], [ -50.661209100147715, -23.499119348810968 ], [ -50.661209100147715, -23.498760022697322 ], [ -50.661119268619302, -23.498760022697326 ], [ -50.661119268619302, -23.498400696583683 ], [ -50.661029437090889, -23.498400696583673 ], [ -50.661029437090889, -23.497861707413204 ], [ -50.661119268619302, -23.497861707413204 ], [ -50.661119268619302, -23.497322718242732 ], [ -50.661209100147715, -23.497322718242724 ], [ -50.661209100147715, -23.496873560600672 ], [ -50.661298931676122, -23.496873560600676 ], [ -50.661298931676122, -23.49669389754385 ], [ -50.661388763204535, -23.49669389754385 ], [ -50.661388763204535, -23.496604066015436 ], [ -50.661478594732948, -23.496604066015436 ], [ -50.661478594732948, -23.496514234487027 ], [ -50.661658257789774, -23.496514234487019 ], [ -50.661658257789774, -23.49642440295861 ], [ -50.661837920846594, -23.496424402958606 ], [ -50.661837920846594, -23.496334571430204 ], [ -50.661927752375007, -23.496334571430197 ], [ -50.661927752375007, -23.49624473990179 ], [ -50.66201758390342, -23.496244739901787 ], [ -50.66201758390342, -23.496154908373384 ], [ -50.662646404602306, -23.496154908373381 ], [ -50.662646404602306, -23.496065076844957 ], [ -50.663095562244365, -23.49606507684496 ], [ -50.663095562244365, -23.495975245316551 ], [ -50.663185393772778, -23.495975245316551 ], [ -50.663185393772778, -23.495885413788141 ], [ -50.663454888358011, -23.495885413788137 ] ], [ [ -50.662826067659125, -23.496783729072259 ], [ -50.662736236130712, -23.496783729072259 ], [ -50.662736236130712, -23.49687356060068 ], [ -50.662646404602306, -23.496873560600672 ], [ -50.662646404602306, -23.496963392129082 ], [ -50.662556573073893, -23.496963392129082 ], [ -50.662556573073893, -23.497053223657495 ], [ -50.662466741545479, -23.497053223657499 ], [ -50.662466741545479, -23.497322718242728 ], [ -50.662376910017066, -23.497322718242728 ], [ -50.662376910017066, -23.497412549771145 ], [ -50.662287078488653, -23.497412549771141 ], [ -50.662287078488653, -23.497592212827961 ], [ -50.662197246960247, -23.497592212827968 ], [ -50.662197246960247, -23.4978617074132 ], [ -50.662287078488653, -23.497861707413204 ], [ -50.662287078488653, -23.498041370470034 ], [ -50.662376910017066, -23.498041370470034 ], [ -50.662376910017066, -23.498131201998437 ], [ -50.662466741545479, -23.498131201998444 ], [ -50.662466741545479, -23.498670191168916 ], [ -50.662287078488653, -23.49867019116892 ], [ -50.662287078488653, -23.498760022697319 ], [ -50.662197246960247, -23.498760022697322 ], [ -50.662197246960247, -23.498849854225739 ], [ -50.662107415431834, -23.498849854225732 ], [ -50.662107415431834, -23.498939685754145 ], [ -50.662197246960247, -23.498939685754145 ], [ -50.662197246960247, -23.499029517282558 ], [ -50.662287078488653, -23.499029517282558 ], [ -50.662287078488653, -23.498939685754145 ], [ -50.662556573073893, -23.498939685754149 ], [ -50.662556573073893, -23.498849854225732 ], [ -50.662646404602306, -23.498849854225739 ], [ -50.662646404602306, -23.498670191168909 ], [ -50.662736236130712, -23.49867019116892 ], [ -50.662736236130712, -23.498041370470034 ], [ -50.662646404602306, -23.498041370470027 ], [ -50.662646404602306, -23.497951538941617 ], [ -50.662556573073893, -23.497951538941621 ], [ -50.662556573073893, -23.497861707413204 ], [ -50.662466741545479, -23.4978617074132 ], [ -50.662466741545479, -23.497592212827971 ], [ -50.662556573073893, -23.497592212827968 ], [ -50.662556573073893, -23.497502381299547 ], [ -50.662646404602306, -23.497502381299551 ], [ -50.662646404602306, -23.497322718242721 ], [ -50.662736236130712, -23.497322718242728 ], [ -50.662736236130712, -23.497143055185909 ], [ -50.662826067659125, -23.497143055185912 ], [ -50.662826067659125, -23.496963392129086 ], [ -50.662915899187539, -23.496963392129089 ], [ -50.662915899187539, -23.49687356060068 ], [ -50.662826067659125, -23.496873560600676 ], [ -50.662826067659125, -23.496783729072259 ] ] ] } },
{ "type": "Feature", "properties": { "area_ha": 24.874867286390593 }, "geometry": { "type": "Polygon", "coordinates": [ [ [ -50.655459882329346, -23.494987098504019 ], [ -50.655459882329346, -23.495076930032436 ], [ -50.655729376914586, -23.495076930032436 ], [ -50.655729376914586, -23.495705750731325 ], [ -50.655639545386173, -23.495705750731318 ], [ -50.655639545386173, -23.495795582259735 ], [ -50.655549713857766, -23.495795582259724 ], [ -50.655549713857766, -23.49606507684496 ], [ -50.655459882329346, -23.49606507684496 ], [ -50.655459882329346, -23.496963392129093 ], [ -50.655549713857766, -23.496963392129086 ], [ -50.655549713857766, -23.497143055185912 ], [ -50.655639545386173, -23.497143055185919 ], [ -50.655639545386173, -23.497232886714318 ], [ -50.655729376914586, -23.497232886714325 ], [ -50.655729376914586, -23.497412549771145 ], [ -50.655819208442992, -23.497412549771148 ], [ -50.655819208442992, -23.497502381299562 ], [ -50.655729376914586, -23.497502381299558 ], [ -50.655729376914586, -23.497682044356377 ], [ -50.655639545386173, -23.497682044356381 ], [ -50.655639545386173, -23.497771875884784 ], [ -50.655729376914586, -23.497771875884784 ], [ -50.655729376914586, -23.497951538941621 ], [ -50.655639545386173, -23.497951538941624 ], [ -50.655639545386173, -23.498041370470034 ], [ -50.655549713857766, -23.498041370470023 ], [ -50.655549713857766, -23.498131201998437 ], [ -50.655639545386173, -23.498131201998447 ], [ -50.655639545386173, -23.49822103352686 ], [ -50.655819208442992, -23.498221033526857 ], [ -50.655819208442992, -23.498041370470034 ], [ -50.655909039971412, -23.49804137047003 ], [ -50.655909039971412, -23.498131201998447 ], [ -50.655998871499818, -23.498131201998437 ], [ -50.655998871499818, -23.498221033526857 ], [ -50.656088703028239, -23.49822103352685 ], [ -50.656088703028239, -23.498310865055267 ], [ -50.656268366085058, -23.498310865055259 ], [ -50.656268366085058, -23.498400696583683 ], [ -50.656448029141885, -23.498400696583683 ], [ -50.656448029141885, -23.498490528112086 ], [ -50.656627692198711, -23.498490528112086 ], [ -50.656627692198711, -23.498849854225739 ], [ -50.656717523727117, -23.498849854225735 ], [ -50.656717523727117, -23.498939685754152 ], [ -50.656987018312357, -23.498939685754152 ], [ -50.656987018312357, -23.499029517282565 ], [ -50.657166681369183, -23.499029517282558 ], [ -50.657166681369183, -23.499119348810972 ], [ -50.657436175954409, -23.499119348810972 ], [ -50.657436175954409, -23.499209180339388 ], [ -50.657705670539656, -23.499209180339388 ], [ -50.657705670539656, -23.499299011867798 ], [ -50.657885333596468, -23.499299011867794 ], [ -50.657885333596468, -23.499388843396211 ], [ -50.658154828181708, -23.499388843396215 ], [ -50.658154828181708, -23.499478674924621 ], [ -50.658334491238527, -23.499478674924617 ], [ -50.658334491238527, -23.499568506453027 ], [ -50.658603985823774, -23.499568506453027 ], [ -50.658603985823774, -23.49965833798144 ], [ -50.658783648880586, -23.499658337981447 ], [ -50.658783648880586, -23.49974816950985 ], [ -50.658873480409, -23.499748169509857 ], [ -50.658873480409, -23.49983800103827 ], [ -50.659053143465826, -23.49983800103827 ], [ -50.659053143465826, -23.499927832566687 ], [ -50.659322638051059, -23.49992783256668 ], [ -50.659322638051059, -23.500017664095097 ], [ -50.659681964164719, -23.500017664095086 ], [ -50.659681964164719, -23.500107495623507 ], [ -50.659951458749944, -23.500107495623507 ], [ -50.659951458749944, -23.50019732715192 ], [ -50.660131121806771, -23.50019732715192 ], [ -50.660131121806771, -23.500287158680337 ], [ -50.66058027944883, -23.500287158680329 ], [ -50.66058027944883, -23.500376990208743 ], [ -50.660849774034062, -23.500376990208739 ], [ -50.660849774034062, -23.500466821737152 ], [ -50.661029437090889, -23.500466821737156 ], [ -50.661029437090889, -23.500556653265573 ], [ -50.661209100147715, -23.500556653265573 ], [ -50.661209100147715, -23.500646484793982 ], [ -50.661388763204535, -23.500646484793975 ], [ -50.661388763204535, -23.500736316322392 ], [ -50.661568426261361, -23.500736316322389 ], [ -50.661568426261361, -23.500826147850795 ], [ -50.661927752375007, -23.500826147850795 ], [ -50.661927752375007, -23.500915979379208 ], [ -50.662287078488653, -23.500915979379212 ], [ -50.662287078488653, -23.501005810907625 ], [ -50.662556573073893, -23.501005810907628 ], [ -50.662556573073893, -23.501095642436034 ], [ -50.662826067659125, -23.501095642436038 ], [ -50.662826067659125, -23.501185473964448 ], [ -50.663095562244365, -23.501185473964448 ], [ -50.663095562244365, -23.501275305492857 ], [ -50.663365056829598, -23.501275305492861 ], [ -50.663365056829598, -23.501185473964441 ], [ -50.663454888358011, -23.501185473964451 ], [ -50.663454888358011, -23.501544800078108 ], [ -50.657166681369183, -23.50154480007809 ], [ -50.657166681369183, -23.50145496854968 ], [ -50.65725651289759, -23.501454968549684 ], [ -50.65725651289759, -23.501005810907625 ], [ -50.657166681369183, -23.501005810907632 ], [ -50.657166681369183, -23.500736316322392 ], [ -50.657076849840763, -23.500736316322389 ], [ -50.657076849840763, -23.500556653265562 ], [ -50.656987018312357, -23.500556653265566 ], [ -50.656987018312357, -23.500017664095093 ], [ -50.656897186783937, -23.500017664095086 ], [ -50.656897186783937, -23.499838001038267 ], [ -50.656807355255523, -23.49983800103827 ], [ -50.656807355255523, -23.499748169509843 ], [ -50.656627692198711, -23.499748169509857 ], [ -50.656627692198711, -23.499658337981451 ], [ -50.656537860670291, -23.499658337981447 ], [ -50.656537860670291, -23.499568506453034 ], [ -50.656627692198711, -23.499568506453031 ], [ -50.656627692198711, -23.499478674924628 ], [ -50.656537860670291, -23.499478674924621 ], [ -50.656537860670291, -23.499388843396211 ], [ -50.656448029141885, -23.499388843396208 ], [ -50.656448029141885, -23.499299011867798 ], [ -50.656358197613464, -23.499299011867794 ], [ -50.656358197613464, -23.499209180339388 ], [ -50.656268366085058, -23.499209180339385 ], [ -50.656268366085058, -23.499119348810975 ], [ -50.656178534556645, -23.499119348810975 ], [ -50.656178534556645, -23.498939685754145 ], [ -50.656088703028239, -23.498939685754156 ], [ -50.656088703028239, -23.498849854225739 ], [ -50.655998871499818, -23.498849854225735 ], [ -50.655998871499818, -23.498760022697322 ], [ -50.655549713857766, -23.498760022697319 ], [ -50.655549713857766, -23.498849854225735 ], [ -50.655459882329346, -23.498849854225742 ], [ -50.655459882329346, -23.499119348810982 ], [ -50.65537005080094, -23.499119348810979 ], [ -50.65537005080094, -23.499658337981447 ], [ -50.655459882329346, -23.499658337981451 ], [ -50.655459882329346, -23.499748169509861 ], [ -50.655549713857766, -23.499748169509854 ], [ -50.655549713857766, -23.49983800103827 ], [ -50.655639545386173, -23.499838001038267 ], [ -50.655639545386173, -23.49992783256668 ], [ -50.655729376914586, -23.49992783256668 ], [ -50.655729376914586, -23.49983800103827 ], [ -50.655819208442992, -23.49983800103827 ], [ -50.655819208442992, -23.500017664095086 ], [ -50.655729376914586, -23.500017664095086 ], [ -50.655729376914586, -23.500197327151923 ], [ -50.655819208442992, -23.500197327151927 ], [ -50.655819208442992, -23.500287158680333 ], [ -50.655909039971412, -23.500287158680333 ], [ -50.655909039971412, -23.500376990208746 ], [ -50.656268366085058, -23.500376990208743 ], [ -50.656268366085058, -23.500466821737152 ], [ -50.656717523727117, -23.500466821737145 ], [ -50.656717523727117, -23.500646484793975 ], [ -50.656807355255523, -23.500646484793972 ], [ -50.656807355255523, -23.500826147850795 ], [ -50.656897186783937, -23.500826147850802 ], [ -50.656897186783937, -23.501005810907625 ], [ -50.656987018312357, -23.501005810907625 ], [ -50.656987018312357, -23.50145496854968 ], [ -50.657076849840763, -23.501454968549684 ], [ -50.657076849840763, -23.501544800078094 ], [ -50.653483588704283, -23.501544800078097 ], [ -50.653483588704283, -23.499388843396211 ], [ -50.653573420232696, -23.499388843396211 ], [ -50.653573420232696, -23.498670191168916 ], [ -50.65366325176111, -23.498670191168909 ], [ -50.65366325176111, -23.498490528112086 ], [ -50.653573420232696, -23.498490528112082 ], [ -50.653573420232696, -23.498400696583673 ], [ -50.653483588704283, -23.49840069658368 ], [ -50.653483588704283, -23.497861707413207 ], [ -50.653573420232696, -23.497861707413207 ], [ -50.653573420232696, -23.497771875884787 ], [ -50.653483588704283, -23.497771875884794 ], [ -50.653483588704283, -23.497682044356392 ], [ -50.653573420232696, -23.497682044356381 ], [ -50.653573420232696, -23.497592212827961 ], [ -50.653842914817929, -23.497592212827975 ], [ -50.653842914817929, -23.497412549771152 ], [ -50.653573420232696, -23.497412549771141 ], [ -50.653573420232696, -23.497322718242742 ], [ -50.653483588704283, -23.497322718242728 ], [ -50.653483588704283, -23.49642440295861 ], [ -50.653573420232696, -23.49642440295861 ], [ -50.653573420232696, -23.496514234487027 ], [ -50.653842914817929, -23.496514234487027 ], [ -50.653842914817929, -23.49642440295861 ], [ -50.654112409403169, -23.496424402958613 ], [ -50.654112409403169, -23.496334571430193 ], [ -50.654202240931582, -23.4963345714302 ], [ -50.654202240931582, -23.49624473990179 ], [ -50.654381903988401, -23.496244739901798 ], [ -50.654381903988401, -23.496334571430207 ], [ -50.654471735516822, -23.496334571430204 ], [ -50.654471735516822, -23.49642440295861 ], [ -50.654651398573641, -23.49642440295862 ], [ -50.654651398573641, -23.496334571430207 ], [ -50.654831061630468, -23.496334571430204 ], [ -50.654831061630468, -23.496244739901794 ], [ -50.654920893158874, -23.496244739901787 ], [ -50.654920893158874, -23.496154908373388 ], [ -50.655190387744113, -23.496154908373384 ], [ -50.655190387744113, -23.49606507684496 ], [ -50.655280219272527, -23.496065076844964 ], [ -50.655280219272527, -23.495795582259731 ], [ -50.65537005080094, -23.495795582259728 ], [ -50.65537005080094, -23.495705750731318 ], [ -50.655280219272527, -23.495705750731315 ], [ -50.655280219272527, -23.495526087674499 ], [ -50.655190387744113, -23.495526087674492 ], [ -50.655190387744113, -23.495436256146085 ], [ -50.6551005562157, -23.495436256146085 ], [ -50.6551005562157, -23.495346424617676 ], [ -50.654920893158874, -23.495346424617672 ], [ -50.654920893158874, -23.495256593089255 ], [ -50.654292072459995, -23.495256593089252 ], [ -50.654292072459995, -23.495076930032436 ], [ -50.654381903988401, -23.495076930032436 ], [ -50.654381903988401, -23.494987098504033 ], [ -50.654651398573641, -23.49498709850403 ], [ -50.654651398573641, -23.495076930032432 ], [ -50.654831061630468, -23.49507693003244 ], [ -50.654831061630468, -23.494987098504026 ], [ -50.655459882329346, -23.494987098504019 ] ], [ [ -50.655190387744113, -23.4978617074132 ], [ -50.654920893158874, -23.4978617074132 ], [ -50.654920893158874, -23.497951538941621 ], [ -50.655010724687294, -23.497951538941614 ], [ -50.655010724687294, -23.498041370470023 ], [ -50.655280219272527, -23.498041370470027 ], [ -50.655280219272527, -23.497951538941624 ], [ -50.655190387744113, -23.497951538941614 ], [ -50.655190387744113, -23.4978617074132 ] ], [ [ -50.654561567045228, -23.498041370470023 ], [ -50.653932746346349, -23.498041370470034 ], [ -50.653932746346349, -23.498131201998437 ], [ -50.653842914817929, -23.49813120199844 ], [ -50.653842914817929, -23.498400696583687 ], [ -50.653932746346349, -23.498400696583683 ], [ -50.653932746346349, -23.498490528112082 ], [ -50.654022577874755, -23.498490528112082 ], [ -50.654022577874755, -23.498400696583676 ], [ -50.654112409403169, -23.49840069658368 ], [ -50.654112409403169, -23.498310865055259 ], [ -50.654561567045228, -23.49831086505527 ], [ -50.654561567045228, -23.498400696583687 ], [ -50.654920893158874, -23.498400696583673 ], [ -50.654920893158874, -23.498490528112089 ], [ -50.655010724687294, -23.498490528112082 ], [ -50.655010724687294, -23.498400696583683 ], [ -50.6551005562157, -23.498400696583676 ], [ -50.6551005562157, -23.498310865055267 ], [ -50.655010724687294, -23.498310865055263 ], [ -50.655010724687294, -23.49822103352685 ], [ -50.654920893158874, -23.498221033526853 ], [ -50.654920893158874, -23.49813120199844 ], [ -50.654561567045228, -23.49813120199844 ], [ -50.654561567045228, -23.498041370470023 ] ] ] } }
]
}
