{
"type": "FeatureCollection",
"name": "santo_antonio_truth_utm",
"crs": { "type": "name", "properties": { "name": "urn:ogc:def:crs:EPSG::32722" } },
"features": [
{ "type": "Feature", "properties": { }, "geometry": { "type": "MultiPolygon", "coordinates": [ [ [ [ 535043.28148571960628, 7401517.763147820718586, 0.0 ], [ 535041.515090460889041, 7401511.202251152135432, 0.0 ], [ 535044.543196617625654, 7401507.290947368368506, 0.0 ], [ 535051.311400000937283, 7401507.331400000490248, 0.0 ], [ 535054.384541618637741, 7401510.949908973649144, 0.0 ], [ 535059.557556300424039, 7401514.608870576135814, 0.0 ], [ 535067.001650596037507, 7401516.375265832059085, 0.0 ], [ 535073.310205085203052, 7401514.735041663981974, 0.0 ], [ 535081.172500000335276, 7401511.34489999897778, 0.0 ], [ 535085.838000002317131, 7401515.418600000441074, 0.0 ], [ 535094.604299999773502, 7401516.4869, 0.0 ], [ 535103.373200000263751, 7401518.644500000402331, 0.0 ], [ 535111.592400000430644, 7401519.986399999819696, 0.0 ], [ 535120.907700001262128, 7401521.5981, 0.0 ], [ 535125.913880424574018, 7401520.392014014534652, 0.0 ], [ 535128.977361763827503, 7401518.033090177923441, 0.0 ], [ 535131.74381513055414, 7401514.328719133511186, 0.0 ], [ 535132.02716591861099, 7401499.356389940716326, 0.0 ], [ 535132.986210091039538, 7401474.692312094382942, 0.0 ], [ 535112.044729644432664, 7401471.206015695817769, 0.0 ], [ 535107.25022823177278, 7401465.402145564556122, 0.0 ], [ 535098.015942181460559, 7401461.469333653338253, 0.0 ], [ 535082.142181367613375, 7401453.415892037563026, 0.0 ], [ 535076.657200001180172, 7401455.514999999664724, 0.0 ], [ 535067.61049999948591, 7401451.72410000115633, 0.0 ], [ 535064.310500000603497, 7401446.013200000859797, 0.0 ], [ 535062.103229264728725, 7401439.356671769171953, 0.0 ], [ 535063.737400000914931, 7401435.394100001081824, 0.0 ], [ 535068.944000001065433, 7401436.743200001306832, 0.0 ], [ 535071.957900000736117, 7401437.2807, 0.0 ], [ 535073.577600000426173, 7401427.473199999891222, 0.0 ], [ 535076.856800000183284, 7401424.4698, 0.0 ], [ 535077.716302060522139, 7401423.055975259281695, 0.0 ], [ 535085.523490562103689, 7401425.657598971389234, 0.0 ], [ 535094.285968894138932, 7401428.659735944122076, 0.0 ], [ 535100.781409814953804, 7401431.515176895074546, 0.0 ], [ 535105.593962884508073, 7401432.510324386879802, 0.0 ], [ 535120.12058936804533, 7401437.628274113871157, 0.0 ], [ 535134.202336852438748, 7401443.202594132162631, 0.0 ], [ 535134.940401757135987, 7401422.401506002061069, 0.0 ], [ 535135.828339794650674, 7401404.266051935963333, 0.0 ], [ 535136.960003890097141, 7401378.478397225029767, 0.0 ], [ 535137.328986125066876, 7401361.324897225946188, 0.0 ], [ 535137.895200775004923, 7401349.03629748057574, 0.0 ], [ 535138.250921978615224, 7401337.789928811602294, 0.0 ], [ 535138.840023720636964, 7401321.66081091016531, 0.0 ], [ 535139.408343875780702, 7401309.923069130629301, 0.0 ], [ 535139.786405949853361, 7401295.224095165729523, 0.0 ], [ 535045.588878359645605, 7401256.589421642944217, 0.0 ], [ 534959.329738865606487, 7401222.920522905886173, 0.0 ], [ 534841.609819118864834, 7401176.823422271758318, 0.0 ], [ 534723.21698756609112, 7401129.089589275419712, 0.0 ], [ 534663.048119747079909, 7401105.706161769106984, 0.0 ], [ 534626.856200001202524, 7401090.354500000365078, 0.0 ], [ 534623.30320000089705, 7401093.35840000025928, 0.0 ], [ 534622.066900000907481, 7401149.730700000189245, 0.0 ], [ 534621.99900000076741, 7401236.994000000879169, 0.0 ], [ 534615.806599999777973, 7401398.175600000657141, 0.0 ], [ 534615.580900002270937, 7401418.600199999287724, 0.0 ], [ 534612.039200000464916, 7401452.285400002263486, 0.0 ], [ 534616.161300000734627, 7401458.266800001263618, 0.0 ], [ 534616.449200000613928, 7401464.257200001738966, 0.0 ], [ 534614.276300000026822, 7401471.887399999424815, 0.0 ], [ 534615.666199998930097, 7401480.598399999551475, 0.0 ], [ 534615.427000001072884, 7401495.304399998858571, 0.0 ], [ 534614.087900000624359, 7401508.106700000353158, 0.0 ], [ 534612.474899999797344, 7401520.909699999727309, 0.0 ], [ 534613.611200001090765, 7401538.230499999597669, 0.0 ], [ 534615.265999999828637, 7401543.128400000743568, 0.0 ], [ 534620.473900001496077, 7401545.022400001063943, 0.0 ], [ 534631.970500000752509, 7401542.544300001114607, 0.0 ], [ 534646.196700000204146, 7401536.247300000861287, 0.0 ], [ 534665.061999999918044, 7401522.858900000341237, 0.0 ], [ 534687.226670390926301, 7401516.122923652641475, 0.0 ], [ 534709.306611099280417, 7401508.04797390755266, 0.0 ], [ 534719.400298281572759, 7401506.407749740406871, 0.0 ], [ 534728.562000000849366, 7401507.186300000175834, 0.0 ], [ 534737.326300001703203, 7401507.437900001183152, 0.0 ], [ 534746.64159999974072, 7401509.049800001084805, 0.0 ], [ 534750.213500000536442, 7401513.943100000731647, 0.0 ], [ 534757.339100001379848, 7401516.104900000616908, 0.0 ], [ 534765.557699999772012, 7401517.174700001254678, 0.0 ], [ 534774.052699999883771, 7401519.333100000396371, 0.0 ], [ 534781.721499999985099, 7401519.587299999780953, 0.0 ], [ 534788.557800000533462, 7401515.213899999856949, 0.0 ], [ 534801.702100002206862, 7401514.6381, 0.0 ], [ 534807.462299999780953, 7401518.436900001019239, 0.0 ], [ 534815.13120000064373, 7401518.691100001335144, 0.0 ], [ 534824.722900001332164, 7401521.39159999974072, 0.0 ], [ 534832.398900001309812, 7401524.64119999948889, 0.0 ], [ 534842.81940000038594, 7401530.335300001315773, 0.0 ], [ 534852.69410000089556, 7401532.71059999987483, 0.0 ], [ 534865.024600000120699, 7401535.4046, 0.0 ], [ 534874.885700001381338, 7401536.198100000619888, 0.0 ], [ 534887.765100001357496, 7401539.435399999842048, 0.0 ], [ 534903.107400000095367, 7401541.8498, 0.0 ], [ 534917.898100000806153, 7401542.6316, 0.0 ], [ 534937.625599999912083, 7401546.397199999541044, 0.0 ], [ 534950.292100000195205, 7401550.17949999962002, 0.0 ], [ 534967.279600001871586, 7401553.406999999657273, 0.0 ], [ 534983.713500000536442, 7401554.1848, 0.0 ], [ 534997.416600000113249, 7401558.236900000832975, 0.0 ], [ 535008.383600001223385, 7401563.384900000877678, 0.0 ], [ 535019.900899999774992, 7401569.620899999514222, 0.0 ], [ 535027.131586229428649, 7401575.170993665233254, 0.0 ], [ 535044.669367708265781, 7401585.264680844731629, 0.0 ], [ 535057.465500000864267, 7401588.321600002236664, 0.0 ], [ 535065.739939698018134, 7401593.465801680460572, 0.0 ], [ 535072.174665275961161, 7401597.25093437358737, 0.0 ], [ 535081.763668099418283, 7401601.919264695607126, 0.0 ], [ 535092.273900001309812, 7401599.676099999807775, 0.0 ], [ 535097.213900000788271, 7401604.0214, 0.0 ], [ 535101.698700282722712, 7401610.246556619182229, 0.0 ], [ 535105.736175155267119, 7401613.022320593707263, 0.0 ], [ 535109.795276435092092, 7401615.905419773422182, 0.0 ], [ 535113.770611292682588, 7401620.083768057636917, 0.0 ], [ 535119.00831962376833, 7401622.553475094027817, 0.0 ], [ 535122.217288248240948, 7401625.450695873238146, 0.0 ], [ 535129.056383066810668, 7401623.475927382707596, 0.0 ], [ 535126.406051341444254, 7401614.381762553937733, 0.0 ], [ 535126.806747145950794, 7401556.750014558434486, 0.0 ], [ 535109.752200000919402, 7401552.125099999830127, 0.0 ], [ 535098.243999999947846, 7401549.70170000102371, 0.0 ], [ 535082.621300000697374, 7401544.564900000579655, 0.0 ], [ 535068.91300000064075, 7401538.334200001321733, 0.0 ], [ 535057.949199999682605, 7401534.547899998724461, 0.0 ], [ 535048.706842580810189, 7401526.468953014351428, 0.0 ], [ 535043.28148571960628, 7401517.763147820718586, 0.0 ] ] ], [ [ [ 535224.210828449577093, 7403204.292104762978852, 0.0 ], [ 535116.713059965521097, 7403176.912978284060955, 0.0 ], [ 535080.375786110758781, 7403167.828659823164344, 0.0 ], [ 535070.155927840620279, 7403161.393934243358672, 0.0 ], [ 535075.20277143176645, 7402990.810620875097811, 0.0 ], [ 535094.759290345013142, 7402444.742144354619086, 0.0 ], [ 535099.803000001236796, 7402276.876200000755489, 0.0 ], [ 535105.105319706723094, 7402213.975221167318523, 0.0 ], [ 535105.736175155267119, 7402205.521758152171969, 0.0 ], [ 535111.413874194957316, 7401941.950351624749601, 0.0 ], [ 535116.913700002245605, 7401873.371700000949204, 0.0 ], [ 535120.065900000743568, 7401817.264300000853837, 0.0 ], [ 535121.002877017483115, 7401709.669375360012054, 0.0 ], [ 535121.129048108123243, 7401672.953588238917291, 0.0 ], [ 535111.918558553792536, 7401670.430166441015899, 0.0 ], [ 535103.717437718063593, 7401677.243405288085341, 0.0 ], [ 535096.525685602799058, 7401676.360207660123706, 0.0 ], [ 535091.352670921012759, 7401680.902366890572011, 0.0 ], [ 535081.916991475969553, 7401685.652051666751504, 0.0 ], [ 535069.871991474181414, 7401687.859451668336987, 0.0 ], [ 535059.141099999658763, 7401689.536800001747906, 0.0 ], [ 535041.341000000014901, 7401690.123900001868606, 0.0 ], [ 535029.15032366476953, 7401687.967947918921709, 0.0 ], [ 535016.533214689232409, 7401687.967947918921709, 0.0 ], [ 534993.957200000993907, 7401688.330700000748038, 0.0 ], [ 534976.970200000330806, 7401685.375600000843406, 0.0 ], [ 534961.068300000391901, 7401678.060700000263751, 0.0 ], [ 534950.36600000038743, 7401669.099399999715388, 0.0 ], [ 534936.646000000648201, 7401657.966700000688434, 0.0 ], [ 534925.673100000247359, 7401650.36769999936223, 0.0 ], [ 534909.505900000222027, 7401646.59360000025481, 0.0 ], [ 534896.805700000375509, 7401645.262200000695884, 0.0 ], [ 534887.712532034143806, 7401645.069777396507561, 0.0 ], [ 534879.511411198414862, 7401643.303382138721645, 0.0 ], [ 534867.146644401364028, 7401634.219063675031066, 0.0 ], [ 534856.548272861167789, 7401621.601954699493945, 0.0 ], [ 534848.220980937592685, 7401612.896149505861104, 0.0 ], [ 534839.767517922446132, 7401605.199713028036058, 0.0 ], [ 534828.412119843065739, 7401598.134132001549006, 0.0 ], [ 534812.690628912299871, 7401590.821903784759343, 0.0 ], [ 534802.042362081818283, 7401587.157247191295028, 0.0 ], [ 534790.182279643602669, 7401582.867430140264332, 0.0 ], [ 534776.934315216727555, 7401581.858061421662569, 0.0 ], [ 534763.434008611366153, 7401580.596350523643196, 0.0 ], [ 534748.419648928567767, 7401576.180362383835018, 0.0 ], [ 534732.269749438390136, 7401570.881176611408591, 0.0 ], [ 534709.432782189920545, 7401567.348386099562049, 0.0 ], [ 534683.946222057566047, 7401572.142887508496642, 0.0 ], [ 534654.926871411502361, 7401582.110403602942824, 0.0 ], [ 534635.628100000321865, 7401590.870100000873208, 0.0 ], [ 534621.680800001136959, 7401599.345100000500679, 0.0 ], [ 534616.38710000179708, 7401614.335500000976026, 0.0 ], [ 534613.698500000871718, 7401635.583200000226498, 0.0 ], [ 534611.551200000569224, 7401654.1064, 0.0 ], [ 534609.668200000189245, 7401668.544100000523031, 0.0 ], [ 534606.413200001232326, 7401681.895700002089143, 0.0 ], [ 534602.519999999552965, 7401772.973299999721348, 0.0 ], [ 534599.585799999535084, 7401845.614900000393391, 0.0 ], [ 534598.073599999770522, 7401901.173800000920892, 0.0 ], [ 534594.175100000575185, 7401990.108499999158084, 0.0 ], [ 534590.059500000439584, 7402103.155299999751151, 0.0 ], [ 534583.297700000926852, 7402255.534199999645352, 0.0 ], [ 534581.585400000214577, 7402342.461900001391768, 0.0 ], [ 534577.215000001713634, 7402463.719100001268089, 0.0 ], [ 534573.112000000663102, 7402582.268000001087785, 0.0 ], [ 534567.885100000537932, 7402688.779299999587238, 0.0 ], [ 534565.426199999637902, 7402807.682400001212955, 0.0 ], [ 534559.439000000245869, 7402940.383000001311302, 0.0 ], [ 534556.401300000958145, 7403022.807500001043081, 0.0 ], [ 534554.909000001847744, 7403087.031899999827147, 0.0 ], [ 534551.790100000798702, 7403158.35080000013113, 0.0 ], [ 534550.029199999757111, 7403224.825899998657405, 0.0 ], [ 534547.159300000406802, 7403285.606200001202524, 0.0 ], [ 534544.846800001338124, 7403350.439299999736249, 0.0 ], [ 534540.909455187618732, 7403422.993000000715256, 0.0 ], [ 534537.021077180281281, 7403517.985239377245307, 0.0 ], [ 534532.639385011978447, 7403570.661327517591417, 0.0 ], [ 534532.229063982143998, 7403583.978710881434381, 0.0 ], [ 534530.897838959470391, 7403604.415345505811274, 0.0 ], [ 534528.583391613326967, 7403630.149407424964011, 0.0 ], [ 534527.717738409526646, 7403644.019168050028384, 0.0 ], [ 534527.175312372855842, 7403651.809109152294695, 0.0 ], [ 534526.897990619763732, 7403656.269448695704341, 0.0 ], [ 534526.660192422568798, 7403659.38931034412235, 0.0 ], [ 534538.155527830123901, 7403662.608588349074125, 0.0 ], [ 534543.833226869814098, 7403664.248812516219914, 0.0 ], [ 534551.693900000303984, 7403664.235999999567866, 0.0 ], [ 534555.006400001235306, 7403675.122700000181794, 0.0 ], [ 534558.035400000400841, 7403681.924600000493228, 0.0 ], [ 534563.247299999929965, 7403685.180700001306832, 0.0 ], [ 534570.370799999684095, 7403685.980999999679625, 0.0 ], [ 534576.940700000151992, 7403684.331399999558926, 0.0 ], [ 534584.323900001123548, 7403679.139100001193583, 0.0 ], [ 534593.670807328075171, 7403673.963986431248486, 0.0 ], [ 534600.231703995727003, 7403668.286287390626967, 0.0 ], [ 534609.189851370640099, 7403660.716022004373372, 0.0 ], [ 534616.587000001221895, 7403654.550500000827014, 0.0 ], [ 534622.870099999941885, 7403647.454200000502169, 0.0 ], [ 534631.89809999987483, 7403642.80280000064522, 0.0 ], [ 534640.915100000798702, 7403633.521199999377131, 0.0 ], [ 534649.111700001172721, 7403624.786299999803305, 0.0 ], [ 534657.570000000298023, 7403610.875900000333786, 0.0 ], [ 534665.488100000657141, 7403600.235100000165403, 0.0 ], [ 534673.950200001709163, 7403587.958800001069903, 0.0 ], [ 534679.956199999898672, 7403579.501500000245869, 0.0 ], [ 534683.441537699662149, 7403568.926554197445512, 0.0 ], [ 534687.668269205838442, 7403553.912194514647126, 0.0 ], [ 534691.098199999891222, 7403542.194600000977516, 0.0 ], [ 534693.510499999858439, 7403519.8553, 0.0 ], [ 534693.755499999970198, 7403507.598599999211729, 0.0 ], [ 534698.266640746034682, 7403494.485611232928932, 0.0 ], [ 534703.439655427820981, 7403481.742331166751683, 0.0 ], [ 534713.091743795201182, 7403451.776697346009314, 0.0 ], [ 534716.372192128561437, 7403420.486267083324492, 0.0 ], [ 534715.425908954814076, 7403405.282650765031576, 0.0 ], [ 534712.635900000110269, 7403383.694400002248585, 0.0 ], [ 534712.318799999542534, 7403365.447200000286102, 0.0 ], [ 534712.304700000211596, 7403359.455400000326335, 0.0 ], [ 534716.030862791463733, 7403341.420401188544929, 0.0 ], [ 534720.636962789110839, 7403320.165701189078391, 0.0 ], [ 534723.185430975630879, 7403303.336410232819617, 0.0 ], [ 534722.743832162581384, 7403294.189006223343313, 0.0 ], [ 534719.841897097416222, 7403289.205248177982867, 0.0 ], [ 534710.505236454308033, 7403281.193383977748454, 0.0 ], [ 534700.790062542073429, 7403271.036611250601709, 0.0 ], [ 534683.883136512711644, 7403263.024747051298618, 0.0 ], [ 534670.572086542844772, 7403255.454481666907668, 0.0 ], [ 534664.642045323736966, 7403253.372658683918417, 0.0 ], [ 534660.415313817560673, 7403248.515071728266776, 0.0 ], [ 534660.22605718113482, 7403242.837372688576579, 0.0 ], [ 534662.686393431387842, 7403225.74119002558291, 0.0 ], [ 534662.812564522027969, 7403203.408907135017216, 0.0 ], [ 534664.452788690105081, 7403187.385178733617067, 0.0 ], [ 534668.599723021499813, 7403169.028957699425519, 0.0 ], [ 534673.474021606147289, 7403158.428913632407784, 0.0 ], [ 534677.385325389914215, 7403141.96358641795814, 0.0 ], [ 534681.044286992400885, 7403131.932984781451523, 0.0 ], [ 534686.091130583547056, 7403120.640672246925533, 0.0 ], [ 534690.885631995275617, 7403112.88115022610873, 0.0 ], [ 534697.257272030226886, 7403106.004825833253562, 0.0 ], [ 534708.928097832016647, 7403091.999834869988263, 0.0 ], [ 534713.047900000587106, 7403080.733000000938773, 0.0 ], [ 534711.520465162582695, 7403069.744998814538121, 0.0 ], [ 534704.917365161702037, 7403057.232398815453053, 0.0 ], [ 534706.720103761181235, 7403052.003599412739277, 0.0 ], [ 534712.082375076599419, 7403046.452071463689208, 0.0 ], [ 534718.138587384484708, 7403043.234708673320711, 0.0 ], [ 534726.718221489340067, 7403043.802478577010334, 0.0 ], [ 534737.632020754739642, 7403045.00110393203795, 0.0 ], [ 534750.186044187285006, 7403048.596979988738894, 0.0 ], [ 534759.83688176330179, 7403048.017675097100437, 0.0 ], [ 534769.742563100531697, 7403047.966124540194869, 0.0 ], [ 534792.831872527487576, 7403043.613221943378448, 0.0 ], [ 534803.493329613469541, 7403042.16225441172719, 0.0 ], [ 534814.407128878869116, 7403037.746266269125044, 0.0 ], [ 534823.0498485295102, 7403033.519534762948751, 0.0 ], [ 534829.400899999774992, 7403030.690100002102554, 0.0 ], [ 534835.730043049901724, 7403026.201611556112766, 0.0 ], [ 534839.792000000365078, 7403023.5844, 0.0 ], [ 534843.620100000873208, 7403020.851800001226366, 0.0 ], [ 534845.793800000101328, 7403013.493100000545382, 0.0 ], [ 534851.541000000201166, 7403011.572999999858439, 0.0 ], [ 534858.10670000128448, 7403008.289200000464916, 0.0 ], [ 534865.380249145440757, 7403009.042343347333372, 0.0 ], [ 534874.843080879189074, 7403004.121670846827328, 0.0 ], [ 534882.224089629948139, 7402994.343411388806999, 0.0 ], [ 534879.865500002168119, 7402978.528800002299249, 0.0 ], [ 534878.817470205947757, 7402964.693205293267965, 0.0 ], [ 534880.33152328338474, 7402954.599518113769591, 0.0 ], [ 534887.964874215424061, 7402944.253488750196993, 0.0 ], [ 534899.20890000090003, 7402935.17920000012964, 0.0 ], [ 534914.713145245797932, 7402928.671359163708985, 0.0 ], [ 534931.367729093879461, 7402925.89559518918395, 0.0 ], [ 534945.246548969298601, 7402923.056745668873191, 0.0 ], [ 534963.036672626622021, 7402924.318456566892564, 0.0 ], [ 534985.437699998728931, 7402938.505600000731647, 0.0 ], [ 534995.06670000217855, 7402956.457800000905991, 0.0 ], [ 534999.205000000074506, 7402968.975999999791384, 0.0 ], [ 534996.772400001063943, 7402982.599300000816584, 0.0 ], [ 534990.770100001245737, 7402992.418200000189245, 0.0 ], [ 534979.024500000290573, 7403005.791400001384318, 0.0 ], [ 534969.190300000831485, 7403016.708800001069903, 0.0 ], [ 534960.453000000678003, 7403028.168400001712143, 0.0 ], [ 534948.590082849375904, 7403034.52890347968787, 0.0 ], [ 534939.69502101931721, 7403040.395859153941274, 0.0 ], [ 534934.711262973956764, 7403049.543263162486255, 0.0 ], [ 534936.225316050462425, 7403059.700035887770355, 0.0 ], [ 534938.685652300715446, 7403067.774985634721816, 0.0 ], [ 534942.092271724715829, 7403078.814955987967551, 0.0 ], [ 534945.498891147784889, 7403082.789345315657556, 0.0 ], [ 534949.157852753065526, 7403091.999834869988263, 0.0 ], [ 534950.924248008988798, 7403110.673156155273318, 0.0 ], [ 534954.020899999886751, 7403140.579500000923872, 0.0 ], [ 534950.167221469804645, 7403163.160329499281943, 0.0 ], [ 534935.783717238344252, 7403169.973568346351385, 0.0 ], [ 534925.942372234538198, 7403184.861756940372288, 0.0 ], [ 534921.90489736199379, 7403194.703101941384375, 0.0 ], [ 534911.176000000908971, 7403206.591000001877546, 0.0 ], [ 534892.817400000989437, 7403219.024300000630319, 0.0 ], [ 534861.36780000012368, 7403239.525600001215935, 0.0 ], [ 534843.334500001743436, 7403258.088499999605119, 0.0 ], [ 534825.571100000292063, 7403275.016699998639524, 0.0 ], [ 534805.352400000207126, 7403296.036000000312924, 0.0 ], [ 534781.63920000102371, 7403319.809100001119077, 0.0 ], [ 534758.144500002264977, 7403345.466300000436604, 0.0 ], [ 534747.763399999588728, 7403356.929800000973046, 0.0 ], [ 534743.680000000633299, 7403367.5614, 0.0 ], [ 534742.900899999774992, 7403385.538800000213087, 0.0 ], [ 534739.940100002102554, 7403407.606800001114607, 0.0 ], [ 534738.894199999980628, 7403428.580900002270937, 0.0 ], [ 534736.5307, 7403441.798000001348555, 0.0 ], [ 534733.012500000186265, 7403459.782000000588596, 0.0 ], [ 534728.393500000238419, 7403475.589800000190735, 0.0 ], [ 534722.68540000077337, 7403494.123700000345707, 0.0 ], [ 534717.524400001391768, 7403512.384000000543892, 0.0 ], [ 534717.283999999985099, 7403526.5472999997437, 0.0 ], [ 534717.583000000566244, 7403537.168699999339879, 0.0 ], [ 534715.416200000792742, 7403547.523500001989305, 0.0 ], [ 534711.0608000010252, 7403558.972900001332164, 0.0 ], [ 534703.223800000734627, 7403571.894500000402331, 0.0 ], [ 534697.228800000622869, 7403584.981999999843538, 0.0 ], [ 534690.962500001303852, 7403599.159599999897182, 0.0 ], [ 534682.50620000064373, 7403613.8871, 0.0 ], [ 534674.041500000283122, 7403625.073900001123548, 0.0 ], [ 534662.019299999810755, 7403637.630900002084672, 0.0 ], [ 534647.531200000084937, 7403649.921400001272559, 0.0 ], [ 534633.594200000166893, 7403663.5724, 0.0 ], [ 534619.651999999769032, 7403675.044499999843538, 0.0 ], [ 534606.261300001293421, 7403686.150700001046062, 0.0 ], [ 534582.189000002108514, 7403699.55320000089705, 0.0 ], [ 534558.111500000581145, 7403710.776800000108778, 0.0 ], [ 534544.400996773503721, 7403711.24754345882684, 0.0 ], [ 534534.559651770628989, 7403726.640416408888996, 0.0 ], [ 534533.045598693192005, 7403741.023920642212033, 0.0 ], [ 534539.60649536177516, 7403753.136345262639225, 0.0 ], [ 534557.675099999643862, 7403776.7462, 0.0 ], [ 534566.739700000733137, 7403787.619500000961125, 0.0 ], [ 534577.19170000217855, 7403806.115700001828372, 0.0 ], [ 534586.815700002014637, 7403821.8903, 0.0 ], [ 534598.076100000180304, 7403834.664900000207126, 0.0 ], [ 534610.429000001400709, 7403846.075199999846518, 0.0 ], [ 534625.515100000426173, 7403855.027700001373887, 0.0 ], [ 534634.302099999971688, 7403864.267400001175702, 0.0 ], [ 534644.71830000076443, 7403867.511300000362098, 0.0 ], [ 534656.219900000840425, 7403866.394700000993907, 0.0 ], [ 534668.540100000798702, 7403863.914300000295043, 0.0 ], [ 534676.375956671312451, 7403872.746538361534476, 0.0 ], [ 534694.544593598693609, 7403879.055092849768698, 0.0 ], [ 534712.713230525143445, 7403887.88706913497299, 0.0 ], [ 534734.585800000466406, 7403892.315100000239909, 0.0 ], [ 534753.794300000183284, 7403906.9775, 0.0 ], [ 534769.700400001369417, 7403915.11089999973774, 0.0 ], [ 534775.722287095151842, 7403922.423916165716946, 0.0 ], [ 534806.436599999666214, 7403928.642200000584126, 0.0 ], [ 534825.075500001199543, 7403934.045400001108646, 0.0 ], [ 534835.166838361881673, 7403939.607106765732169, 0.0 ], [ 534856.06531341560185, 7403941.000338435173035, 0.0 ], [ 534873.24850401841104, 7403934.034180083312094, 0.0 ], [ 534884.858767936006188, 7403925.210379504598677, 0.0 ], [ 534897.397852968424559, 7403914.528936698101461, 0.0 ], [ 534904.82842187769711, 7403901.525441110134125, 0.0 ], [ 534911.33016967214644, 7403884.342250509187579, 0.0 ], [ 534911.33016967214644, 7403877.376092155463994, 0.0 ], [ 534919.22514913789928, 7403869.016702134162188, 0.0 ], [ 534935.015108068473637, 7403869.481112692505121, 0.0 ], [ 534960.093278135173023, 7403869.481112692505121, 0.0 ], [ 534973.737942418083549, 7403871.437370109371841, 0.0 ], [ 534999.88570000231266, 7403875.417300001718104, 0.0 ], [ 535007.796157189644873, 7403889.9096221877262, 0.0 ], [ 535022.804862001910806, 7403897.41397459525615, 0.0 ], [ 535037.813566816970706, 7403891.064137942157686, 0.0 ], [ 535077.067102485336363, 7403897.991232473403215, 0.0 ], [ 535107.661769991740584, 7403906.650100635364652, 0.0 ], [ 535187.900614958256483, 7403945.903636302798986, 0.0 ], [ 535224.210828449577093, 7403204.292104762978852, 0.0 ] ] ] ] } }
]
}
