{
"type": "FeatureCollection",
"name": "serro_alto_LOTE-02_large",
"crs": { "type": "name", "properties": { "name": "urn:ogc:def:crs:OGC:1.3:CRS84" } },
"features": [
{ "type": "Feature", "properties": { "area_ha": 454.82328654148301 }, "geometry": { "type": "Polygon", "coordinates": [ [ [ -59.044736489193141, -18.32940472023154 ], [ -59.044736489193141, -18.330572530100895 ], [ -59.044287331551082, -18.330572530100895 ], [ -59.044287331551082, -18.330662361629308 ], [ -59.044197500022669, -18.330662361629308 ], [ -59.044197500022669, -18.330752193157721 ], [ -59.044287331551082, -18.330752193157721 ], [ -59.044287331551082, -18.33120135079978 ], [ -59.044556826136322, -18.33120135079978 ], [ -59.044556826136322, -18.33129118232819 ], [ -59.044646657664735, -18.33129118232819 ], [ -59.044646657664735, -18.33120135079978 ], [ -59.044736489193141, -18.33120135079978 ], [ -59.044736489193141, -18.333986128180548 ], [ -59.044377163079496, -18.333986128180548 ], [ -59.044377163079496, -18.333896296652139 ], [ -59.044287331551082, -18.333896296652139 ], [ -59.044287331551082, -18.333986128180548 ], [ -59.044197500022669, -18.333986128180548 ], [ -59.044197500022669, -18.334345454294198 ], [ -59.044287331551082, -18.334345454294198 ], [ -59.044287331551082, -18.334614948879434 ], [ -59.044377163079496, -18.334614948879434 ], [ -59.044377163079496, -18.334525117351021 ], [ -59.044556826136322, -18.334525117351021 ], [ -59.044556826136322, -18.334435285822611 ], [ -59.044646657664735, -18.334435285822611 ], [ -59.044646657664735, -18.334345454294198 ], [ -59.044736489193141, -18.334345454294198 ], [ -59.044736489193141, -18.349886308709465 ], [ -59.029554960891524, -18.349886308709465 ], [ -59.029554960891524, -18.349706645652642 ], [ -59.029465129363111, -18.349706645652642 ], [ -59.029465129363111, -18.349526982595819 ], [ -59.029375297834697, -18.349526982595819 ], [ -59.029375297834697, -18.349257488010583 ], [ -59.029285466306291, -18.349257488010583 ], [ -59.029285466306291, -18.348987993425347 ], [ -59.029195634777878, -18.348987993425347 ], [ -59.029195634777878, -18.34871849884011 ], [ -59.029105803249465, -18.34871849884011 ], [ -59.029105803249465, -18.348538835783287 ], [ -59.029015971721051, -18.348538835783287 ], [ -59.029015971721051, -18.348269341198051 ], [ -59.028926140192638, -18.348269341198051 ], [ -59.028926140192638, -18.347999846612815 ], [ -59.028836308664232, -18.347999846612815 ], [ -59.028836308664232, -18.347730352027579 ], [ -59.028746477135819, -18.347730352027579 ], [ -59.028746477135819, -18.347550688970756 ], [ -59.028656645607406, -18.347550688970756 ], [ -59.028656645607406, -18.34728119438552 ], [ -59.028566814078992, -18.34728119438552 ], [ -59.028566814078992, -18.347101531328693 ], [ -59.028476982550579, -18.347101531328693 ], [ -59.028476982550579, -18.346832036743461 ], [ -59.028387151022166, -18.346832036743461 ], [ -59.028387151022166, -18.346562542158225 ], [ -59.02829731949376, -18.346562542158225 ], [ -59.02829731949376, -18.346203216044575 ], [ -59.028207487965346, -18.346203216044575 ], [ -59.028207487965346, -18.346023552987752 ], [ -59.028117656436933, -18.346023552987752 ], [ -59.028117656436933, -18.345754058402516 ], [ -59.02802782490852, -18.345754058402516 ], [ -59.02802782490852, -18.345394732288867 ], [ -59.027937993380107, -18.345394732288867 ], [ -59.027937993380107, -18.345215069232044 ], [ -59.027848161851701, -18.345215069232044 ], [ -59.027848161851701, -18.344855743118398 ], [ -59.027758330323287, -18.344855743118398 ], [ -59.027758330323287, -18.344586248533162 ], [ -59.027668498794874, -18.344586248533162 ], [ -59.027668498794874, -18.344316753947925 ], [ -59.027578667266461, -18.344316753947925 ], [ -59.027578667266461, -18.344047259362689 ], [ -59.027488835738048, -18.344047259362689 ], [ -59.027488835738048, -18.34368793324904 ], [ -59.027399004209634, -18.34368793324904 ], [ -59.027399004209634, -18.343508270192217 ], [ -59.027309172681228, -18.343508270192217 ], [ -59.027309172681228, -18.343238775606981 ], [ -59.027219341152815, -18.343238775606981 ], [ -59.027219341152815, -18.342879449493335 ], [ -59.027129509624402, -18.342879449493335 ], [ -59.027129509624402, -18.342699786436508 ], [ -59.027039678095989, -18.342699786436508 ], [ -59.027039678095989, -18.342430291851272 ], [ -59.026949846567575, -18.342430291851272 ], [ -59.026949846567575, -18.342070965737626 ], [ -59.026860015039169, -18.342070965737626 ], [ -59.026860015039169, -18.341891302680803 ], [ -59.026770183510756, -18.341891302680803 ], [ -59.026770183510756, -18.341531976567154 ], [ -59.026680351982343, -18.341531976567154 ], [ -59.026680351982343, -18.341262481981918 ], [ -59.026590520453929, -18.341262481981918 ], [ -59.026590520453929, -18.340992987396682 ], [ -59.026500688925516, -18.340992987396682 ], [ -59.026500688925516, -18.340633661283036 ], [ -59.026410857397103, -18.340633661283036 ], [ -59.026410857397103, -18.340274335169386 ], [ -59.026321025868697, -18.340274335169386 ], [ -59.026321025868697, -18.340094672112564 ], [ -59.026231194340284, -18.340094672112564 ], [ -59.026231194340284, -18.339825177527327 ], [ -59.02614136281187, -18.339825177527327 ], [ -59.02614136281187, -18.339555682942091 ], [ -59.026051531283457, -18.339555682942091 ], [ -59.026051531283457, -18.339286188356855 ], [ -59.025961699755044, -18.339286188356855 ], [ -59.025961699755044, -18.339016693771619 ], [ -59.025871868226638, -18.339016693771619 ], [ -59.025871868226638, -18.338657367657973 ], [ -59.025782036698224, -18.338657367657973 ], [ -59.025782036698224, -18.338477704601146 ], [ -59.025692205169811, -18.338477704601146 ], [ -59.025692205169811, -18.338118378487501 ], [ -59.025602373641398, -18.338118378487501 ], [ -59.025602373641398, -18.337759052373851 ], [ -59.025512542112985, -18.337759052373851 ], [ -59.025512542112985, -18.337489557788615 ], [ -59.025422710584571, -18.337489557788615 ], [ -59.025422710584571, -18.337309894731792 ], [ -59.025332879056165, -18.337309894731792 ], [ -59.025332879056165, -18.337040400146556 ], [ -59.025243047527752, -18.337040400146556 ], [ -59.025243047527752, -18.336950568618143 ], [ -59.025153215999339, -18.336950568618143 ], [ -59.025153215999339, -18.33677090556132 ], [ -59.025063384470926, -18.33677090556132 ], [ -59.025063384470926, -18.336591242504497 ], [ -59.024973552942512, -18.336591242504497 ], [ -59.024973552942512, -18.336411579447674 ], [ -59.024883721414106, -18.336411579447674 ], [ -59.024883721414106, -18.336321747919261 ], [ -59.024793889885693, -18.336321747919261 ], [ -59.024793889885693, -18.336142084862438 ], [ -59.02470405835728, -18.336142084862438 ], [ -59.02470405835728, -18.335962421805611 ], [ -59.024614226828866, -18.335962421805611 ], [ -59.024614226828866, -18.335692927220379 ], [ -59.024524395300453, -18.335692927220379 ], [ -59.024524395300453, -18.335513264163552 ], [ -59.02443456377204, -18.335513264163552 ], [ -59.02443456377204, -18.335423432635142 ], [ -59.024344732243634, -18.335423432635142 ], [ -59.024344732243634, -18.335243769578316 ], [ -59.024254900715221, -18.335243769578316 ], [ -59.024254900715221, -18.335064106521493 ], [ -59.024165069186807, -18.335064106521493 ], [ -59.024165069186807, -18.33497427499308 ], [ -59.024075237658394, -18.33497427499308 ], [ -59.024075237658394, -18.334794611936257 ], [ -59.023985406129981, -18.334794611936257 ], [ -59.023985406129981, -18.334614948879434 ], [ -59.023895574601575, -18.334614948879434 ], [ -59.023895574601575, -18.334525117351021 ], [ -59.023805743073162, -18.334525117351021 ], [ -59.023805743073162, -18.334345454294198 ], [ -59.023715911544748, -18.334345454294198 ], [ -59.023715911544748, -18.334075959708962 ], [ -59.023626080016335, -18.334075959708962 ], [ -59.023626080016335, -18.333986128180548 ], [ -59.023536248487922, -18.333986128180548 ], [ -59.023536248487922, -18.333806465123725 ], [ -59.023446416959509, -18.333806465123725 ], [ -59.023446416959509, -18.333716633595316 ], [ -59.023356585431102, -18.333716633595316 ], [ -59.023356585431102, -18.333626802066902 ], [ -59.023266753902689, -18.333626802066902 ], [ -59.023266753902689, -18.333447139010079 ], [ -59.023176922374276, -18.333447139010079 ], [ -59.023176922374276, -18.333267475953253 ], [ -59.023087090845863, -18.333267475953253 ], [ -59.023087090845863, -18.33308781289643 ], [ -59.022997259317449, -18.33308781289643 ], [ -59.022997259317449, -18.332997981368017 ], [ -59.022907427789043, -18.332997981368017 ], [ -59.022907427789043, -18.332728486782784 ], [ -59.02281759626063, -18.332728486782784 ], [ -59.02281759626063, -18.332638655254371 ], [ -59.022727764732217, -18.332638655254371 ], [ -59.022727764732217, -18.332458992197548 ], [ -59.022637933203804, -18.332458992197548 ], [ -59.022637933203804, -18.332279329140722 ], [ -59.02254810167539, -18.332279329140722 ], [ -59.02254810167539, -18.332189497612312 ], [ -59.022458270146977, -18.332189497612312 ], [ -59.022458270146977, -18.332099666083899 ], [ -59.022368438618571, -18.332099666083899 ], [ -59.022368438618571, -18.331830171498662 ], [ -59.022278607090158, -18.331830171498662 ], [ -59.022278607090158, -18.331740339970253 ], [ -59.022188775561744, -18.331740339970253 ], [ -59.022188775561744, -18.331560676913426 ], [ -59.022098944033331, -18.331560676913426 ], [ -59.022098944033331, -18.33120135079978 ], [ -59.022009112504918, -18.33120135079978 ], [ -59.022009112504918, -18.331111519271367 ], [ -59.021919280976512, -18.331111519271367 ], [ -59.021919280976512, -18.331021687742954 ], [ -59.021829449448099, -18.331021687742954 ], [ -59.021829449448099, -18.330842024686131 ], [ -59.021739617919685, -18.330842024686131 ], [ -59.021739617919685, -18.330752193157721 ], [ -59.021649786391272, -18.330752193157721 ], [ -59.021649786391272, -18.330662361629308 ], [ -59.021559954862859, -18.330662361629308 ], [ -59.021559954862859, -18.330482698572485 ], [ -59.021470123334446, -18.330482698572485 ], [ -59.021470123334446, -18.330303035515659 ], [ -59.02138029180604, -18.330303035515659 ], [ -59.02138029180604, -18.330213203987249 ], [ -59.021290460277626, -18.330213203987249 ], [ -59.021290460277626, -18.330123372458836 ], [ -59.021200628749213, -18.330123372458836 ], [ -59.021200628749213, -18.329943709402013 ], [ -59.0211107972208, -18.329943709402013 ], [ -59.0211107972208, -18.3298538778736 ], [ -59.021020965692387, -18.3298538778736 ], [ -59.021020965692387, -18.329674214816777 ], [ -59.02093113416398, -18.329674214816777 ], [ -59.02093113416398, -18.32940472023154 ], [ -59.044736489193141, -18.32940472023154 ] ], [ [ -59.029824455476763, -18.331111519271367 ], [ -59.029644792419937, -18.331111519271367 ], [ -59.029644792419937, -18.33120135079978 ], [ -59.029824455476763, -18.33120135079978 ], [ -59.029824455476763, -18.331111519271367 ] ], [ [ -59.02829731949376, -18.332189497612312 ], [ -59.028117656436933, -18.332189497612312 ], [ -59.028117656436933, -18.332279329140722 ], [ -59.027488835738048, -18.332279329140722 ], [ -59.027488835738048, -18.332369160669135 ], [ -59.027668498794874, -18.332369160669135 ], [ -59.027668498794874, -18.332458992197548 ], [ -59.028117656436933, -18.332458992197548 ], [ -59.028117656436933, -18.332548823725958 ], [ -59.02829731949376, -18.332548823725958 ], [ -59.02829731949376, -18.332458992197548 ], [ -59.028387151022166, -18.332458992197548 ], [ -59.028387151022166, -18.332279329140722 ], [ -59.02829731949376, -18.332279329140722 ], [ -59.02829731949376, -18.332189497612312 ] ], [ [ -59.027399004209634, -18.332279329140722 ], [ -59.026410857397103, -18.332279329140722 ], [ -59.026410857397103, -18.332369160669135 ], [ -59.027399004209634, -18.332369160669135 ], [ -59.027399004209634, -18.332279329140722 ] ] ] } },
{ "type": "Feature", "properties": { "area_ha": 22.550649671452906 }, "geometry": { "type": "Polygon", "coordinates": [ [ [ -59.02991428700517, -18.331381013856603 ], [ -59.02991428700517, -18.334075959708962 ], [ -59.023626080016335, -18.334075959708962 ], [ -59.023626080016335, -18.333986128180548 ], [ -59.023536248487922, -18.333986128180548 ], [ -59.023536248487922, -18.333896296652139 ], [ -59.023446416959509, -18.333896296652139 ], [ -59.023446416959509, -18.333806465123725 ], [ -59.023356585431102, -18.333806465123725 ], [ -59.023356585431102, -18.333626802066902 ], [ -59.023266753902689, -18.333626802066902 ], [ -59.023266753902689, -18.333447139010079 ], [ -59.023176922374276, -18.333447139010079 ], [ -59.023176922374276, -18.333267475953253 ], [ -59.023087090845863, -18.333267475953253 ], [ -59.023087090845863, -18.333177644424843 ], [ -59.022997259317449, -18.333177644424843 ], [ -59.022997259317449, -18.332997981368017 ], [ -59.022907427789043, -18.332997981368017 ], [ -59.022907427789043, -18.332818318311194 ], [ -59.02281759626063, -18.332818318311194 ], [ -59.02281759626063, -18.332728486782784 ], [ -59.022727764732217, -18.332728486782784 ], [ -59.022727764732217, -18.332548823725958 ], [ -59.022637933203804, -18.332548823725958 ], [ -59.022637933203804, -18.332369160669135 ], [ -59.02254810167539, -18.332369160669135 ], [ -59.02254810167539, -18.332279329140722 ], [ -59.022458270146977, -18.332279329140722 ], [ -59.022458270146977, -18.332099666083899 ], [ -59.022368438618571, -18.332099666083899 ], [ -59.022368438618571, -18.332009834555485 ], [ -59.022278607090158, -18.332009834555485 ], [ -59.022278607090158, -18.331830171498662 ], [ -59.022188775561744, -18.331830171498662 ], [ -59.022188775561744, -18.33165050844184 ], [ -59.022098944033331, -18.33165050844184 ], [ -59.022098944033331, -18.331470845385017 ], [ -59.022009112504918, -18.331470845385017 ], [ -59.022009112504918, -18.331381013856603 ], [ -59.02991428700517, -18.331381013856603 ] ] ] } },
{ "type": "Feature", "properties": { "area_ha": 36.332676311122995 }, "geometry": { "type": "Polygon", "coordinates": [ [ [ -59.044197500022669, -18.347820183555992 ], [ -59.044197500022669, -18.349886308709465 ], [ -59.029554960891524, -18.349886308709465 ], [ -59.029554960891524, -18.349706645652642 ], [ -59.029465129363111, -18.349706645652642 ], [ -59.029465129363111, -18.349437151067406 ], [ -59.029375297834697, -18.349437151067406 ], [ -59.029375297834697, -18.34916765648217 ], [ -59.029285466306291, -18.34916765648217 ], [ -59.029285466306291, -18.348898161896933 ], [ -59.029195634777878, -18.348898161896933 ], [ -59.029195634777878, -18.348628667311697 ], [ -59.029105803249465, -18.348628667311697 ], [ -59.029105803249465, -18.348449004254874 ], [ -59.029015971721051, -18.348449004254874 ], [ -59.029015971721051, -18.348179509669638 ], [ -59.028926140192638, -18.348179509669638 ], [ -59.028926140192638, -18.347820183555992 ], [ -59.044197500022669, -18.347820183555992 ] ] ] } }
]
}
