{"type": "FeatureCollection", "features": [{"id": "0", "type": "Feature", "properties": {"id": null, "Name": "Serro Alto 2", "description": null, "timestamp": null, "begin": null, "end": null, "altitudeMode": null, "tessellate": 1, "extrude": 0, "visibility": -1, "drawOrder": null, "icon": null}, "geometry": {"type": "Polygon", "coordinates": [[[-58.87950039735169, -18.43298376901206, 0.0], [-58.81569945686037, -18.45954356269811, 0.0], [-58.80836539136068, -18.51911251362253, 0.0], [-58.78115489228171, -18.5214164711258, 0.0], [-58.7839006703865, -18.44709258855463, 0.0], [-58.79743211305316, -18.44843072874311, 0.0], [-58.80866243275324, -18.3872430210042, 0.0], [-58.89920705257136, -18.38357058329253, 0.0], [-58.87950039735169, -18.43298376901206, 0.0]]]}}]}