{
"type": "FeatureCollection",
"name": "serro_alto_LOTE-01_large",
"crs": { "type": "name", "properties": { "name": "urn:ogc:def:crs:OGC:1.3:CRS84" } },
"features": [
{ "type": "Feature", "properties": { "area_ha": 22.569561769200543 }, "geometry": { "type": "Polygon", "coordinates": [ [ [ -59.008534383243131, -18.341711639623981 ], [ -59.008534383243131, -18.34180147115239 ], [ -59.008624214771544, -18.34180147115239 ], [ -59.008624214771544, -18.341981134209213 ], [ -59.00871404629995, -18.341981134209213 ], [ -59.00871404629995, -18.34216079726604 ], [ -59.008803877828363, -18.34216079726604 ], [ -59.008803877828363, -18.342340460322863 ], [ -59.008893709356776, -18.342340460322863 ], [ -59.008893709356776, -18.342430291851276 ], [ -59.00898354088519, -18.342430291851276 ], [ -59.00898354088519, -18.342340460322863 ], [ -59.009163203942009, -18.342340460322863 ], [ -59.009163203942009, -18.342250628794449 ], [ -59.009342866998836, -18.342250628794449 ], [ -59.009342866998836, -18.34216079726604 ], [ -59.009612361584075, -18.34216079726604 ], [ -59.009612361584075, -18.342070965737626 ], [ -59.010061519226134, -18.342070965737626 ], [ -59.010061519226134, -18.34216079726604 ], [ -59.010241182282954, -18.34216079726604 ], [ -59.010241182282954, -18.342250628794449 ], [ -59.01042084533978, -18.342250628794449 ], [ -59.01042084533978, -18.342340460322863 ], [ -59.010600508396607, -18.342340460322863 ], [ -59.010600508396607, -18.342430291851276 ], [ -59.010780171453426, -18.342430291851276 ], [ -59.010780171453426, -18.342520123379686 ], [ -59.010959834510253, -18.342520123379686 ], [ -59.010959834510253, -18.342609954908099 ], [ -59.011049666038666, -18.342609954908099 ], [ -59.011049666038666, -18.342699786436512 ], [ -59.011229329095485, -18.342699786436512 ], [ -59.011229329095485, -18.342879449493335 ], [ -59.011319160623898, -18.342879449493335 ], [ -59.011319160623898, -18.343059112550158 ], [ -59.011408992152312, -18.343059112550158 ], [ -59.011408992152312, -18.343148944078571 ], [ -59.011498823680725, -18.343148944078571 ], [ -59.011498823680725, -18.343418438663807 ], [ -59.011588655209138, -18.343418438663807 ], [ -59.011588655209138, -18.343508270192217 ], [ -59.011678486737544, -18.343508270192217 ], [ -59.011678486737544, -18.343687933249043 ], [ -59.011768318265958, -18.343687933249043 ], [ -59.011768318265958, -18.343777764777453 ], [ -59.011858149794371, -18.343777764777453 ], [ -59.011858149794371, -18.344316753947925 ], [ -59.00350381765206, -18.344316753947925 ], [ -59.00350381765206, -18.341711639623981 ], [ -59.008534383243131, -18.341711639623981 ] ] ] } },
{ "type": "Feature", "properties": { "area_ha": 8.7627233230746508 }, "geometry": { "type": "Polygon", "coordinates": [ [ [ -59.006737752674887, -18.374949305136401 ], [ -59.006737752674887, -18.3771950933467 ], [ -59.003413986123647, -18.3771950933467 ], [ -59.003413986123647, -18.374949305136401 ], [ -59.006737752674887, -18.374949305136401 ] ] ] } },
{ "type": "Feature", "properties": { "area_ha": 37.058783883150909 }, "geometry": { "type": "Polygon", "coordinates": [ [ [ -59.019763324294622, -18.374859473607991 ], [ -59.019763324294622, -18.375039136664814 ], [ -59.019853155823036, -18.375039136664814 ], [ -59.019853155823036, -18.37530863125005 ], [ -59.019942987351449, -18.37530863125005 ], [ -59.019942987351449, -18.375488294306873 ], [ -59.020032818879862, -18.375488294306873 ], [ -59.020032818879862, -18.375667957363696 ], [ -59.020122650408268, -18.375667957363696 ], [ -59.020122650408268, -18.375937451948932 ], [ -59.020212481936682, -18.375937451948932 ], [ -59.020212481936682, -18.376117115005759 ], [ -59.020302313465095, -18.376117115005759 ], [ -59.020302313465095, -18.376296778062581 ], [ -59.020392144993508, -18.376296778062581 ], [ -59.020392144993508, -18.376386609590991 ], [ -59.020481976521921, -18.376386609590991 ], [ -59.020481976521921, -18.376476441119404 ], [ -59.020661639578741, -18.376476441119404 ], [ -59.020661639578741, -18.3771950933467 ], [ -59.006737752674887, -18.3771950933467 ], [ -59.006737752674887, -18.374859473607991 ], [ -59.019763324294622, -18.374859473607991 ] ] ] } },
{ "type": "Feature", "properties": { "area_ha": 42.630725100581031 }, "geometry": { "type": "Polygon", "coordinates": [ [ [ -59.015990400101323, -18.364888173954263 ], [ -59.015990400101323, -18.365067837011086 ], [ -59.016080231629736, -18.365067837011086 ], [ -59.016080231629736, -18.365337331596322 ], [ -59.016170063158143, -18.365337331596322 ], [ -59.016170063158143, -18.365516994653145 ], [ -59.016259894686556, -18.365516994653145 ], [ -59.016259894686556, -18.365786489238381 ], [ -59.016349726214969, -18.365786489238381 ], [ -59.016349726214969, -18.366055983823617 ], [ -59.016439557743382, -18.366055983823617 ], [ -59.016439557743382, -18.36623564688044 ], [ -59.016529389271795, -18.36623564688044 ], [ -59.016529389271795, -18.366415309937267 ], [ -59.016619220800202, -18.366415309937267 ], [ -59.016619220800202, -18.366684804522503 ], [ -59.016709052328615, -18.366684804522503 ], [ -59.016709052328615, -18.366864467579326 ], [ -59.016798883857028, -18.366864467579326 ], [ -59.016798883857028, -18.367044130636149 ], [ -59.016888715385441, -18.367044130636149 ], [ -59.016888715385441, -18.367313625221385 ], [ -59.016978546913855, -18.367313625221385 ], [ -59.016978546913855, -18.367583119806621 ], [ -59.014463264118319, -18.367583119806621 ], [ -59.014463264118319, -18.367672951335035 ], [ -59.007725899487419, -18.367672951335035 ], [ -59.007725899487419, -18.367762782863444 ], [ -59.00350381765206, -18.367762782863444 ], [ -59.00350381765206, -18.364978005482676 ], [ -59.004132638350946, -18.364978005482676 ], [ -59.004132638350946, -18.364888173954263 ], [ -59.015990400101323, -18.364888173954263 ] ] ] } },
{ "type": "Feature", "properties": { "area_ha": 38.151232006032409 }, "geometry": { "type": "Polygon", "coordinates": [ [ [ -59.014642927175139, -18.361564407403019 ], [ -59.014642927175139, -18.361654238931433 ], [ -59.014732758703552, -18.361654238931433 ], [ -59.014732758703552, -18.361923733516669 ], [ -59.014822590231965, -18.361923733516669 ], [ -59.014822590231965, -18.362103396573492 ], [ -59.014912421760378, -18.362103396573492 ], [ -59.014912421760378, -18.362283059630315 ], [ -59.015002253288792, -18.362283059630315 ], [ -59.015002253288792, -18.362552554215551 ], [ -59.015092084817205, -18.362552554215551 ], [ -59.015092084817205, -18.362732217272377 ], [ -59.015181916345611, -18.362732217272377 ], [ -59.015181916345611, -18.363001711857613 ], [ -59.015271747874024, -18.363001711857613 ], [ -59.015271747874024, -18.363181374914436 ], [ -59.015361579402438, -18.363181374914436 ], [ -59.015361579402438, -18.363361037971259 ], [ -59.015451410930851, -18.363361037971259 ], [ -59.015451410930851, -18.363540701028082 ], [ -59.015541242459264, -18.363540701028082 ], [ -59.015541242459264, -18.363630532556495 ], [ -59.01563107398767, -18.363630532556495 ], [ -59.01563107398767, -18.363900027141732 ], [ -59.015720905516083, -18.363900027141732 ], [ -59.015720905516083, -18.364259353255378 ], [ -59.01563107398767, -18.364259353255378 ], [ -59.01563107398767, -18.364349184783791 ], [ -59.015451410930851, -18.364349184783791 ], [ -59.015451410930851, -18.364259353255378 ], [ -59.014463264118319, -18.364259353255378 ], [ -59.014463264118319, -18.364349184783791 ], [ -59.00350381765206, -18.364349184783791 ], [ -59.00350381765206, -18.361654238931433 ], [ -59.004312301407765, -18.361654238931433 ], [ -59.004312301407765, -18.361564407403019 ], [ -59.014642927175139, -18.361564407403019 ] ] ] } },
{ "type": "Feature", "properties": { "area_ha": 51.618512917044178 }, "geometry": { "type": "Polygon", "coordinates": [ [ [ -59.018415851368445, -18.371535707056747 ], [ -59.018415851368445, -18.37171537011357 ], [ -59.018505682896858, -18.37171537011357 ], [ -59.018505682896858, -18.371895033170397 ], [ -59.018595514425265, -18.371895033170397 ], [ -59.018595514425265, -18.372074696227219 ], [ -59.018685345953678, -18.372074696227219 ], [ -59.018685345953678, -18.372344190812456 ], [ -59.018775177482091, -18.372344190812456 ], [ -59.018775177482091, -18.372613685397692 ], [ -59.018865009010504, -18.372613685397692 ], [ -59.018865009010504, -18.372793348454515 ], [ -59.018954840538917, -18.372793348454515 ], [ -59.018954840538917, -18.372973011511338 ], [ -59.019044672067331, -18.372973011511338 ], [ -59.019044672067331, -18.373242506096574 ], [ -59.019134503595737, -18.373242506096574 ], [ -59.019134503595737, -18.373332337624987 ], [ -59.01922433512415, -18.373332337624987 ], [ -59.01922433512415, -18.37351200068181 ], [ -59.019314166652563, -18.37351200068181 ], [ -59.019314166652563, -18.373691663738633 ], [ -59.019403998180977, -18.373691663738633 ], [ -59.019403998180977, -18.374230652909105 ], [ -59.019314166652563, -18.374230652909105 ], [ -59.019314166652563, -18.374320484437519 ], [ -59.01922433512415, -18.374320484437519 ], [ -59.01922433512415, -18.374230652909105 ], [ -59.018954840538917, -18.374230652909105 ], [ -59.018954840538917, -18.374320484437519 ], [ -59.010870002981839, -18.374320484437519 ], [ -59.010870002981839, -18.374410315965928 ], [ -59.003413986123647, -18.374410315965928 ], [ -59.003413986123647, -18.371535707056747 ], [ -59.018415851368445, -18.371535707056747 ] ] ] } },
{ "type": "Feature", "properties": { "area_ha": 38.404989601614453 }, "geometry": { "type": "Polygon", "coordinates": [ [ [ -59.017158209970674, -18.368122108977094 ], [ -59.017158209970674, -18.368301772033917 ], [ -59.017248041499087, -18.368301772033917 ], [ -59.017248041499087, -18.368571266619153 ], [ -59.0173378730275, -18.368571266619153 ], [ -59.0173378730275, -18.368750929675976 ], [ -59.017427704555914, -18.368750929675976 ], [ -59.017427704555914, -18.369020424261212 ], [ -59.017517536084327, -18.369020424261212 ], [ -59.017517536084327, -18.369200087318035 ], [ -59.017607367612733, -18.369200087318035 ], [ -59.017607367612733, -18.369379750374861 ], [ -59.017697199141146, -18.369379750374861 ], [ -59.017697199141146, -18.369559413431684 ], [ -59.01778703066956, -18.369559413431684 ], [ -59.01778703066956, -18.36982890801692 ], [ -59.017876862197973, -18.36982890801692 ], [ -59.017876862197973, -18.370188234130566 ], [ -59.017966693726386, -18.370188234130566 ], [ -59.017966693726386, -18.370278065658979 ], [ -59.018056525254799, -18.370278065658979 ], [ -59.018056525254799, -18.370547560244216 ], [ -59.018146356783205, -18.370547560244216 ], [ -59.018146356783205, -18.370996717886275 ], [ -59.018056525254799, -18.370996717886275 ], [ -59.018056525254799, -18.371086549414688 ], [ -59.017876862197973, -18.371086549414688 ], [ -59.017876862197973, -18.370996717886275 ], [ -59.01778703066956, -18.370996717886275 ], [ -59.01778703066956, -18.370906886357865 ], [ -59.017158209970674, -18.370906886357865 ], [ -59.017158209970674, -18.370996717886275 ], [ -59.016888715385441, -18.370996717886275 ], [ -59.016888715385441, -18.371086549414688 ], [ -59.014822590231965, -18.371086549414688 ], [ -59.014822590231965, -18.370996717886275 ], [ -59.014103938004673, -18.370996717886275 ], [ -59.014103938004673, -18.371086549414688 ], [ -59.013924274947847, -18.371086549414688 ], [ -59.013924274947847, -18.370996717886275 ], [ -59.008803877828363, -18.370996717886275 ], [ -59.008803877828363, -18.371086549414688 ], [ -59.006378426561241, -18.371086549414688 ], [ -59.006378426561241, -18.368301772033917 ], [ -59.006468258089654, -18.368301772033917 ], [ -59.006468258089654, -18.368211940505503 ], [ -59.008624214771544, -18.368211940505503 ], [ -59.008624214771544, -18.368122108977094 ], [ -59.017158209970674, -18.368122108977094 ] ] ] } },
{ "type": "Feature", "properties": { "area_ha": 9.0946173139290529 }, "geometry": { "type": "Polygon", "coordinates": [ [ [ -59.006378426561241, -18.36839160356233 ], [ -59.006378426561241, -18.371086549414688 ], [ -59.00350381765206, -18.371086549414688 ], [ -59.00350381765206, -18.36839160356233 ], [ -59.006378426561241, -18.36839160356233 ] ] ] } },
{ "type": "Feature", "properties": { "area_ha": 8.556113373129568 }, "geometry": { "type": "Polygon", "coordinates": [ [ [ -59.003593649180473, -18.337040400146556 ], [ -59.003593649180473, -18.337220063203382 ], [ -59.003683480708887, -18.337220063203382 ], [ -59.003683480708887, -18.337399726260205 ], [ -59.003773312237293, -18.337399726260205 ], [ -59.003773312237293, -18.337489557788619 ], [ -59.003863143765706, -18.337489557788619 ], [ -59.003863143765706, -18.337669220845441 ], [ -59.003952975294119, -18.337669220845441 ], [ -59.003952975294119, -18.337848883902264 ], [ -59.004042806822532, -18.337848883902264 ], [ -59.004042806822532, -18.338028546959087 ], [ -59.004132638350946, -18.338028546959087 ], [ -59.004132638350946, -18.338208210015914 ], [ -59.004222469879352, -18.338208210015914 ], [ -59.004222469879352, -18.338387873072737 ], [ -59.004312301407765, -18.338387873072737 ], [ -59.004312301407765, -18.33856753612956 ], [ -59.004402132936178, -18.33856753612956 ], [ -59.004402132936178, -18.338747199186386 ], [ -59.004491964464592, -18.338747199186386 ], [ -59.004491964464592, -18.338837030714796 ], [ -59.004581795993005, -18.338837030714796 ], [ -59.004581795993005, -18.338926862243209 ], [ -59.004671627521418, -18.338926862243209 ], [ -59.004671627521418, -18.339016693771619 ], [ -59.004761459049824, -18.339016693771619 ], [ -59.004761459049824, -18.339106525300032 ], [ -59.004941122106651, -18.339106525300032 ], [ -59.004941122106651, -18.339196356828445 ], [ -59.005030953635064, -18.339196356828445 ], [ -59.005030953635064, -18.339286188356855 ], [ -59.005210616691883, -18.339286188356855 ], [ -59.005210616691883, -18.339376019885268 ], [ -59.00539027974871, -18.339376019885268 ], [ -59.00539027974871, -18.339465851413681 ], [ -59.005569942805536, -18.339465851413681 ], [ -59.005569942805536, -18.339555682942091 ], [ -59.005659774333949, -18.339555682942091 ], [ -59.005659774333949, -18.339645514470504 ], [ -59.005839437390769, -18.339645514470504 ], [ -59.005839437390769, -18.339735345998918 ], [ -59.006019100447595, -18.339735345998918 ], [ -59.006019100447595, -18.339825177527327 ], [ -59.006198763504415, -18.339825177527327 ], [ -59.006198763504415, -18.339915009055741 ], [ -59.006288595032828, -18.339915009055741 ], [ -59.006288595032828, -18.34000484058415 ], [ -59.006468258089654, -18.34000484058415 ], [ -59.006468258089654, -18.340094672112564 ], [ -59.006647921146481, -18.340094672112564 ], [ -59.006647921146481, -18.340184503640977 ], [ -59.0068275842033, -18.340184503640977 ], [ -59.0068275842033, -18.340274335169386 ], [ -59.006917415731714, -18.340274335169386 ], [ -59.006917415731714, -18.3403641666978 ], [ -59.00709707878854, -18.3403641666978 ], [ -59.00709707878854, -18.340453998226213 ], [ -59.007276741845359, -18.340453998226213 ], [ -59.007276741845359, -18.340543829754623 ], [ -59.007456404902186, -18.340543829754623 ], [ -59.007456404902186, -18.340633661283036 ], [ -59.007725899487419, -18.340633661283036 ], [ -59.007725899487419, -18.340723492811449 ], [ -59.007815731015832, -18.340723492811449 ], [ -59.007815731015832, -18.340813324339859 ], [ -59.007905562544245, -18.340813324339859 ], [ -59.007905562544245, -18.341082818925095 ], [ -59.00350381765206, -18.341082818925095 ], [ -59.00350381765206, -18.337040400146556 ], [ -59.003593649180473, -18.337040400146556 ] ] ] } },
{ "type": "Feature", "properties": { "area_ha": 12.146246155182135 }, "geometry": { "type": "Polygon", "coordinates": [ [ [ -59.004761459049824, -18.351682939277705 ], [ -59.004761459049824, -18.351772770806118 ], [ -59.004851290578237, -18.351772770806118 ], [ -59.004851290578237, -18.351862602334531 ], [ -59.004941122106651, -18.351862602334531 ], [ -59.004941122106651, -18.351952433862941 ], [ -59.005030953635064, -18.351952433862941 ], [ -59.005030953635064, -18.352042265391354 ], [ -59.005210616691883, -18.352042265391354 ], [ -59.005210616691883, -18.352132096919764 ], [ -59.00539027974871, -18.352132096919764 ], [ -59.00539027974871, -18.352221928448177 ], [ -59.005659774333949, -18.352221928448177 ], [ -59.005659774333949, -18.35231175997659 ], [ -59.005839437390769, -18.35231175997659 ], [ -59.005839437390769, -18.352401591505 ], [ -59.006019100447595, -18.352401591505 ], [ -59.006019100447595, -18.352491423033413 ], [ -59.006198763504415, -18.352491423033413 ], [ -59.006198763504415, -18.352581254561827 ], [ -59.006378426561241, -18.352581254561827 ], [ -59.006378426561241, -18.352671086090236 ], [ -59.006647921146481, -18.352671086090236 ], [ -59.006647921146481, -18.352760917618649 ], [ -59.0068275842033, -18.352760917618649 ], [ -59.0068275842033, -18.352850749147063 ], [ -59.007007247260127, -18.352850749147063 ], [ -59.007007247260127, -18.352940580675472 ], [ -59.007186910316946, -18.352940580675472 ], [ -59.007186910316946, -18.353030412203886 ], [ -59.007366573373773, -18.353030412203886 ], [ -59.007366573373773, -18.353120243732295 ], [ -59.007546236430599, -18.353120243732295 ], [ -59.007546236430599, -18.353210075260709 ], [ -59.007725899487419, -18.353210075260709 ], [ -59.007725899487419, -18.353299906789122 ], [ -59.007905562544245, -18.353299906789122 ], [ -59.007905562544245, -18.353389738317532 ], [ -59.008085225601071, -18.353389738317532 ], [ -59.008085225601071, -18.353479569845945 ], [ -59.008264888657891, -18.353479569845945 ], [ -59.008264888657891, -18.353569401374358 ], [ -59.008534383243131, -18.353569401374358 ], [ -59.008534383243131, -18.353659232902768 ], [ -59.00871404629995, -18.353659232902768 ], [ -59.00871404629995, -18.353749064431181 ], [ -59.008893709356776, -18.353749064431181 ], [ -59.008893709356776, -18.353838895959594 ], [ -59.009073372413603, -18.353838895959594 ], [ -59.009073372413603, -18.353928727488004 ], [ -59.009342866998836, -18.353928727488004 ], [ -59.009342866998836, -18.354018559016417 ], [ -59.009522530055662, -18.354018559016417 ], [ -59.009522530055662, -18.35419822207324 ], [ -59.009432698527249, -18.35419822207324 ], [ -59.009432698527249, -18.354288053601653 ], [ -59.008444551714717, -18.354288053601653 ], [ -59.008444551714717, -18.354377885130063 ], [ -59.007456404902186, -18.354377885130063 ], [ -59.007456404902186, -18.354467716658476 ], [ -59.00350381765206, -18.354467716658476 ], [ -59.00350381765206, -18.351682939277705 ], [ -59.004761459049824, -18.351682939277705 ] ] ] } },
{ "type": "Feature", "properties": { "area_ha": 27.315504919347109 }, "geometry": { "type": "Polygon", "coordinates": [ [ [ -59.012037812851197, -18.345035406175221 ], [ -59.012037812851197, -18.345215069232044 ], [ -59.012127644379611, -18.345215069232044 ], [ -59.012127644379611, -18.345304900760457 ], [ -59.012217475908017, -18.345304900760457 ], [ -59.012217475908017, -18.34539473228887 ], [ -59.01230730743643, -18.34539473228887 ], [ -59.01230730743643, -18.347640520499169 ], [ -59.007995394072658, -18.347640520499169 ], [ -59.007995394072658, -18.347730352027579 ], [ -59.00350381765206, -18.347730352027579 ], [ -59.00350381765206, -18.345035406175221 ], [ -59.012037812851197, -18.345035406175221 ] ] ] } }
]
}
