{
"type": "FeatureCollection",
"name": "serro_alto_LOTE-01_small",
"crs": { "type": "name", "properties": { "name": "urn:ogc:def:crs:OGC:1.3:CRS84" } },
"features": [
{ "type": "Feature", "properties": { "area_ha": 8.8574580790395512 }, "geometry": { "type": "Polygon", "coordinates": [ [ [ -59.006647921146481, -18.374859473607991 ], [ -59.006647921146481, -18.374949305136401 ], [ -59.006737752674887, -18.374949305136401 ], [ -59.006737752674887, -18.3771950933467 ], [ -59.00350381765206, -18.3771950933467 ], [ -59.00350381765206, -18.374859473607991 ], [ -59.006647921146481, -18.374859473607991 ] ] ] } },
{ "type": "Feature", "properties": { "area_ha": 26.818348547283183 }, "geometry": { "type": "Polygon", "coordinates": [ [ [ -59.016080231629736, -18.374769642079578 ], [ -59.016080231629736, -18.374859473607991 ], [ -59.016259894686556, -18.374859473607991 ], [ -59.016259894686556, -18.3771950933467 ], [ -59.0068275842033, -18.3771950933467 ], [ -59.0068275842033, -18.374859473607991 ], [ -59.007007247260127, -18.374859473607991 ], [ -59.007007247260127, -18.374769642079578 ], [ -59.016080231629736, -18.374769642079578 ] ] ] } },
{ "type": "Feature", "properties": { "area_ha": 67.73625768908822 }, "geometry": { "type": "Polygon", "coordinates": [ [ [ -59.004222469879352, -18.338298041544324 ], [ -59.004222469879352, -18.338387873072737 ], [ -59.004312301407765, -18.338387873072737 ], [ -59.004312301407765, -18.33847770460115 ], [ -59.004402132936178, -18.33847770460115 ], [ -59.004402132936178, -18.338657367657973 ], [ -59.004491964464592, -18.338657367657973 ], [ -59.004491964464592, -18.338747199186386 ], [ -59.004581795993005, -18.338747199186386 ], [ -59.004581795993005, -18.338926862243209 ], [ -59.004761459049824, -18.338926862243209 ], [ -59.004761459049824, -18.339016693771619 ], [ -59.004851290578237, -18.339016693771619 ], [ -59.004851290578237, -18.339106525300032 ], [ -59.004941122106651, -18.339106525300032 ], [ -59.004941122106651, -18.339196356828445 ], [ -59.005120785163477, -18.339196356828445 ], [ -59.005120785163477, -18.339286188356855 ], [ -59.005210616691883, -18.339286188356855 ], [ -59.005210616691883, -18.339376019885268 ], [ -59.00539027974871, -18.339376019885268 ], [ -59.00539027974871, -18.339465851413681 ], [ -59.005480111277123, -18.339465851413681 ], [ -59.005480111277123, -18.339555682942091 ], [ -59.005659774333949, -18.339555682942091 ], [ -59.005659774333949, -18.339645514470504 ], [ -59.005749605862356, -18.339645514470504 ], [ -59.005749605862356, -18.339735345998918 ], [ -59.006019100447595, -18.339735345998918 ], [ -59.006019100447595, -18.339825177527327 ], [ -59.006198763504415, -18.339825177527327 ], [ -59.006198763504415, -18.339915009055741 ], [ -59.006288595032828, -18.339915009055741 ], [ -59.006288595032828, -18.34000484058415 ], [ -59.006468258089654, -18.34000484058415 ], [ -59.006468258089654, -18.340094672112564 ], [ -59.006647921146481, -18.340094672112564 ], [ -59.006647921146481, -18.340184503640977 ], [ -59.006737752674887, -18.340184503640977 ], [ -59.006737752674887, -18.340274335169386 ], [ -59.006917415731714, -18.340274335169386 ], [ -59.006917415731714, -18.3403641666978 ], [ -59.00709707878854, -18.3403641666978 ], [ -59.00709707878854, -18.340453998226213 ], [ -59.007186910316946, -18.340453998226213 ], [ -59.007186910316946, -18.340543829754623 ], [ -59.007276741845359, -18.340543829754623 ], [ -59.007276741845359, -18.340633661283036 ], [ -59.007456404902186, -18.340633661283036 ], [ -59.007456404902186, -18.340723492811449 ], [ -59.007546236430599, -18.340723492811449 ], [ -59.007546236430599, -18.340903155868272 ], [ -59.007815731015832, -18.340903155868272 ], [ -59.007815731015832, -18.340992987396682 ], [ -59.007995394072658, -18.340992987396682 ], [ -59.007995394072658, -18.341082818925095 ], [ -59.008175057129478, -18.341082818925095 ], [ -59.008175057129478, -18.341172650453508 ], [ -59.008354720186304, -18.341172650453508 ], [ -59.008354720186304, -18.341262481981918 ], [ -59.008444551714717, -18.341262481981918 ], [ -59.008444551714717, -18.341442145038744 ], [ -59.008534383243131, -18.341442145038744 ], [ -59.008534383243131, -18.341531976567154 ], [ -59.008624214771544, -18.341531976567154 ], [ -59.008624214771544, -18.341711639623981 ], [ -59.00871404629995, -18.341711639623981 ], [ -59.00871404629995, -18.341891302680803 ], [ -59.008803877828363, -18.341891302680803 ], [ -59.008803877828363, -18.34216079726604 ], [ -59.008893709356776, -18.34216079726604 ], [ -59.008893709356776, -18.342250628794449 ], [ -59.009253035470422, -18.342250628794449 ], [ -59.009253035470422, -18.34216079726604 ], [ -59.009612361584075, -18.34216079726604 ], [ -59.009612361584075, -18.342070965737626 ], [ -59.009881856169308, -18.342070965737626 ], [ -59.009881856169308, -18.34216079726604 ], [ -59.010241182282954, -18.34216079726604 ], [ -59.010241182282954, -18.342250628794449 ], [ -59.01042084533978, -18.342250628794449 ], [ -59.01042084533978, -18.342340460322863 ], [ -59.010510676868194, -18.342340460322863 ], [ -59.010510676868194, -18.342430291851276 ], [ -59.010690339925013, -18.342430291851276 ], [ -59.010690339925013, -18.342520123379686 ], [ -59.010870002981839, -18.342520123379686 ], [ -59.010870002981839, -18.342609954908099 ], [ -59.011049666038666, -18.342609954908099 ], [ -59.011049666038666, -18.342699786436512 ], [ -59.011139497567079, -18.342699786436512 ], [ -59.011139497567079, -18.342789617964922 ], [ -59.011229329095485, -18.342789617964922 ], [ -59.011229329095485, -18.342969281021748 ], [ -59.011319160623898, -18.342969281021748 ], [ -59.011319160623898, -18.343059112550158 ], [ -59.011408992152312, -18.343059112550158 ], [ -59.011408992152312, -18.343238775606981 ], [ -59.011498823680725, -18.343238775606981 ], [ -59.011498823680725, -18.343418438663807 ], [ -59.011588655209138, -18.343418438663807 ], [ -59.011588655209138, -18.343508270192217 ], [ -59.011678486737544, -18.343508270192217 ], [ -59.011678486737544, -18.343777764777453 ], [ -59.011768318265958, -18.343777764777453 ], [ -59.011768318265958, -18.344586248533162 ], [ -59.011858149794371, -18.344586248533162 ], [ -59.011858149794371, -18.344765911589985 ], [ -59.011947981322784, -18.344765911589985 ], [ -59.011947981322784, -18.345125237703634 ], [ -59.012037812851197, -18.345125237703634 ], [ -59.012037812851197, -18.345664226874106 ], [ -59.012127644379611, -18.345664226874106 ], [ -59.012127644379611, -18.345933721459343 ], [ -59.012217475908017, -18.345933721459343 ], [ -59.012217475908017, -18.346203216044575 ], [ -59.01230730743643, -18.346203216044575 ], [ -59.01230730743643, -18.347460857442343 ], [ -59.012217475908017, -18.347460857442343 ], [ -59.012217475908017, -18.347550688970756 ], [ -59.011947981322784, -18.347550688970756 ], [ -59.011947981322784, -18.347640520499169 ], [ -59.00350381765206, -18.347640520499169 ], [ -59.00350381765206, -18.338298041544324 ], [ -59.004222469879352, -18.338298041544324 ] ] ] } },
{ "type": "Feature", "properties": { "area_ha": 79.54696452233739 }, "geometry": { "type": "Polygon", "coordinates": [ [ [ -59.017158209970674, -18.368122108977094 ], [ -59.017158209970674, -18.368211940505503 ], [ -59.017248041499087, -18.368211940505503 ], [ -59.017248041499087, -18.368571266619153 ], [ -59.0173378730275, -18.368571266619153 ], [ -59.0173378730275, -18.368840761204389 ], [ -59.017427704555914, -18.368840761204389 ], [ -59.017427704555914, -18.368930592732802 ], [ -59.017517536084327, -18.368930592732802 ], [ -59.017517536084327, -18.369200087318035 ], [ -59.017607367612733, -18.369200087318035 ], [ -59.017607367612733, -18.369469581903271 ], [ -59.017697199141146, -18.369469581903271 ], [ -59.017697199141146, -18.369649244960097 ], [ -59.01778703066956, -18.369649244960097 ], [ -59.01778703066956, -18.370008571073743 ], [ -59.017876862197973, -18.370008571073743 ], [ -59.017876862197973, -18.370188234130566 ], [ -59.017966693726386, -18.370188234130566 ], [ -59.017966693726386, -18.374230652909105 ], [ -59.0173378730275, -18.374230652909105 ], [ -59.0173378730275, -18.374140821380692 ], [ -59.016978546913855, -18.374140821380692 ], [ -59.016978546913855, -18.374050989852282 ], [ -59.016798883857028, -18.374050989852282 ], [ -59.016798883857028, -18.373961158323869 ], [ -59.016349726214969, -18.373961158323869 ], [ -59.016349726214969, -18.374050989852282 ], [ -59.016170063158143, -18.374050989852282 ], [ -59.016170063158143, -18.374140821380692 ], [ -59.015810737044497, -18.374140821380692 ], [ -59.015810737044497, -18.374230652909105 ], [ -59.015720905516083, -18.374230652909105 ], [ -59.015720905516083, -18.374320484437519 ], [ -59.015181916345611, -18.374320484437519 ], [ -59.015181916345611, -18.374230652909105 ], [ -59.014822590231965, -18.374230652909105 ], [ -59.014822590231965, -18.374320484437519 ], [ -59.014732758703552, -18.374320484437519 ], [ -59.014732758703552, -18.374230652909105 ], [ -59.013295454248961, -18.374230652909105 ], [ -59.013295454248961, -18.374320484437519 ], [ -59.01042084533978, -18.374320484437519 ], [ -59.01042084533978, -18.374410315965928 ], [ -59.006558089618068, -18.374410315965928 ], [ -59.006558089618068, -18.368122108977094 ], [ -59.017158209970674, -18.368122108977094 ] ], [ [ -59.016709052328615, -18.370457728715802 ], [ -59.016529389271795, -18.370457728715802 ], [ -59.016529389271795, -18.370547560244216 ], [ -59.016080231629736, -18.370547560244216 ], [ -59.016080231629736, -18.371086549414688 ], [ -59.015990400101323, -18.371086549414688 ], [ -59.015990400101323, -18.371805201641983 ], [ -59.016080231629736, -18.371805201641983 ], [ -59.016080231629736, -18.372074696227219 ], [ -59.016259894686556, -18.372074696227219 ], [ -59.016259894686556, -18.371984864698806 ], [ -59.016439557743382, -18.371984864698806 ], [ -59.016439557743382, -18.371895033170397 ], [ -59.016709052328615, -18.371895033170397 ], [ -59.016709052328615, -18.371805201641983 ], [ -59.016888715385441, -18.371805201641983 ], [ -59.016888715385441, -18.37171537011357 ], [ -59.016978546913855, -18.37171537011357 ], [ -59.016978546913855, -18.37162553858516 ], [ -59.017068378442268, -18.37162553858516 ], [ -59.017068378442268, -18.371535707056747 ], [ -59.017158209970674, -18.371535707056747 ], [ -59.017158209970674, -18.371356043999924 ], [ -59.017697199141146, -18.371356043999924 ], [ -59.017697199141146, -18.370817054829452 ], [ -59.017517536084327, -18.370817054829452 ], [ -59.017517536084327, -18.370727223301039 ], [ -59.016798883857028, -18.370727223301039 ], [ -59.016798883857028, -18.370637391772629 ], [ -59.016709052328615, -18.370637391772629 ], [ -59.016709052328615, -18.370457728715802 ] ], [ [ -59.015990400101323, -18.372164527755629 ], [ -59.015810737044497, -18.372164527755629 ], [ -59.015810737044497, -18.372523853869279 ], [ -59.01590056857291, -18.372523853869279 ], [ -59.01590056857291, -18.372344190812456 ], [ -59.015990400101323, -18.372344190812456 ], [ -59.015990400101323, -18.372164527755629 ] ] ] } },
{ "type": "Feature", "properties": { "area_ha": 10.922322942653059 }, "geometry": { "type": "Polygon", "coordinates": [ [ [ -59.019673492766209, -18.374859473607991 ], [ -59.019673492766209, -18.374949305136401 ], [ -59.019763324294622, -18.374949305136401 ], [ -59.019763324294622, -18.375039136664814 ], [ -59.019853155823036, -18.375039136664814 ], [ -59.019853155823036, -18.375218799721637 ], [ -59.019942987351449, -18.375218799721637 ], [ -59.019942987351449, -18.375488294306873 ], [ -59.020032818879862, -18.375488294306873 ], [ -59.020032818879862, -18.375667957363696 ], [ -59.020122650408268, -18.375667957363696 ], [ -59.020122650408268, -18.375847620420522 ], [ -59.020212481936682, -18.375847620420522 ], [ -59.020212481936682, -18.376117115005759 ], [ -59.020302313465095, -18.376117115005759 ], [ -59.020302313465095, -18.376296778062581 ], [ -59.020392144993508, -18.376296778062581 ], [ -59.020392144993508, -18.376476441119404 ], [ -59.020481976521921, -18.376476441119404 ], [ -59.020481976521921, -18.376656104176227 ], [ -59.020571808050327, -18.376656104176227 ], [ -59.020571808050327, -18.376835767233054 ], [ -59.020661639578741, -18.376835767233054 ], [ -59.020661639578741, -18.376925598761463 ], [ -59.020751471107154, -18.376925598761463 ], [ -59.020751471107154, -18.3771950933467 ], [ -59.016259894686556, -18.3771950933467 ], [ -59.016259894686556, -18.374859473607991 ], [ -59.019673492766209, -18.374859473607991 ] ] ] } },
{ "type": "Feature", "properties": { "area_ha": 14.866126764133837 }, "geometry": { "type": "Polygon", "coordinates": [ [ [ -59.027219341152815, -18.334435285822611 ], [ -59.027219341152815, -18.342070965737626 ], [ -59.027039678095989, -18.342070965737626 ], [ -59.027039678095989, -18.341981134209213 ], [ -59.026949846567582, -18.341981134209213 ], [ -59.026949846567582, -18.341711639623981 ], [ -59.026860015039169, -18.341711639623981 ], [ -59.026860015039169, -18.341621808095567 ], [ -59.026770183510756, -18.341621808095567 ], [ -59.026770183510756, -18.341172650453508 ], [ -59.026680351982343, -18.341172650453508 ], [ -59.026680351982343, -18.340903155868272 ], [ -59.026590520453929, -18.340903155868272 ], [ -59.026590520453929, -18.340813324339859 ], [ -59.026500688925516, -18.340813324339859 ], [ -59.026500688925516, -18.340453998226213 ], [ -59.02641085739711, -18.340453998226213 ], [ -59.02641085739711, -18.340184503640977 ], [ -59.026321025868697, -18.340184503640977 ], [ -59.026321025868697, -18.34000484058415 ], [ -59.026231194340284, -18.34000484058415 ], [ -59.026231194340284, -18.339825177527327 ], [ -59.02614136281187, -18.339825177527327 ], [ -59.02614136281187, -18.339555682942091 ], [ -59.026051531283457, -18.339555682942091 ], [ -59.026051531283457, -18.339376019885268 ], [ -59.025961699755051, -18.339376019885268 ], [ -59.025961699755051, -18.339106525300032 ], [ -59.025871868226638, -18.339106525300032 ], [ -59.025871868226638, -18.338837030714796 ], [ -59.025782036698224, -18.338837030714796 ], [ -59.025782036698224, -18.338657367657973 ], [ -59.025692205169811, -18.338657367657973 ], [ -59.025692205169811, -18.338298041544324 ], [ -59.025602373641398, -18.338298041544324 ], [ -59.025602373641398, -18.338028546959087 ], [ -59.025512542112985, -18.338028546959087 ], [ -59.025512542112985, -18.337759052373855 ], [ -59.025422710584579, -18.337759052373855 ], [ -59.025422710584579, -18.337489557788619 ], [ -59.025332879056165, -18.337489557788619 ], [ -59.025332879056165, -18.337220063203382 ], [ -59.025243047527752, -18.337220063203382 ], [ -59.025243047527752, -18.337040400146556 ], [ -59.025153215999339, -18.337040400146556 ], [ -59.025153215999339, -18.336860737089733 ], [ -59.025063384470926, -18.336860737089733 ], [ -59.025063384470926, -18.33668107403291 ], [ -59.024973552942519, -18.33668107403291 ], [ -59.024973552942519, -18.336501410976087 ], [ -59.024883721414106, -18.336501410976087 ], [ -59.024883721414106, -18.336411579447674 ], [ -59.024793889885693, -18.336411579447674 ], [ -59.024793889885693, -18.336231916390851 ], [ -59.02470405835728, -18.336231916390851 ], [ -59.02470405835728, -18.336052253334024 ], [ -59.024614226828866, -18.336052253334024 ], [ -59.024614226828866, -18.335872590277202 ], [ -59.024524395300453, -18.335872590277202 ], [ -59.024524395300453, -18.335782758748792 ], [ -59.024434563772047, -18.335782758748792 ], [ -59.024434563772047, -18.335692927220379 ], [ -59.024344732243634, -18.335692927220379 ], [ -59.024344732243634, -18.335423432635142 ], [ -59.024254900715221, -18.335423432635142 ], [ -59.024254900715221, -18.335333601106729 ], [ -59.024165069186807, -18.335333601106729 ], [ -59.024165069186807, -18.335153938049906 ], [ -59.024075237658394, -18.335153938049906 ], [ -59.024075237658394, -18.334435285822611 ], [ -59.027219341152815, -18.334435285822611 ] ] ] } },
{ "type": "Feature", "properties": { "area_ha": 9.9280986735880052 }, "geometry": { "type": "Polygon", "coordinates": [ [ [ -59.006378426561241, -18.37162553858516 ], [ -59.006378426561241, -18.372164527755629 ], [ -59.006468258089654, -18.372164527755629 ], [ -59.006468258089654, -18.374410315965928 ], [ -59.006288595032828, -18.374410315965928 ], [ -59.006288595032828, -18.374500147494341 ], [ -59.00350381765206, -18.374500147494341 ], [ -59.00350381765206, -18.37162553858516 ], [ -59.006378426561241, -18.37162553858516 ] ] ] } },
{ "type": "Feature", "properties": { "area_ha": 126.64867493532844 }, "geometry": { "type": "Polygon", "coordinates": [ [ [ -59.010870002981839, -18.354827042772126 ], [ -59.010870002981839, -18.354916874300535 ], [ -59.011049666038666, -18.354916874300535 ], [ -59.011049666038666, -18.355006705828949 ], [ -59.011139497567079, -18.355006705828949 ], [ -59.011139497567079, -18.355186368885771 ], [ -59.011229329095485, -18.355186368885771 ], [ -59.011229329095485, -18.355276200414185 ], [ -59.011319160623898, -18.355276200414185 ], [ -59.011319160623898, -18.355366031942594 ], [ -59.011408992152312, -18.355366031942594 ], [ -59.011408992152312, -18.355545694999421 ], [ -59.011498823680725, -18.355545694999421 ], [ -59.011498823680725, -18.355635526527831 ], [ -59.011588655209138, -18.355635526527831 ], [ -59.011588655209138, -18.355725358056244 ], [ -59.011678486737544, -18.355725358056244 ], [ -59.011678486737544, -18.355815189584657 ], [ -59.011768318265958, -18.355815189584657 ], [ -59.011768318265958, -18.35599485264148 ], [ -59.011858149794371, -18.35599485264148 ], [ -59.011858149794371, -18.35608468416989 ], [ -59.011947981322784, -18.35608468416989 ], [ -59.011947981322784, -18.356264347226716 ], [ -59.012037812851197, -18.356264347226716 ], [ -59.012037812851197, -18.356354178755126 ], [ -59.012127644379611, -18.356354178755126 ], [ -59.012127644379611, -18.356444010283539 ], [ -59.012217475908017, -18.356444010283539 ], [ -59.012217475908017, -18.356623673340362 ], [ -59.01230730743643, -18.356623673340362 ], [ -59.01230730743643, -18.356803336397189 ], [ -59.012397138964843, -18.356803336397189 ], [ -59.012397138964843, -18.356893167925598 ], [ -59.012486970493256, -18.356893167925598 ], [ -59.012486970493256, -18.357072830982421 ], [ -59.01257680202167, -18.357072830982421 ], [ -59.01257680202167, -18.357162662510834 ], [ -59.012666633550076, -18.357162662510834 ], [ -59.012666633550076, -18.357252494039248 ], [ -59.012756465078489, -18.357252494039248 ], [ -59.012756465078489, -18.357521988624484 ], [ -59.012846296606902, -18.357521988624484 ], [ -59.012846296606902, -18.357611820152894 ], [ -59.012936128135316, -18.357611820152894 ], [ -59.012936128135316, -18.35779148320972 ], [ -59.013025959663729, -18.35779148320972 ], [ -59.013025959663729, -18.35788131473813 ], [ -59.013115791192142, -18.35788131473813 ], [ -59.013115791192142, -18.357971146266543 ], [ -59.013205622720548, -18.357971146266543 ], [ -59.013205622720548, -18.358060977794953 ], [ -59.013295454248961, -18.358060977794953 ], [ -59.013295454248961, -18.358240640851779 ], [ -59.013385285777375, -18.358240640851779 ], [ -59.013385285777375, -18.358330472380189 ], [ -59.013475117305788, -18.358330472380189 ], [ -59.013475117305788, -18.358510135437015 ], [ -59.013564948834201, -18.358510135437015 ], [ -59.013564948834201, -18.358779630022251 ], [ -59.013654780362607, -18.358779630022251 ], [ -59.013654780362607, -18.359049124607488 ], [ -59.01374461189102, -18.359049124607488 ], [ -59.01374461189102, -18.359228787664311 ], [ -59.013834443419434, -18.359228787664311 ], [ -59.013834443419434, -18.359588113777956 ], [ -59.013924274947847, -18.359588113777956 ], [ -59.013924274947847, -18.359857608363193 ], [ -59.01401410647626, -18.359857608363193 ], [ -59.01401410647626, -18.360037271420019 ], [ -59.014103938004673, -18.360037271420019 ], [ -59.014103938004673, -18.360306766005252 ], [ -59.01419376953308, -18.360306766005252 ], [ -59.01419376953308, -18.360486429062078 ], [ -59.014283601061493, -18.360486429062078 ], [ -59.014283601061493, -18.360755923647314 ], [ -59.014373432589906, -18.360755923647314 ], [ -59.014373432589906, -18.361294912817783 ], [ -59.014463264118319, -18.361294912817783 ], [ -59.014463264118319, -18.361384744346196 ], [ -59.014553095646733, -18.361384744346196 ], [ -59.014553095646733, -18.361564407403019 ], [ -59.014642927175139, -18.361564407403019 ], [ -59.014642927175139, -18.361744070459846 ], [ -59.014732758703552, -18.361744070459846 ], [ -59.014732758703552, -18.361923733516669 ], [ -59.014822590231965, -18.361923733516669 ], [ -59.014822590231965, -18.362103396573492 ], [ -59.014912421760378, -18.362103396573492 ], [ -59.014912421760378, -18.362372891158728 ], [ -59.015002253288792, -18.362372891158728 ], [ -59.015002253288792, -18.362552554215551 ], [ -59.015092084817205, -18.362552554215551 ], [ -59.015092084817205, -18.362732217272377 ], [ -59.015181916345611, -18.362732217272377 ], [ -59.015181916345611, -18.363001711857613 ], [ -59.015271747874024, -18.363001711857613 ], [ -59.015271747874024, -18.363091543386023 ], [ -59.015361579402438, -18.363091543386023 ], [ -59.015361579402438, -18.365516994653145 ], [ -59.003593649180473, -18.365516994653145 ], [ -59.003593649180473, -18.354827042772126 ], [ -59.005839437390769, -18.354827042772126 ], [ -59.005839437390769, -18.355635526527831 ], [ -59.005749605862356, -18.355635526527831 ], [ -59.005749605862356, -18.355725358056244 ], [ -59.005839437390769, -18.355725358056244 ], [ -59.005839437390769, -18.355905021113067 ], [ -59.005929268919182, -18.355905021113067 ], [ -59.005929268919182, -18.356174515698303 ], [ -59.005839437390769, -18.356174515698303 ], [ -59.005839437390769, -18.356444010283539 ], [ -59.005749605862356, -18.356444010283539 ], [ -59.005749605862356, -18.356623673340362 ], [ -59.005659774333949, -18.356623673340362 ], [ -59.005659774333949, -18.357342325567657 ], [ -59.005569942805536, -18.357342325567657 ], [ -59.005569942805536, -18.357432157096071 ], [ -59.005480111277123, -18.357432157096071 ], [ -59.005480111277123, -18.357701651681307 ], [ -59.005569942805536, -18.357701651681307 ], [ -59.005569942805536, -18.357971146266543 ], [ -59.005659774333949, -18.357971146266543 ], [ -59.005659774333949, -18.358510135437015 ], [ -59.005749605862356, -18.358510135437015 ], [ -59.005749605862356, -18.358959293079074 ], [ -59.005839437390769, -18.358959293079074 ], [ -59.005839437390769, -18.359588113777956 ], [ -59.005749605862356, -18.359588113777956 ], [ -59.005749605862356, -18.359857608363193 ], [ -59.005839437390769, -18.359857608363193 ], [ -59.005839437390769, -18.360216934476842 ], [ -59.006019100447595, -18.360216934476842 ], [ -59.006019100447595, -18.358689798493838 ], [ -59.006108931976009, -18.358689798493838 ], [ -59.006108931976009, -18.358330472380189 ], [ -59.006198763504415, -18.358330472380189 ], [ -59.006198763504415, -18.357701651681307 ], [ -59.006288595032828, -18.357701651681307 ], [ -59.006288595032828, -18.357252494039248 ], [ -59.006198763504415, -18.357252494039248 ], [ -59.006198763504415, -18.356623673340362 ], [ -59.006108931976009, -18.356623673340362 ], [ -59.006108931976009, -18.356264347226716 ], [ -59.006019100447595, -18.356264347226716 ], [ -59.006019100447595, -18.354827042772126 ], [ -59.010870002981839, -18.354827042772126 ] ] ] } },
{ "type": "Feature", "properties": { "area_ha": 18.85364284136239 }, "geometry": { "type": "Polygon", "coordinates": [ [ [ -59.006198763504415, -18.354916874300535 ], [ -59.006198763504415, -18.355725358056244 ], [ -59.006288595032828, -18.355725358056244 ], [ -59.006288595032828, -18.356444010283539 ], [ -59.006378426561241, -18.356444010283539 ], [ -59.006378426561241, -18.357432157096071 ], [ -59.006288595032828, -18.357432157096071 ], [ -59.006288595032828, -18.358240640851779 ], [ -59.006198763504415, -18.358240640851779 ], [ -59.006198763504415, -18.359228787664311 ], [ -59.006108931976009, -18.359228787664311 ], [ -59.006108931976009, -18.35967794530637 ], [ -59.006019100447595, -18.35967794530637 ], [ -59.006019100447595, -18.360666092118901 ], [ -59.006108931976009, -18.360666092118901 ], [ -59.006108931976009, -18.360845755175724 ], [ -59.00350381765206, -18.360845755175724 ], [ -59.00350381765206, -18.354916874300535 ], [ -59.006198763504415, -18.354916874300535 ] ] ] } },
{ "type": "Feature", "properties": { "area_ha": 4.7753911042644264 }, "geometry": { "type": "Polygon", "coordinates": [ [ [ -59.027219341152815, -18.334435285822611 ], [ -59.027219341152815, -18.335782758748792 ], [ -59.024614226828866, -18.335782758748792 ], [ -59.024614226828866, -18.335692927220379 ], [ -59.024524395300453, -18.335692927220379 ], [ -59.024524395300453, -18.335603095691965 ], [ -59.024434563772047, -18.335603095691965 ], [ -59.024434563772047, -18.335513264163556 ], [ -59.024344732243634, -18.335513264163556 ], [ -59.024344732243634, -18.335423432635142 ], [ -59.024254900715221, -18.335423432635142 ], [ -59.024254900715221, -18.335153938049906 ], [ -59.024165069186807, -18.335153938049906 ], [ -59.024165069186807, -18.335064106521493 ], [ -59.024075237658394, -18.335064106521493 ], [ -59.024075237658394, -18.33479461193626 ], [ -59.023985406129988, -18.33479461193626 ], [ -59.023985406129988, -18.334435285822611 ], [ -59.027219341152815, -18.334435285822611 ] ] ] } },
{ "type": "Feature", "properties": { "area_ha": 7.4001441885692536 }, "geometry": { "type": "Polygon", "coordinates": [ [ [ -59.004222469879352, -18.338298041544324 ], [ -59.004222469879352, -18.338387873072737 ], [ -59.004312301407765, -18.338387873072737 ], [ -59.004312301407765, -18.33856753612956 ], [ -59.004402132936178, -18.33856753612956 ], [ -59.004402132936178, -18.338657367657973 ], [ -59.004491964464592, -18.338657367657973 ], [ -59.004491964464592, -18.338837030714796 ], [ -59.004581795993005, -18.338837030714796 ], [ -59.004581795993005, -18.338926862243209 ], [ -59.004671627521418, -18.338926862243209 ], [ -59.004671627521418, -18.339016693771619 ], [ -59.004761459049824, -18.339016693771619 ], [ -59.004761459049824, -18.339106525300032 ], [ -59.004941122106651, -18.339106525300032 ], [ -59.004941122106651, -18.339196356828445 ], [ -59.005030953635064, -18.339196356828445 ], [ -59.005030953635064, -18.339286188356855 ], [ -59.005210616691883, -18.339286188356855 ], [ -59.005210616691883, -18.339376019885268 ], [ -59.005300448220297, -18.339376019885268 ], [ -59.005300448220297, -18.339465851413681 ], [ -59.005480111277123, -18.339465851413681 ], [ -59.005480111277123, -18.339555682942091 ], [ -59.005659774333949, -18.339555682942091 ], [ -59.005659774333949, -18.339645514470504 ], [ -59.005749605862356, -18.339645514470504 ], [ -59.005749605862356, -18.339735345998918 ], [ -59.005929268919182, -18.339735345998918 ], [ -59.005929268919182, -18.339825177527327 ], [ -59.006198763504415, -18.339825177527327 ], [ -59.006198763504415, -18.339915009055741 ], [ -59.006288595032828, -18.339915009055741 ], [ -59.006288595032828, -18.34000484058415 ], [ -59.006468258089654, -18.34000484058415 ], [ -59.006468258089654, -18.340094672112564 ], [ -59.006647921146481, -18.340094672112564 ], [ -59.006647921146481, -18.340184503640977 ], [ -59.006737752674887, -18.340184503640977 ], [ -59.006737752674887, -18.340274335169386 ], [ -59.006917415731714, -18.340274335169386 ], [ -59.006917415731714, -18.3403641666978 ], [ -59.00709707878854, -18.3403641666978 ], [ -59.00709707878854, -18.340453998226213 ], [ -59.007186910316946, -18.340453998226213 ], [ -59.007186910316946, -18.340543829754623 ], [ -59.007366573373773, -18.340543829754623 ], [ -59.007366573373773, -18.340633661283036 ], [ -59.007546236430599, -18.340633661283036 ], [ -59.007546236430599, -18.340723492811449 ], [ -59.007636067959012, -18.340723492811449 ], [ -59.007636067959012, -18.340813324339859 ], [ -59.007725899487419, -18.340813324339859 ], [ -59.007725899487419, -18.340903155868272 ], [ -59.007905562544245, -18.340903155868272 ], [ -59.007905562544245, -18.340992987396682 ], [ -59.00350381765206, -18.340992987396682 ], [ -59.00350381765206, -18.338298041544324 ], [ -59.004222469879352, -18.338298041544324 ] ] ] } },
{ "type": "Feature", "properties": { "area_ha": 65.249737527394686 }, "geometry": { "type": "Polygon", "coordinates": [ [ [ -59.026949846567582, -18.369918739545334 ], [ -59.026949846567582, -18.370008571073743 ], [ -59.027039678095989, -18.370008571073743 ], [ -59.027039678095989, -18.376476441119404 ], [ -59.026949846567582, -18.376476441119404 ], [ -59.026949846567582, -18.376925598761463 ], [ -59.027039678095989, -18.376925598761463 ], [ -59.027039678095989, -18.3771950933467 ], [ -59.020751471107154, -18.3771950933467 ], [ -59.020751471107154, -18.377015430289877 ], [ -59.020661639578741, -18.377015430289877 ], [ -59.020661639578741, -18.376835767233054 ], [ -59.020571808050327, -18.376835767233054 ], [ -59.020571808050327, -18.376566272647818 ], [ -59.020481976521921, -18.376566272647818 ], [ -59.020481976521921, -18.376296778062581 ], [ -59.020392144993508, -18.376296778062581 ], [ -59.020392144993508, -18.376117115005759 ], [ -59.020302313465095, -18.376117115005759 ], [ -59.020302313465095, -18.375847620420522 ], [ -59.020212481936682, -18.375847620420522 ], [ -59.020212481936682, -18.375578125835286 ], [ -59.020122650408268, -18.375578125835286 ], [ -59.020122650408268, -18.37530863125005 ], [ -59.020032818879862, -18.37530863125005 ], [ -59.020032818879862, -18.375039136664814 ], [ -59.019942987351449, -18.375039136664814 ], [ -59.019942987351449, -18.374859473607991 ], [ -59.019853155823036, -18.374859473607991 ], [ -59.019853155823036, -18.374679810551164 ], [ -59.019763324294622, -18.374679810551164 ], [ -59.019763324294622, -18.374500147494341 ], [ -59.019673492766209, -18.374500147494341 ], [ -59.019673492766209, -18.374230652909105 ], [ -59.019583661237796, -18.374230652909105 ], [ -59.019583661237796, -18.373871326795459 ], [ -59.01949382970939, -18.373871326795459 ], [ -59.01949382970939, -18.373601832210223 ], [ -59.019403998180977, -18.373601832210223 ], [ -59.019403998180977, -18.373422169153397 ], [ -59.019314166652563, -18.373422169153397 ], [ -59.019314166652563, -18.373152674568161 ], [ -59.01922433512415, -18.373152674568161 ], [ -59.01922433512415, -18.372883179982928 ], [ -59.019134503595737, -18.372883179982928 ], [ -59.019134503595737, -18.372703516926101 ], [ -59.019044672067331, -18.372703516926101 ], [ -59.019044672067331, -18.372434022340865 ], [ -59.018954840538917, -18.372434022340865 ], [ -59.018954840538917, -18.372254359284042 ], [ -59.018865009010504, -18.372254359284042 ], [ -59.018865009010504, -18.372074696227219 ], [ -59.018775177482091, -18.372074696227219 ], [ -59.018775177482091, -18.371895033170397 ], [ -59.018685345953678, -18.371895033170397 ], [ -59.018685345953678, -18.37171537011357 ], [ -59.018595514425265, -18.37171537011357 ], [ -59.018595514425265, -18.371535707056747 ], [ -59.018505682896858, -18.371535707056747 ], [ -59.018505682896858, -18.371356043999924 ], [ -59.018415851368445, -18.371356043999924 ], [ -59.018415851368445, -18.371086549414688 ], [ -59.018326019840032, -18.371086549414688 ], [ -59.018326019840032, -18.370817054829452 ], [ -59.018236188311619, -18.370817054829452 ], [ -59.018236188311619, -18.369918739545334 ], [ -59.026949846567582, -18.369918739545334 ] ] ] } },
{ "type": "Feature", "properties": { "area_ha": 6.7835356624946739 }, "geometry": { "type": "Polygon", "coordinates": [ [ [ -59.009792024640895, -18.354557548186889 ], [ -59.009792024640895, -18.357701651681307 ], [ -59.009612361584075, -18.357701651681307 ], [ -59.009612361584075, -18.357611820152894 ], [ -59.008803877828363, -18.357611820152894 ], [ -59.008803877828363, -18.357521988624484 ], [ -59.008264888657891, -18.357521988624484 ], [ -59.008264888657891, -18.357432157096071 ], [ -59.007995394072658, -18.357432157096071 ], [ -59.007995394072658, -18.357342325567657 ], [ -59.007815731015832, -18.357342325567657 ], [ -59.007815731015832, -18.357252494039248 ], [ -59.007546236430599, -18.357252494039248 ], [ -59.007546236430599, -18.357162662510834 ], [ -59.007456404902186, -18.357162662510834 ], [ -59.007456404902186, -18.356444010283539 ], [ -59.007366573373773, -18.356444010283539 ], [ -59.007366573373773, -18.35608468416989 ], [ -59.007456404902186, -18.35608468416989 ], [ -59.007456404902186, -18.355905021113067 ], [ -59.007546236430599, -18.355905021113067 ], [ -59.007546236430599, -18.355725358056244 ], [ -59.007815731015832, -18.355725358056244 ], [ -59.007815731015832, -18.355276200414185 ], [ -59.007546236430599, -18.355276200414185 ], [ -59.007546236430599, -18.355186368885771 ], [ -59.007456404902186, -18.355186368885771 ], [ -59.007456404902186, -18.355096537357358 ], [ -59.007546236430599, -18.355096537357358 ], [ -59.007546236430599, -18.355006705828949 ], [ -59.009253035470422, -18.355006705828949 ], [ -59.009253035470422, -18.354916874300535 ], [ -59.009522530055662, -18.354916874300535 ], [ -59.009522530055662, -18.354827042772126 ], [ -59.009612361584075, -18.354827042772126 ], [ -59.009612361584075, -18.354557548186889 ], [ -59.009792024640895, -18.354557548186889 ] ] ] } },
{ "type": "Feature", "properties": { "area_ha": 33.027313533720871 }, "geometry": { "type": "Polygon", "coordinates": [ [ [ -59.004671627521418, -18.351682939277705 ], [ -59.004671627521418, -18.351772770806118 ], [ -59.004761459049824, -18.351772770806118 ], [ -59.004761459049824, -18.351862602334531 ], [ -59.004941122106651, -18.351862602334531 ], [ -59.004941122106651, -18.351952433862941 ], [ -59.005030953635064, -18.351952433862941 ], [ -59.005030953635064, -18.352042265391354 ], [ -59.005210616691883, -18.352042265391354 ], [ -59.005210616691883, -18.352132096919764 ], [ -59.00539027974871, -18.352132096919764 ], [ -59.00539027974871, -18.352221928448177 ], [ -59.005569942805536, -18.352221928448177 ], [ -59.005569942805536, -18.35231175997659 ], [ -59.005749605862356, -18.35231175997659 ], [ -59.005749605862356, -18.352401591505 ], [ -59.005929268919182, -18.352401591505 ], [ -59.005929268919182, -18.352491423033413 ], [ -59.006108931976009, -18.352491423033413 ], [ -59.006108931976009, -18.352581254561827 ], [ -59.006288595032828, -18.352581254561827 ], [ -59.006288595032828, -18.352671086090236 ], [ -59.006468258089654, -18.352671086090236 ], [ -59.006468258089654, -18.352760917618649 ], [ -59.006647921146481, -18.352760917618649 ], [ -59.006647921146481, -18.352850749147063 ], [ -59.0068275842033, -18.352850749147063 ], [ -59.0068275842033, -18.352940580675472 ], [ -59.007007247260127, -18.352940580675472 ], [ -59.007007247260127, -18.353030412203886 ], [ -59.007186910316946, -18.353030412203886 ], [ -59.007186910316946, -18.353120243732295 ], [ -59.007366573373773, -18.353120243732295 ], [ -59.007366573373773, -18.353210075260709 ], [ -59.007636067959012, -18.353210075260709 ], [ -59.007636067959012, -18.353299906789122 ], [ -59.007815731015832, -18.353299906789122 ], [ -59.007815731015832, -18.353389738317532 ], [ -59.008085225601071, -18.353389738317532 ], [ -59.008085225601071, -18.353479569845945 ], [ -59.008264888657891, -18.353479569845945 ], [ -59.008264888657891, -18.353569401374358 ], [ -59.008444551714717, -18.353569401374358 ], [ -59.008444551714717, -18.353659232902768 ], [ -59.00871404629995, -18.353659232902768 ], [ -59.00871404629995, -18.353749064431181 ], [ -59.008893709356776, -18.353749064431181 ], [ -59.008893709356776, -18.353838895959594 ], [ -59.009073372413603, -18.353838895959594 ], [ -59.009073372413603, -18.353928727488004 ], [ -59.009253035470422, -18.353928727488004 ], [ -59.009253035470422, -18.354018559016417 ], [ -59.009342866998836, -18.354018559016417 ], [ -59.009342866998836, -18.354108390544827 ], [ -59.009432698527249, -18.354108390544827 ], [ -59.009432698527249, -18.35419822207324 ], [ -59.009522530055662, -18.35419822207324 ], [ -59.009522530055662, -18.354557548186889 ], [ -59.009253035470422, -18.354557548186889 ], [ -59.009253035470422, -18.354467716658476 ], [ -59.008444551714717, -18.354467716658476 ], [ -59.008444551714717, -18.354557548186889 ], [ -59.008175057129478, -18.354557548186889 ], [ -59.008175057129478, -18.354647379715299 ], [ -59.007905562544245, -18.354647379715299 ], [ -59.007905562544245, -18.354737211243712 ], [ -59.007456404902186, -18.354737211243712 ], [ -59.007456404902186, -18.354647379715299 ], [ -59.007366573373773, -18.354647379715299 ], [ -59.007366573373773, -18.354557548186889 ], [ -59.00709707878854, -18.354557548186889 ], [ -59.00709707878854, -18.354467716658476 ], [ -59.006468258089654, -18.354467716658476 ], [ -59.006468258089654, -18.354557548186889 ], [ -59.006378426561241, -18.354557548186889 ], [ -59.006378426561241, -18.354737211243712 ], [ -59.006288595032828, -18.354737211243712 ], [ -59.006288595032828, -18.355096537357358 ], [ -59.006378426561241, -18.355096537357358 ], [ -59.006378426561241, -18.355186368885771 ], [ -59.006288595032828, -18.355186368885771 ], [ -59.006288595032828, -18.355905021113067 ], [ -59.006378426561241, -18.355905021113067 ], [ -59.006378426561241, -18.357432157096071 ], [ -59.006288595032828, -18.357432157096071 ], [ -59.006288595032828, -18.358150809323366 ], [ -59.006198763504415, -18.358150809323366 ], [ -59.006198763504415, -18.359138956135897 ], [ -59.006108931976009, -18.359138956135897 ], [ -59.006108931976009, -18.35967794530637 ], [ -59.006019100447595, -18.35967794530637 ], [ -59.006019100447595, -18.360755923647314 ], [ -59.006108931976009, -18.360755923647314 ], [ -59.006108931976009, -18.360845755175724 ], [ -59.00350381765206, -18.360845755175724 ], [ -59.00350381765206, -18.351682939277705 ], [ -59.004671627521418, -18.351682939277705 ] ] ] } },
{ "type": "Feature", "properties": { "area_ha": 48.043210775372906 }, "geometry": { "type": "Polygon", "coordinates": [ [ [ -59.011049666038666, -18.354916874300535 ], [ -59.011049666038666, -18.355006705828949 ], [ -59.011139497567079, -18.355006705828949 ], [ -59.011139497567079, -18.355186368885771 ], [ -59.011229329095485, -18.355186368885771 ], [ -59.011229329095485, -18.355276200414185 ], [ -59.011319160623898, -18.355276200414185 ], [ -59.011319160623898, -18.355366031942594 ], [ -59.011408992152312, -18.355366031942594 ], [ -59.011408992152312, -18.355545694999421 ], [ -59.011498823680725, -18.355545694999421 ], [ -59.011498823680725, -18.355635526527831 ], [ -59.011588655209138, -18.355635526527831 ], [ -59.011588655209138, -18.355725358056244 ], [ -59.011678486737544, -18.355725358056244 ], [ -59.011678486737544, -18.355815189584657 ], [ -59.011768318265958, -18.355815189584657 ], [ -59.011768318265958, -18.35599485264148 ], [ -59.011858149794371, -18.35599485264148 ], [ -59.011858149794371, -18.35608468416989 ], [ -59.011947981322784, -18.35608468416989 ], [ -59.011947981322784, -18.356174515698303 ], [ -59.012037812851197, -18.356174515698303 ], [ -59.012037812851197, -18.356354178755126 ], [ -59.012127644379611, -18.356354178755126 ], [ -59.012127644379611, -18.356533841811952 ], [ -59.012217475908017, -18.356533841811952 ], [ -59.012217475908017, -18.356623673340362 ], [ -59.01230730743643, -18.356623673340362 ], [ -59.01230730743643, -18.356803336397189 ], [ -59.012397138964843, -18.356803336397189 ], [ -59.012397138964843, -18.356893167925598 ], [ -59.012486970493256, -18.356893167925598 ], [ -59.012486970493256, -18.356982999454011 ], [ -59.01257680202167, -18.356982999454011 ], [ -59.01257680202167, -18.357162662510834 ], [ -59.012666633550076, -18.357162662510834 ], [ -59.012666633550076, -18.357252494039248 ], [ -59.012756465078489, -18.357252494039248 ], [ -59.012756465078489, -18.357521988624484 ], [ -59.012846296606902, -18.357521988624484 ], [ -59.012846296606902, -18.357611820152894 ], [ -59.012936128135316, -18.357611820152894 ], [ -59.012936128135316, -18.357701651681307 ], [ -59.013025959663729, -18.357701651681307 ], [ -59.013025959663729, -18.35788131473813 ], [ -59.013115791192142, -18.35788131473813 ], [ -59.013115791192142, -18.357971146266543 ], [ -59.013205622720548, -18.357971146266543 ], [ -59.013205622720548, -18.358060977794953 ], [ -59.013295454248961, -18.358060977794953 ], [ -59.013295454248961, -18.358150809323366 ], [ -59.013385285777375, -18.358150809323366 ], [ -59.013385285777375, -18.358330472380189 ], [ -59.013475117305788, -18.358330472380189 ], [ -59.013475117305788, -18.358510135437015 ], [ -59.013564948834201, -18.358510135437015 ], [ -59.013564948834201, -18.358779630022251 ], [ -59.013654780362607, -18.358779630022251 ], [ -59.013654780362607, -18.359049124607488 ], [ -59.01374461189102, -18.359049124607488 ], [ -59.01374461189102, -18.359228787664311 ], [ -59.013834443419434, -18.359228787664311 ], [ -59.013834443419434, -18.359588113777956 ], [ -59.013924274947847, -18.359588113777956 ], [ -59.013924274947847, -18.359857608363193 ], [ -59.01401410647626, -18.359857608363193 ], [ -59.01401410647626, -18.360037271420019 ], [ -59.014103938004673, -18.360037271420019 ], [ -59.014103938004673, -18.36111524976096 ], [ -59.006378426561241, -18.36111524976096 ], [ -59.006378426561241, -18.354916874300535 ], [ -59.011049666038666, -18.354916874300535 ] ] ] } },
{ "type": "Feature", "properties": { "area_ha": 9.6914552790802997 }, "geometry": { "type": "Polygon", "coordinates": [ [ [ -59.006378426561241, -18.368211940505503 ], [ -59.006378426561241, -18.370996717886275 ], [ -59.006288595032828, -18.370996717886275 ], [ -59.006288595032828, -18.371086549414688 ], [ -59.00350381765206, -18.371086549414688 ], [ -59.00350381765206, -18.368211940505503 ], [ -59.006378426561241, -18.368211940505503 ] ] ] } },
{ "type": "Feature", "properties": { "area_ha": 12.296165142565613 }, "geometry": { "type": "Polygon", "coordinates": [ [ [ -59.017966693726386, -18.370098402602157 ], [ -59.017966693726386, -18.370188234130566 ], [ -59.018056525254799, -18.370188234130566 ], [ -59.018056525254799, -18.370457728715802 ], [ -59.018146356783205, -18.370457728715802 ], [ -59.018146356783205, -18.370906886357865 ], [ -59.018236188311619, -18.370906886357865 ], [ -59.018236188311619, -18.371086549414688 ], [ -59.018326019840032, -18.371086549414688 ], [ -59.018326019840032, -18.371445875528334 ], [ -59.018415851368445, -18.371445875528334 ], [ -59.018415851368445, -18.37162553858516 ], [ -59.018505682896858, -18.37162553858516 ], [ -59.018505682896858, -18.371805201641983 ], [ -59.018595514425265, -18.371805201641983 ], [ -59.018595514425265, -18.372074696227219 ], [ -59.018685345953678, -18.372074696227219 ], [ -59.018685345953678, -18.372254359284042 ], [ -59.018775177482091, -18.372254359284042 ], [ -59.018775177482091, -18.372434022340865 ], [ -59.018865009010504, -18.372434022340865 ], [ -59.018865009010504, -18.372703516926101 ], [ -59.018954840538917, -18.372703516926101 ], [ -59.018954840538917, -18.372883179982928 ], [ -59.019044672067331, -18.372883179982928 ], [ -59.019044672067331, -18.372973011511338 ], [ -59.019134503595737, -18.372973011511338 ], [ -59.019134503595737, -18.373242506096574 ], [ -59.01922433512415, -18.373242506096574 ], [ -59.01922433512415, -18.373422169153397 ], [ -59.019314166652563, -18.373422169153397 ], [ -59.019314166652563, -18.373601832210223 ], [ -59.019403998180977, -18.373601832210223 ], [ -59.019403998180977, -18.374230652909105 ], [ -59.016349726214969, -18.374230652909105 ], [ -59.016349726214969, -18.374140821380692 ], [ -59.016259894686556, -18.374140821380692 ], [ -59.016259894686556, -18.374050989852282 ], [ -59.016170063158143, -18.374050989852282 ], [ -59.016170063158143, -18.372523853869279 ], [ -59.016259894686556, -18.372523853869279 ], [ -59.016259894686556, -18.372164527755629 ], [ -59.016170063158143, -18.372164527755629 ], [ -59.016170063158143, -18.370098402602157 ], [ -59.017966693726386, -18.370098402602157 ] ] ] } },
{ "type": "Feature", "properties": { "area_ha": 28.253750715732796 }, "geometry": { "type": "Polygon", "coordinates": [ [ [ -59.012037812851197, -18.344855743118398 ], [ -59.012037812851197, -18.34548456381728 ], [ -59.012127644379611, -18.34548456381728 ], [ -59.012127644379611, -18.345754058402516 ], [ -59.012217475908017, -18.345754058402516 ], [ -59.012217475908017, -18.346023552987752 ], [ -59.01230730743643, -18.346023552987752 ], [ -59.01230730743643, -18.346652373686638 ], [ -59.012397138964843, -18.346652373686638 ], [ -59.012397138964843, -18.347371025913933 ], [ -59.01230730743643, -18.347371025913933 ], [ -59.01230730743643, -18.347550688970756 ], [ -59.012037812851197, -18.347550688970756 ], [ -59.012037812851197, -18.347640520499169 ], [ -59.003593649180473, -18.347640520499169 ], [ -59.003593649180473, -18.344855743118398 ], [ -59.012037812851197, -18.344855743118398 ] ] ] } },
{ "type": "Feature", "properties": { "area_ha": 11.113623578496322 }, "geometry": { "type": "Polygon", "coordinates": [ [ [ -59.004761459049824, -18.351682939277705 ], [ -59.004761459049824, -18.351772770806118 ], [ -59.004851290578237, -18.351772770806118 ], [ -59.004851290578237, -18.351862602334531 ], [ -59.004941122106651, -18.351862602334531 ], [ -59.004941122106651, -18.351952433862941 ], [ -59.005030953635064, -18.351952433862941 ], [ -59.005030953635064, -18.352042265391354 ], [ -59.005300448220297, -18.352042265391354 ], [ -59.005300448220297, -18.352132096919764 ], [ -59.00539027974871, -18.352132096919764 ], [ -59.00539027974871, -18.352221928448177 ], [ -59.005569942805536, -18.352221928448177 ], [ -59.005569942805536, -18.35231175997659 ], [ -59.005749605862356, -18.35231175997659 ], [ -59.005749605862356, -18.352401591505 ], [ -59.005929268919182, -18.352401591505 ], [ -59.005929268919182, -18.352491423033413 ], [ -59.006108931976009, -18.352491423033413 ], [ -59.006108931976009, -18.352581254561827 ], [ -59.006288595032828, -18.352581254561827 ], [ -59.006288595032828, -18.352671086090236 ], [ -59.006468258089654, -18.352671086090236 ], [ -59.006468258089654, -18.352760917618649 ], [ -59.006647921146481, -18.352760917618649 ], [ -59.006647921146481, -18.352850749147063 ], [ -59.006917415731714, -18.352850749147063 ], [ -59.006917415731714, -18.352940580675472 ], [ -59.00709707878854, -18.352940580675472 ], [ -59.00709707878854, -18.353030412203886 ], [ -59.007186910316946, -18.353030412203886 ], [ -59.007186910316946, -18.353120243732295 ], [ -59.007456404902186, -18.353120243732295 ], [ -59.007456404902186, -18.353210075260709 ], [ -59.007636067959012, -18.353210075260709 ], [ -59.007636067959012, -18.353299906789122 ], [ -59.007815731015832, -18.353299906789122 ], [ -59.007815731015832, -18.353389738317532 ], [ -59.008085225601071, -18.353389738317532 ], [ -59.008085225601071, -18.353479569845945 ], [ -59.008354720186304, -18.353479569845945 ], [ -59.008354720186304, -18.353569401374358 ], [ -59.008534383243131, -18.353569401374358 ], [ -59.008534383243131, -18.353659232902768 ], [ -59.008803877828363, -18.353659232902768 ], [ -59.008803877828363, -18.353749064431181 ], [ -59.00898354088519, -18.353749064431181 ], [ -59.00898354088519, -18.353838895959594 ], [ -59.009163203942009, -18.353838895959594 ], [ -59.009163203942009, -18.353928727488004 ], [ -59.009342866998836, -18.353928727488004 ], [ -59.009342866998836, -18.354018559016417 ], [ -59.009432698527249, -18.354018559016417 ], [ -59.009432698527249, -18.354108390544827 ], [ -59.009522530055662, -18.354108390544827 ], [ -59.009522530055662, -18.35419822207324 ], [ -59.009612361584075, -18.35419822207324 ], [ -59.009612361584075, -18.354288053601653 ], [ -59.00350381765206, -18.354288053601653 ], [ -59.00350381765206, -18.351682939277705 ], [ -59.004761459049824, -18.351682939277705 ] ] ] } },
{ "type": "Feature", "properties": { "area_ha": 4.3204842608059515 }, "geometry": { "type": "Polygon", "coordinates": [ [ [ -59.027219341152815, -18.338028546959087 ], [ -59.027219341152815, -18.338118378487501 ], [ -59.027039678095989, -18.338118378487501 ], [ -59.027039678095989, -18.338387873072737 ], [ -59.027219341152815, -18.338387873072737 ], [ -59.027219341152815, -18.34216079726604 ], [ -59.027039678095989, -18.34216079726604 ], [ -59.027039678095989, -18.342070965737626 ], [ -59.026949846567582, -18.342070965737626 ], [ -59.026949846567582, -18.34180147115239 ], [ -59.026860015039169, -18.34180147115239 ], [ -59.026860015039169, -18.341621808095567 ], [ -59.026770183510756, -18.341621808095567 ], [ -59.026770183510756, -18.341262481981918 ], [ -59.026680351982343, -18.341262481981918 ], [ -59.026680351982343, -18.340903155868272 ], [ -59.026590520453929, -18.340903155868272 ], [ -59.026590520453929, -18.340723492811449 ], [ -59.026500688925516, -18.340723492811449 ], [ -59.026500688925516, -18.340453998226213 ], [ -59.02641085739711, -18.340453998226213 ], [ -59.02641085739711, -18.340184503640977 ], [ -59.026321025868697, -18.340184503640977 ], [ -59.026321025868697, -18.34000484058415 ], [ -59.026231194340284, -18.34000484058415 ], [ -59.026231194340284, -18.339735345998918 ], [ -59.02614136281187, -18.339735345998918 ], [ -59.02614136281187, -18.339555682942091 ], [ -59.026051531283457, -18.339555682942091 ], [ -59.026051531283457, -18.339376019885268 ], [ -59.025961699755051, -18.339376019885268 ], [ -59.025961699755051, -18.339106525300032 ], [ -59.025871868226638, -18.339106525300032 ], [ -59.025871868226638, -18.338837030714796 ], [ -59.025782036698224, -18.338837030714796 ], [ -59.025782036698224, -18.338028546959087 ], [ -59.027219341152815, -18.338028546959087 ] ] ] } },
{ "type": "Feature", "properties": { "area_ha": 131.4282318231609 }, "geometry": { "type": "Polygon", "coordinates": [ [ [ -59.014373432589906, -18.36111524976096 ], [ -59.014373432589906, -18.361294912817783 ], [ -59.014463264118319, -18.361294912817783 ], [ -59.014463264118319, -18.361384744346196 ], [ -59.014553095646733, -18.361384744346196 ], [ -59.014553095646733, -18.361564407403019 ], [ -59.014642927175139, -18.361564407403019 ], [ -59.014642927175139, -18.361744070459846 ], [ -59.014732758703552, -18.361744070459846 ], [ -59.014732758703552, -18.361923733516669 ], [ -59.014822590231965, -18.361923733516669 ], [ -59.014822590231965, -18.362103396573492 ], [ -59.014912421760378, -18.362103396573492 ], [ -59.014912421760378, -18.362372891158728 ], [ -59.015002253288792, -18.362372891158728 ], [ -59.015002253288792, -18.362552554215551 ], [ -59.015092084817205, -18.362552554215551 ], [ -59.015092084817205, -18.362822048800787 ], [ -59.015181916345611, -18.362822048800787 ], [ -59.015181916345611, -18.363001711857613 ], [ -59.015271747874024, -18.363001711857613 ], [ -59.015271747874024, -18.363091543386023 ], [ -59.015361579402438, -18.363091543386023 ], [ -59.015361579402438, -18.363271206442846 ], [ -59.015451410930851, -18.363271206442846 ], [ -59.015451410930851, -18.363540701028082 ], [ -59.015541242459264, -18.363540701028082 ], [ -59.015541242459264, -18.363720364084909 ], [ -59.01563107398767, -18.363720364084909 ], [ -59.01563107398767, -18.364349184783791 ], [ -59.015720905516083, -18.364349184783791 ], [ -59.015720905516083, -18.364618679369027 ], [ -59.015810737044497, -18.364618679369027 ], [ -59.015810737044497, -18.36470851089744 ], [ -59.01590056857291, -18.36470851089744 ], [ -59.01590056857291, -18.364888173954263 ], [ -59.015990400101323, -18.364888173954263 ], [ -59.015990400101323, -18.365157668539499 ], [ -59.016080231629736, -18.365157668539499 ], [ -59.016080231629736, -18.365337331596322 ], [ -59.016170063158143, -18.365337331596322 ], [ -59.016170063158143, -18.365516994653145 ], [ -59.016259894686556, -18.365516994653145 ], [ -59.016259894686556, -18.365786489238381 ], [ -59.016349726214969, -18.365786489238381 ], [ -59.016349726214969, -18.365966152295208 ], [ -59.016439557743382, -18.365966152295208 ], [ -59.016439557743382, -18.366145815352031 ], [ -59.016529389271795, -18.366145815352031 ], [ -59.016529389271795, -18.366415309937267 ], [ -59.016619220800202, -18.366415309937267 ], [ -59.016619220800202, -18.367583119806621 ], [ -59.016529389271795, -18.367583119806621 ], [ -59.016529389271795, -18.367493288278208 ], [ -59.016259894686556, -18.367493288278208 ], [ -59.016259894686556, -18.367583119806621 ], [ -59.015810737044497, -18.367583119806621 ], [ -59.015810737044497, -18.367672951335035 ], [ -59.015361579402438, -18.367672951335035 ], [ -59.015361579402438, -18.367762782863444 ], [ -59.015181916345611, -18.367762782863444 ], [ -59.015181916345611, -18.367852614391857 ], [ -59.015092084817205, -18.367852614391857 ], [ -59.015092084817205, -18.367942445920271 ], [ -59.015002253288792, -18.367942445920271 ], [ -59.015002253288792, -18.36803227744868 ], [ -59.014912421760378, -18.36803227744868 ], [ -59.014912421760378, -18.368122108977094 ], [ -59.014822590231965, -18.368122108977094 ], [ -59.014822590231965, -18.368211940505503 ], [ -59.01419376953308, -18.368211940505503 ], [ -59.01419376953308, -18.36839160356233 ], [ -59.014283601061493, -18.36839160356233 ], [ -59.014283601061493, -18.368661098147566 ], [ -59.014373432589906, -18.368661098147566 ], [ -59.014373432589906, -18.368750929675976 ], [ -59.014553095646733, -18.368750929675976 ], [ -59.014553095646733, -18.368840761204389 ], [ -59.014822590231965, -18.368840761204389 ], [ -59.014822590231965, -18.368930592732802 ], [ -59.014912421760378, -18.368930592732802 ], [ -59.014912421760378, -18.369020424261212 ], [ -59.015002253288792, -18.369020424261212 ], [ -59.015002253288792, -18.369110255789625 ], [ -59.015361579402438, -18.369110255789625 ], [ -59.015361579402438, -18.369020424261212 ], [ -59.015541242459264, -18.369020424261212 ], [ -59.015541242459264, -18.368930592732802 ], [ -59.015720905516083, -18.368930592732802 ], [ -59.015720905516083, -18.368840761204389 ], [ -59.016080231629736, -18.368840761204389 ], [ -59.016080231629736, -18.368930592732802 ], [ -59.016439557743382, -18.368930592732802 ], [ -59.016439557743382, -18.368840761204389 ], [ -59.016619220800202, -18.368840761204389 ], [ -59.016619220800202, -18.369918739545334 ], [ -59.016080231629736, -18.369918739545334 ], [ -59.016080231629736, -18.370008571073743 ], [ -59.015541242459264, -18.370008571073743 ], [ -59.015541242459264, -18.369918739545334 ], [ -59.015092084817205, -18.369918739545334 ], [ -59.015092084817205, -18.370008571073743 ], [ -59.014283601061493, -18.370008571073743 ], [ -59.014283601061493, -18.370098402602157 ], [ -59.014103938004673, -18.370098402602157 ], [ -59.014103938004673, -18.370188234130566 ], [ -59.01419376953308, -18.370188234130566 ], [ -59.01419376953308, -18.370278065658979 ], [ -59.014463264118319, -18.370278065658979 ], [ -59.014463264118319, -18.370367897187393 ], [ -59.00350381765206, -18.370367897187393 ], [ -59.00350381765206, -18.36111524976096 ], [ -59.014373432589906, -18.36111524976096 ] ] ] } },
{ "type": "Feature", "properties": { "area_ha": 21.896675635370968 }, "geometry": { "type": "Polygon", "coordinates": [ [ [ -59.008624214771544, -18.341531976567154 ], [ -59.008624214771544, -18.341711639623981 ], [ -59.00871404629995, -18.341711639623981 ], [ -59.00871404629995, -18.342070965737626 ], [ -59.008803877828363, -18.342070965737626 ], [ -59.008803877828363, -18.342340460322863 ], [ -59.009073372413603, -18.342340460322863 ], [ -59.009073372413603, -18.342250628794449 ], [ -59.009253035470422, -18.342250628794449 ], [ -59.009253035470422, -18.34216079726604 ], [ -59.009612361584075, -18.34216079726604 ], [ -59.009612361584075, -18.342070965737626 ], [ -59.010061519226134, -18.342070965737626 ], [ -59.010061519226134, -18.34216079726604 ], [ -59.010241182282954, -18.34216079726604 ], [ -59.010241182282954, -18.342250628794449 ], [ -59.01042084533978, -18.342250628794449 ], [ -59.01042084533978, -18.342340460322863 ], [ -59.010600508396607, -18.342340460322863 ], [ -59.010600508396607, -18.342430291851276 ], [ -59.010780171453426, -18.342430291851276 ], [ -59.010780171453426, -18.342520123379686 ], [ -59.010959834510253, -18.342520123379686 ], [ -59.010959834510253, -18.342609954908099 ], [ -59.011049666038666, -18.342609954908099 ], [ -59.011049666038666, -18.342699786436512 ], [ -59.011139497567079, -18.342699786436512 ], [ -59.011139497567079, -18.342789617964922 ], [ -59.011229329095485, -18.342789617964922 ], [ -59.011229329095485, -18.342879449493335 ], [ -59.011319160623898, -18.342879449493335 ], [ -59.011319160623898, -18.343059112550158 ], [ -59.011408992152312, -18.343059112550158 ], [ -59.011408992152312, -18.343238775606981 ], [ -59.011498823680725, -18.343238775606981 ], [ -59.011498823680725, -18.343418438663807 ], [ -59.011588655209138, -18.343418438663807 ], [ -59.011588655209138, -18.343508270192217 ], [ -59.011678486737544, -18.343508270192217 ], [ -59.011678486737544, -18.343687933249043 ], [ -59.011768318265958, -18.343687933249043 ], [ -59.011768318265958, -18.344406585476339 ], [ -59.005480111277123, -18.344406585476339 ], [ -59.005480111277123, -18.344496417004748 ], [ -59.004491964464592, -18.344496417004748 ], [ -59.004491964464592, -18.344406585476339 ], [ -59.004312301407765, -18.344406585476339 ], [ -59.004312301407765, -18.341531976567154 ], [ -59.008624214771544, -18.341531976567154 ] ] ] } },
{ "type": "Feature", "properties": { "area_ha": 4.4721484781335628 }, "geometry": { "type": "Polygon", "coordinates": [ [ [ -59.027219341152815, -18.335872590277202 ], [ -59.027219341152815, -18.337489557788619 ], [ -59.027039678095989, -18.337489557788619 ], [ -59.027039678095989, -18.337759052373855 ], [ -59.025512542112985, -18.337759052373855 ], [ -59.025512542112985, -18.337579389317028 ], [ -59.025422710584579, -18.337579389317028 ], [ -59.025422710584579, -18.337309894731792 ], [ -59.025332879056165, -18.337309894731792 ], [ -59.025332879056165, -18.337130231674969 ], [ -59.025243047527752, -18.337130231674969 ], [ -59.025243047527752, -18.336950568618146 ], [ -59.025153215999339, -18.336950568618146 ], [ -59.025153215999339, -18.336770905561323 ], [ -59.025063384470926, -18.336770905561323 ], [ -59.025063384470926, -18.336591242504497 ], [ -59.024973552942519, -18.336591242504497 ], [ -59.024973552942519, -18.335872590277202 ], [ -59.027219341152815, -18.335872590277202 ] ] ] } },
{ "type": "Feature", "properties": { "area_ha": 31.177480126849435 }, "geometry": { "type": "Polygon", "coordinates": [ [ [ -59.006378426561241, -18.36479834242585 ], [ -59.006378426561241, -18.371176380943098 ], [ -59.006288595032828, -18.371176380943098 ], [ -59.006288595032828, -18.37162553858516 ], [ -59.006378426561241, -18.37162553858516 ], [ -59.006378426561241, -18.374050989852282 ], [ -59.00350381765206, -18.374050989852282 ], [ -59.00350381765206, -18.36479834242585 ], [ -59.006378426561241, -18.36479834242585 ] ] ] } },
{ "type": "Feature", "properties": { "area_ha": 3.4109443497648448 }, "geometry": { "type": "Polygon", "coordinates": [ [ [ -59.004581795993005, -18.344945574646811 ], [ -59.004581795993005, -18.347640520499169 ], [ -59.00350381765206, -18.347640520499169 ], [ -59.00350381765206, -18.344945574646811 ], [ -59.004581795993005, -18.344945574646811 ] ] ] } },
{ "type": "Feature", "properties": { "area_ha": 19.299014781256094 }, "geometry": { "type": "Polygon", "coordinates": [ [ [ -59.010959834510253, -18.354827042772126 ], [ -59.010959834510253, -18.354916874300535 ], [ -59.011049666038666, -18.354916874300535 ], [ -59.011049666038666, -18.355006705828949 ], [ -59.011139497567079, -18.355006705828949 ], [ -59.011139497567079, -18.355186368885771 ], [ -59.011229329095485, -18.355186368885771 ], [ -59.011229329095485, -18.355276200414185 ], [ -59.011319160623898, -18.355276200414185 ], [ -59.011319160623898, -18.355366031942594 ], [ -59.011408992152312, -18.355366031942594 ], [ -59.011408992152312, -18.355545694999421 ], [ -59.011498823680725, -18.355545694999421 ], [ -59.011498823680725, -18.355635526527831 ], [ -59.011588655209138, -18.355635526527831 ], [ -59.011588655209138, -18.355725358056244 ], [ -59.011678486737544, -18.355725358056244 ], [ -59.011678486737544, -18.355905021113067 ], [ -59.011768318265958, -18.355905021113067 ], [ -59.011768318265958, -18.35599485264148 ], [ -59.011858149794371, -18.35599485264148 ], [ -59.011858149794371, -18.35608468416989 ], [ -59.011947981322784, -18.35608468416989 ], [ -59.011947981322784, -18.356264347226716 ], [ -59.012037812851197, -18.356264347226716 ], [ -59.012037812851197, -18.356354178755126 ], [ -59.012127644379611, -18.356354178755126 ], [ -59.012127644379611, -18.356533841811952 ], [ -59.012217475908017, -18.356533841811952 ], [ -59.012217475908017, -18.356623673340362 ], [ -59.01230730743643, -18.356623673340362 ], [ -59.01230730743643, -18.356803336397189 ], [ -59.012397138964843, -18.356803336397189 ], [ -59.012397138964843, -18.356893167925598 ], [ -59.012486970493256, -18.356893167925598 ], [ -59.012486970493256, -18.356982999454011 ], [ -59.01257680202167, -18.356982999454011 ], [ -59.01257680202167, -18.357162662510834 ], [ -59.012666633550076, -18.357162662510834 ], [ -59.012666633550076, -18.357252494039248 ], [ -59.012756465078489, -18.357252494039248 ], [ -59.012756465078489, -18.357521988624484 ], [ -59.012846296606902, -18.357521988624484 ], [ -59.012846296606902, -18.357611820152894 ], [ -59.012936128135316, -18.357611820152894 ], [ -59.012936128135316, -18.35779148320972 ], [ -59.006468258089654, -18.35779148320972 ], [ -59.006468258089654, -18.354827042772126 ], [ -59.010959834510253, -18.354827042772126 ] ] ] } }
]
}
