{
"type": "FeatureCollection",
"name": "serro_alto_LOTE-02_small",
"crs": { "type": "name", "properties": { "name": "urn:ogc:def:crs:OGC:1.3:CRS84" } },
"features": [
{ "type": "Feature", "properties": { "area_ha": 450.57010157515651 }, "geometry": { "type": "Polygon", "coordinates": [ [ [ -59.044466994607909, -18.32940472023154 ], [ -59.044466994607909, -18.349886308709465 ], [ -59.029554960891524, -18.349886308709465 ], [ -59.029554960891524, -18.349706645652642 ], [ -59.029465129363111, -18.349706645652642 ], [ -59.029465129363111, -18.349347319538992 ], [ -59.029375297834697, -18.349347319538992 ], [ -59.029375297834697, -18.349257488010583 ], [ -59.029285466306291, -18.349257488010583 ], [ -59.029285466306291, -18.34916765648217 ], [ -59.029195634777878, -18.34916765648217 ], [ -59.029195634777878, -18.348987993425347 ], [ -59.029105803249465, -18.348987993425347 ], [ -59.029105803249465, -18.348628667311697 ], [ -59.029015971721051, -18.348628667311697 ], [ -59.029015971721051, -18.348538835783287 ], [ -59.028926140192638, -18.348538835783287 ], [ -59.028926140192638, -18.348269341198051 ], [ -59.028836308664232, -18.348269341198051 ], [ -59.028836308664232, -18.347910015084402 ], [ -59.028746477135819, -18.347910015084402 ], [ -59.028746477135819, -18.347820183555992 ], [ -59.028656645607406, -18.347820183555992 ], [ -59.028656645607406, -18.347640520499166 ], [ -59.028566814078992, -18.347640520499166 ], [ -59.028566814078992, -18.34728119438552 ], [ -59.028476982550579, -18.34728119438552 ], [ -59.028476982550579, -18.347191362857107 ], [ -59.028387151022166, -18.347191362857107 ], [ -59.028387151022166, -18.34692186827187 ], [ -59.02829731949376, -18.34692186827187 ], [ -59.02829731949376, -18.346382879101398 ], [ -59.028117656436933, -18.346382879101398 ], [ -59.028117656436933, -18.346293047572988 ], [ -59.02802782490852, -18.346293047572988 ], [ -59.02802782490852, -18.345664226874103 ], [ -59.027937993380107, -18.345664226874103 ], [ -59.027937993380107, -18.34548456381728 ], [ -59.027848161851701, -18.34548456381728 ], [ -59.027848161851701, -18.345215069232044 ], [ -59.027758330323287, -18.345215069232044 ], [ -59.027758330323287, -18.344765911589985 ], [ -59.027668498794874, -18.344765911589985 ], [ -59.027668498794874, -18.344586248533162 ], [ -59.027578667266461, -18.344586248533162 ], [ -59.027578667266461, -18.344316753947925 ], [ -59.027488835738048, -18.344316753947925 ], [ -59.027488835738048, -18.343777764777453 ], [ -59.027399004209634, -18.343777764777453 ], [ -59.027399004209634, -18.34359810172063 ], [ -59.027309172681228, -18.34359810172063 ], [ -59.027309172681228, -18.343418438663804 ], [ -59.027219341152815, -18.343418438663804 ], [ -59.027219341152815, -18.342879449493335 ], [ -59.027129509624402, -18.342879449493335 ], [ -59.027129509624402, -18.342789617964922 ], [ -59.027039678095989, -18.342789617964922 ], [ -59.027039678095989, -18.342609954908099 ], [ -59.026949846567575, -18.342609954908099 ], [ -59.026949846567575, -18.342160797266036 ], [ -59.026860015039169, -18.342160797266036 ], [ -59.026860015039169, -18.341981134209213 ], [ -59.026770183510756, -18.341981134209213 ], [ -59.026770183510756, -18.341711639623977 ], [ -59.026680351982343, -18.341711639623977 ], [ -59.026680351982343, -18.341262481981918 ], [ -59.026590520453929, -18.341262481981918 ], [ -59.026590520453929, -18.341082818925095 ], [ -59.026500688925516, -18.341082818925095 ], [ -59.026500688925516, -18.340813324339859 ], [ -59.026410857397103, -18.340813324339859 ], [ -59.026410857397103, -18.340274335169386 ], [ -59.026321025868697, -18.340274335169386 ], [ -59.026321025868697, -18.34000484058415 ], [ -59.026231194340284, -18.34000484058415 ], [ -59.026231194340284, -18.339735345998914 ], [ -59.02614136281187, -18.339735345998914 ], [ -59.02614136281187, -18.339376019885268 ], [ -59.026051531283457, -18.339376019885268 ], [ -59.026051531283457, -18.339286188356855 ], [ -59.025961699755044, -18.339286188356855 ], [ -59.025961699755044, -18.339016693771619 ], [ -59.025871868226638, -18.339016693771619 ], [ -59.025871868226638, -18.338657367657973 ], [ -59.025782036698224, -18.338657367657973 ], [ -59.025782036698224, -18.338387873072737 ], [ -59.025692205169811, -18.338387873072737 ], [ -59.025692205169811, -18.338118378487501 ], [ -59.025602373641398, -18.338118378487501 ], [ -59.025602373641398, -18.337759052373851 ], [ -59.025512542112985, -18.337759052373851 ], [ -59.025512542112985, -18.337579389317028 ], [ -59.025422710584571, -18.337579389317028 ], [ -59.025422710584571, -18.337399726260205 ], [ -59.025332879056165, -18.337399726260205 ], [ -59.025332879056165, -18.337220063203379 ], [ -59.025243047527752, -18.337220063203379 ], [ -59.025243047527752, -18.336950568618143 ], [ -59.025153215999339, -18.336950568618143 ], [ -59.025153215999339, -18.336860737089733 ], [ -59.025063384470926, -18.336860737089733 ], [ -59.025063384470926, -18.33668107403291 ], [ -59.024973552942512, -18.33668107403291 ], [ -59.024973552942512, -18.336501410976084 ], [ -59.024883721414106, -18.336501410976084 ], [ -59.024883721414106, -18.336411579447674 ], [ -59.024793889885693, -18.336411579447674 ], [ -59.024793889885693, -18.336231916390847 ], [ -59.02470405835728, -18.336231916390847 ], [ -59.02470405835728, -18.336052253334024 ], [ -59.024614226828866, -18.336052253334024 ], [ -59.024614226828866, -18.335962421805611 ], [ -59.024524395300453, -18.335962421805611 ], [ -59.024524395300453, -18.335782758748788 ], [ -59.02443456377204, -18.335782758748788 ], [ -59.02443456377204, -18.335603095691965 ], [ -59.024344732243634, -18.335603095691965 ], [ -59.024344732243634, -18.335513264163552 ], [ -59.024254900715221, -18.335513264163552 ], [ -59.024254900715221, -18.335243769578316 ], [ -59.024165069186807, -18.335243769578316 ], [ -59.024165069186807, -18.335064106521493 ], [ -59.024075237658394, -18.335064106521493 ], [ -59.024075237658394, -18.33488444346467 ], [ -59.023985406129981, -18.33488444346467 ], [ -59.023985406129981, -18.334704780407847 ], [ -59.023895574601575, -18.334704780407847 ], [ -59.023895574601575, -18.334525117351021 ], [ -59.023805743073162, -18.334525117351021 ], [ -59.023805743073162, -18.334435285822611 ], [ -59.023715911544748, -18.334435285822611 ], [ -59.023715911544748, -18.334255622765784 ], [ -59.023626080016335, -18.334255622765784 ], [ -59.023626080016335, -18.334075959708962 ], [ -59.023536248487922, -18.334075959708962 ], [ -59.023536248487922, -18.333986128180548 ], [ -59.023446416959509, -18.333986128180548 ], [ -59.023446416959509, -18.333896296652139 ], [ -59.023356585431102, -18.333896296652139 ], [ -59.023356585431102, -18.333626802066902 ], [ -59.023266753902689, -18.333626802066902 ], [ -59.023266753902689, -18.333536970538489 ], [ -59.023176922374276, -18.333536970538489 ], [ -59.023176922374276, -18.333357307481666 ], [ -59.023087090845863, -18.333357307481666 ], [ -59.023087090845863, -18.333177644424843 ], [ -59.022997259317449, -18.333177644424843 ], [ -59.022997259317449, -18.33308781289643 ], [ -59.022907427789043, -18.33308781289643 ], [ -59.022907427789043, -18.332908149839607 ], [ -59.02281759626063, -18.332908149839607 ], [ -59.02281759626063, -18.332728486782784 ], [ -59.022727764732217, -18.332728486782784 ], [ -59.022727764732217, -18.332638655254371 ], [ -59.022637933203804, -18.332638655254371 ], [ -59.022637933203804, -18.332458992197548 ], [ -59.02254810167539, -18.332458992197548 ], [ -59.02254810167539, -18.332279329140722 ], [ -59.022458270146977, -18.332279329140722 ], [ -59.022458270146977, -18.332189497612312 ], [ -59.022368438618571, -18.332189497612312 ], [ -59.022368438618571, -18.332009834555485 ], [ -59.022278607090158, -18.332009834555485 ], [ -59.022278607090158, -18.331830171498662 ], [ -59.022188775561744, -18.331830171498662 ], [ -59.022188775561744, -18.331740339970253 ], [ -59.022098944033331, -18.331740339970253 ], [ -59.022098944033331, -18.331560676913426 ], [ -59.022009112504918, -18.331560676913426 ], [ -59.022009112504918, -18.331381013856603 ], [ -59.021919280976512, -18.331381013856603 ], [ -59.021919280976512, -18.33129118232819 ], [ -59.021829449448099, -18.33129118232819 ], [ -59.021829449448099, -18.331021687742954 ], [ -59.021739617919685, -18.331021687742954 ], [ -59.021739617919685, -18.330842024686131 ], [ -59.021649786391272, -18.330842024686131 ], [ -59.021649786391272, -18.330752193157721 ], [ -59.021559954862859, -18.330752193157721 ], [ -59.021559954862859, -18.330572530100895 ], [ -59.021470123334446, -18.330572530100895 ], [ -59.021470123334446, -18.330303035515659 ], [ -59.02138029180604, -18.330303035515659 ], [ -59.02138029180604, -18.330213203987249 ], [ -59.021290460277626, -18.330213203987249 ], [ -59.021290460277626, -18.330033540930422 ], [ -59.021200628749213, -18.330033540930422 ], [ -59.021200628749213, -18.3298538778736 ], [ -59.0211107972208, -18.3298538778736 ], [ -59.0211107972208, -18.329674214816777 ], [ -59.021020965692387, -18.329674214816777 ], [ -59.021020965692387, -18.329584383288363 ], [ -59.02093113416398, -18.329584383288363 ], [ -59.02093113416398, -18.32940472023154 ], [ -59.044466994607909, -18.32940472023154 ] ] ] } },
{ "type": "Feature", "properties": { "area_ha": 403.94158217074079 }, "geometry": { "type": "Polygon", "coordinates": [ [ [ -59.06117565889253, -18.32940472023154 ], [ -59.06117565889253, -18.349886308709465 ], [ -59.044377163079496, -18.349886308709465 ], [ -59.044377163079496, -18.32940472023154 ], [ -59.06117565889253, -18.32940472023154 ] ] ] } },
{ "type": "Feature", "properties": { "area_ha": 25.7896368010298 }, "geometry": { "type": "Polygon", "coordinates": [ [ [ -59.04401783696585, -18.32940472023154 ], [ -59.04401783696585, -18.330572530100895 ], [ -59.043029690153318, -18.330572530100895 ], [ -59.043029690153318, -18.330662361629308 ], [ -59.042760195568079, -18.330662361629308 ], [ -59.042760195568079, -18.330842024686131 ], [ -59.042850027096492, -18.330842024686131 ], [ -59.042850027096492, -18.330931856214544 ], [ -59.042760195568079, -18.330931856214544 ], [ -59.042760195568079, -18.331021687742954 ], [ -59.042670364039672, -18.331021687742954 ], [ -59.042670364039672, -18.331111519271367 ], [ -59.038627945261133, -18.331111519271367 ], [ -59.038627945261133, -18.331021687742954 ], [ -59.038358450675894, -18.331021687742954 ], [ -59.038358450675894, -18.330931856214544 ], [ -59.037819461505421, -18.330931856214544 ], [ -59.037819461505421, -18.330842024686131 ], [ -59.035663504823539, -18.330842024686131 ], [ -59.035663504823539, -18.330931856214544 ], [ -59.033327885084823, -18.330931856214544 ], [ -59.033327885084823, -18.331021687742954 ], [ -59.033148222028004, -18.331021687742954 ], [ -59.033148222028004, -18.330931856214544 ], [ -59.032878727442764, -18.330931856214544 ], [ -59.032878727442764, -18.331021687742954 ], [ -59.030722770760882, -18.331021687742954 ], [ -59.030722770760882, -18.331111519271367 ], [ -59.030183781590409, -18.331111519271367 ], [ -59.030183781590409, -18.331021687742954 ], [ -59.030093950061996, -18.331021687742954 ], [ -59.030093950061996, -18.330842024686131 ], [ -59.030004118533583, -18.330842024686131 ], [ -59.030004118533583, -18.330662361629308 ], [ -59.02991428700517, -18.330662361629308 ], [ -59.02991428700517, -18.32940472023154 ], [ -59.04401783696585, -18.32940472023154 ] ] ] } },
{ "type": "Feature", "properties": { "area_ha": 22.130632637821645 }, "geometry": { "type": "Polygon", "coordinates": [ [ [ -59.060906164307298, -18.32940472023154 ], [ -59.060906164307298, -18.330482698572485 ], [ -59.059379028324294, -18.330482698572485 ], [ -59.059379028324294, -18.330572530100895 ], [ -59.05758239775605, -18.330572530100895 ], [ -59.05758239775605, -18.330482698572485 ], [ -59.055875598716227, -18.330482698572485 ], [ -59.055875598716227, -18.330392867044072 ], [ -59.055695935659401, -18.330392867044072 ], [ -59.055695935659401, -18.330482698572485 ], [ -59.05425863120481, -18.330482698572485 ], [ -59.05425863120481, -18.330572530100895 ], [ -59.04922806561374, -18.330572530100895 ], [ -59.04922806561374, -18.330482698572485 ], [ -59.047700929630736, -18.330482698572485 ], [ -59.047700929630736, -18.330572530100895 ], [ -59.044466994607909, -18.330572530100895 ], [ -59.044466994607909, -18.330482698572485 ], [ -59.044377163079496, -18.330482698572485 ], [ -59.044377163079496, -18.330303035515659 ], [ -59.044287331551082, -18.330303035515659 ], [ -59.044287331551082, -18.330123372458836 ], [ -59.044197500022669, -18.330123372458836 ], [ -59.044197500022669, -18.32940472023154 ], [ -59.060906164307298, -18.32940472023154 ] ] ] } },
{ "type": "Feature", "properties": { "area_ha": 94.851925789750752 }, "geometry": { "type": "Polygon", "coordinates": [ [ [ -59.058390881511762, -18.344137090891099 ], [ -59.058390881511762, -18.349886308709465 ], [ -59.044287331551082, -18.349886308709465 ], [ -59.044287331551082, -18.349347319538992 ], [ -59.044377163079496, -18.349347319538992 ], [ -59.044377163079496, -18.346113384516162 ], [ -59.044287331551082, -18.346113384516162 ], [ -59.044287331551082, -18.344137090891099 ], [ -59.058390881511762, -18.344137090891099 ] ] ] } },
{ "type": "Feature", "properties": { "area_ha": 60.069377043573311 }, "geometry": { "type": "Polygon", "coordinates": [ [ [ -59.044197500022669, -18.330842024686131 ], [ -59.044197500022669, -18.333806465123725 ], [ -59.044107668494263, -18.333806465123725 ], [ -59.044107668494263, -18.333986128180548 ], [ -59.04401783696585, -18.333986128180548 ], [ -59.04401783696585, -18.334165791237375 ], [ -59.043928005437436, -18.334165791237375 ], [ -59.043928005437436, -18.334075959708962 ], [ -59.043838173909023, -18.334075959708962 ], [ -59.043838173909023, -18.333986128180548 ], [ -59.043389016266964, -18.333986128180548 ], [ -59.043389016266964, -18.334165791237375 ], [ -59.043299184738551, -18.334165791237375 ], [ -59.043299184738551, -18.334525117351021 ], [ -59.041502554170314, -18.334525117351021 ], [ -59.041502554170314, -18.334435285822611 ], [ -59.041412722641901, -18.334435285822611 ], [ -59.041412722641901, -18.334525117351021 ], [ -59.041143228056669, -18.334525117351021 ], [ -59.041143228056669, -18.334435285822611 ], [ -59.040514407357783, -18.334435285822611 ], [ -59.040514407357783, -18.334345454294198 ], [ -59.040244912772543, -18.334345454294198 ], [ -59.040244912772543, -18.334435285822611 ], [ -59.039705923602078, -18.334435285822611 ], [ -59.039705923602078, -18.334525117351021 ], [ -59.039436429016838, -18.334525117351021 ], [ -59.039436429016838, -18.334435285822611 ], [ -59.039256765960012, -18.334435285822611 ], [ -59.039256765960012, -18.334525117351021 ], [ -59.036202493994011, -18.334525117351021 ], [ -59.036202493994011, -18.334435285822611 ], [ -59.035573673295126, -18.334435285822611 ], [ -59.035573673295126, -18.334345454294198 ], [ -59.034675358011008, -18.334345454294198 ], [ -59.034675358011008, -18.334435285822611 ], [ -59.033866874255295, -18.334435285822611 ], [ -59.033866874255295, -18.334345454294198 ], [ -59.033327885084823, -18.334345454294198 ], [ -59.033327885084823, -18.334435285822611 ], [ -59.032339738272292, -18.334435285822611 ], [ -59.032339738272292, -18.334525117351021 ], [ -59.030004118533583, -18.334525117351021 ], [ -59.030004118533583, -18.330842024686131 ], [ -59.044197500022669, -18.330842024686131 ] ] ] } }
]
}
