{"type": "FeatureCollection", "features": [{"type": "Feature", "properties": {"zona": "A"}, "geometry": {"type": "Polygon", "coordinates": [[[-59.025153082471476, -18.355545786085433], [-59.02470394961421, -18.35240169534386], [-59.023098260642975, -18.348580917527315], [-59.020302204726406, -18.344945678486003], [-59.017918074816755, -18.347449483753024], [-59.01979371036356, -18.34863512553995], [-59.02191917223451, -18.350604857097952], [-59.02112511820244, -18.352309907053385], [-59.01846364082674, -18.350949063339822], [-59.01825050837669, -18.354196369165834], [-59.0157328166419, -18.35594862417865], [-59.016213536318546, -18.35124809437657], [-59.016623294086045, -18.348474725549124], [-59.016964667027196, -18.34452495670585], [-59.01877525911515, -18.34359820683143], [-59.01661911158388, -18.34252021790876], [-59.014908173864065, -18.340184911917557], [-59.015271639139485, -18.337848987741822], [-59.013654671626625, -18.340004944423757], [-59.01184382350935, -18.339374166987053], [-59.0086568198299, -18.339009357971353], [-59.00925292673637, -18.336501514816], [-59.0054800025324, -18.353389634477807], [-59.02371591153481, -18.37512946849228], [-59.0241800595426, -18.372385503856947], [-59.02292174124791, -18.369737223570343], [-59.022327231183766, -18.366314104769316], [-59.022368329868996, -18.362732113433715], [-59.02182934070123, -18.358150913162326], [-59.02290731856423, -18.356623767868967], [-59.023125657081096, -18.355915043620925], [-59.025153082471476, -18.355545786085433]]]}}]}