{"type": "FeatureCollection", "features": [{"type": "Feature", "properties": {"zona": "A"}, "geometry": {"type": "Polygon", "coordinates": [[[-59.05919925652999, -18.331470949237534], [-59.019156396124195, -18.332732138841916], [-59.0214683058314, -18.33369951144521], [-59.022009221238086, -18.336501307137084], [-59.02194698606542, -18.339080067641245], [-59.021739509183064, -18.341981030370246], [-59.0229486414635, -18.344125717230014], [-59.02470416709525, -18.344496313166033], [-59.02578214591686, -18.347281099857078], [-59.027259796475796, -18.346282296297282], [-59.02929020404044, -18.34665237375239], [-59.032247584573405, -18.346742205217225], [-59.035483733028, -18.346652269848505], [-59.03925202878258, -18.346472710740176], [-59.042398547296116, -18.34674220521558], [-59.044916043513226, -18.344496313167205], [-59.04757252781055, -18.3443267763436], [-59.05030593521829, -18.344406481639062], [-59.052369846994125, -18.344406585476857], [-59.05425873994128, -18.344945470809773], [-59.05520556438543, -18.347179989421807], [-59.05327512589175, -18.347253523630545], [-59.05129410913392, -18.34719146796611], [-59.048419690596354, -18.34710163516626], [-59.04625888811356, -18.347281194428966], [-59.04492039774104, -18.347820591825446], [-59.047867445139914, -18.34764214975789], [-59.0503061526932, -18.347820079718762], [-59.05300109854534, -18.3477302481905], [-59.05591416824359, -18.347650542844942], [-59.05891672264321, -18.347552318219282], [-59.05919925652999, -18.331470949237534]]]}}]}