{"type": "FeatureCollection", "features": [{"type": "Feature", "geometry": {"type": "Polygon", "coordinates": [[[-63.32385402916586, -16.77438011292033], [-63.32390222056326, -16.774371856388537], [-63.32416562037599, -16.774326728435746], [-63.324405014807574, -16.774285712984454], [-63.32442971515935, -16.77428148105606], [-63.32442845342519, -16.774278032427084], [-63.323931332873265, -16.772919269355814], [-63.32387734975615, -16.772771717818674], [-63.323872371623665, -16.77275811112421], [-63.32384662230221, -16.772687730651167], [-63.32339497565278, -16.771453238182733], [-63.323327426527044, -16.771268603651027], [-63.32331525589399, -16.771235337166416], [-63.32311838273232, -16.770697214006194], [-63.32288854900985, -16.77006899389943], [-63.322780903693854, -16.769774758093124], [-63.322743762587955, -16.769673237018942], [-63.32261706936858, -16.76932693432992], [-63.322222827092816, -16.768249305402808], [-63.32218317685716, -16.768140923996487], [-63.32216741475096, -16.768097839240586], [-63.32197303884028, -16.76756652278985], [-63.321892441480564, -16.767346213143416], [-63.32165876571252, -16.766707466659994], [-63.32164396311225, -16.76666700398873], [-63.32160432185331, -16.766558645148205], [-63.3215084876402, -16.76629668307641], [-63.32141657087234, -16.76604542856927], [-63.32121882350334, -16.76550488362803], [-63.3198967391885, -16.764527491274524], [-63.319896456157394, -16.76452728203288], [-63.31986170028807, -16.764527335954533], [-63.31986148364535, -16.764527545344524], [-63.3197972575899, -16.76458962121984], [-63.31979259397002, -16.764639942574245], [-63.319792380392464, -16.764642247116598], [-63.319792599218395, -16.76464305492351], [-63.319827352132016, -16.76477134695771], [-63.319867201103676, -16.76484782089359], [-63.31992803684553, -16.765013999925344], [-63.32012580285869, -16.765554215761295], [-63.32049628739199, -16.76656621890027], [-63.32052358372286, -16.766640780177482], [-63.32053535751176, -16.76667294084418], [-63.32102214318852, -16.768002608759158], [-63.32109685904, -16.768206695278472], [-63.321139963943104, -16.768324436202104], [-63.321092341811344, -16.768139596161724], [-63.321139963943104, -16.768324436202096], [-63.3213002559311, -16.76876227192544], [-63.321418493180055, -16.769085234199554], [-63.3214884586018, -16.769276342544224], [-63.32229305799056, -16.771474050229617], [-63.32229929055178, -16.771491073823547], [-63.32229946821968, -16.77149155910492], [-63.3223205762212, -16.77154921339446], [-63.32244333819121, -16.771884524066326], [-63.32246024610356, -16.77193070604767], [-63.322514857720904, -16.7720798711136], [-63.322740260713275, -16.77269552957513], [-63.322857278146344, -16.77301514549726], [-63.32285738157121, -16.7730154279866], [-63.32308942072621, -16.773649205361473], [-63.323354938164826, -16.774374417577206], [-63.3233863589403, -16.77446023726573], [-63.3234108025291, -16.774456049456877], [-63.323651322394916, -16.774414842118553], [-63.32378800922354, -16.774391423960207], [-63.32385402916586, -16.77438011292033]], [[-63.322859218885945, -16.773014826009586], [-63.32285921886918, -16.77301482601508], [-63.322857278146344, -16.77301514549726], [-63.322859218885945, -16.773014826009586]], [[-63.323270680461555, -16.771298412927404], [-63.32327067600011, -16.771298412934403], [-63.32331536310825, -16.771297923853158], [-63.323270680461555, -16.771298412927404]], [[-63.32230052005386, -16.771480208173966], [-63.3222993795403, -16.77148020996173], [-63.32230052005516, -16.771480208173454], [-63.32230052005386, -16.771480208173966]], [[-63.323837408700264, -16.772833457280324], [-63.3238725001137, -16.772832983153634], [-63.32383741086091, -16.772833457276928], [-63.323837408700264, -16.772833457280324]]]}, "properties": {"lote_id": "J1_soya", "orden": 1, "estrato": "ATENCION", "fecha_dato": "2026-04-29", "dias_atras": 0, "area_ha": 12.42, "status": "pending"}}, {"type": "Feature", "geometry": {"type": "Polygon", "coordinates": [[[-63.325616491948885, -16.770767516380594], [-63.32549532078304, -16.770433200691734], [-63.32544483326204, -16.7702939033912], [-63.3252827428826, -16.769846687367213], [-63.32510348974222, -16.76935211569135], [-63.32508605732638, -16.769304018313647], [-63.32507220855178, -16.769265808459103], [-63.324547037117526, -16.767816806928366], [-63.323827771667105, -16.76726634392901], [-63.32368229271364, -16.767155006334267], [-63.32329068865067, -16.766855303704407], [-63.323028470735, -16.766654621994444], [-63.32302819973553, -16.766654414591603], [-63.32428679755964, -16.77012059750064], [-63.32431445997437, -16.770196778338914], [-63.324332554838115, -16.77024661060784], [-63.324582189019644, -16.770934086630238], [-63.324936970658634, -16.77191112244721], [-63.32500107977843, -16.772087671862447], [-63.325036611255186, -16.772185521459637], [-63.32515092063986, -16.7725003156009], [-63.32574502381612, -16.774136385135236], [-63.32702875343007, -16.77466390283086], [-63.32628325450993, -16.772607115745743], [-63.32593658828998, -16.77165066774122], [-63.325616491948885, -16.770767516380594]], [[-63.324333094987814, -16.77016542295286], [-63.32433309486417, -16.77016542289704], [-63.32428679755964, -16.77012059750064], [-63.324333094987814, -16.77016542295286]]]}, "properties": {"lote_id": "J3-soya", "orden": 2, "estrato": "ATENCION", "fecha_dato": "2026-04-29", "dias_atras": 0, "area_ha": 9.41, "status": "pending"}}, {"type": "Feature", "geometry": {"type": "Polygon", "coordinates": [[[-63.32844475909101, -16.775241328447148], [-63.328111454382096, -16.77431612868617], [-63.32798436974982, -16.773963359788034], [-63.32796429820042, -16.773907643885472], [-63.32784454528327, -16.773575225266036], [-63.32777424766382, -16.773380087569166], [-63.32724810333835, -16.771919560606428], [-63.32678504812397, -16.770634142779546], [-63.32674874626228, -16.770533369847236], [-63.32661927858618, -16.770173970322297], [-63.32649498814045, -16.76982894128301], [-63.32623773559121, -16.769114806424], [-63.324768637410855, -16.76801572978795], [-63.32516813233939, -16.769107567068744], [-63.32539166211628, -16.769718477837035], [-63.3255625592008, -16.770185539645702], [-63.32560965290349, -16.77031424631522], [-63.32578108908566, -16.77078277826286], [-63.32610621349077, -16.771671330373966], [-63.326162390644576, -16.771824859388076], [-63.326248065263115, -16.77205900279854], [-63.326751906323224, -16.773435956354987], [-63.32687985905644, -16.773785636511594], [-63.32693015032663, -16.77392307640448], [-63.326974116169936, -16.774043229500922], [-63.32701922228544, -16.774166498644636], [-63.327082474880726, -16.774339359461454], [-63.32721470726649, -16.774700731636738], [-63.32721551917264, -16.774702950455367], [-63.32844475909101, -16.775241328447148]], [[-63.32679331623997, -16.773435890685544], [-63.32679331623572, -16.773435890694692], [-63.326751906323224, -16.773435956354987], [-63.32679331623997, -16.773435890685544]], [[-63.32697929043831, -16.772989369303428], [-63.32696110409183, -16.773074848011813], [-63.326961103706736, -16.773074848840448], [-63.32697929107399, -16.772989365298066], [-63.32697929043831, -16.772989369303428]]]}, "properties": {"lote_id": "J4-soya", "orden": 3, "estrato": "ATENCION", "fecha_dato": "2026-04-29", "dias_atras": 0, "area_ha": 7.99, "status": "pending"}}, {"type": "Feature", "geometry": {"type": "Polygon", "coordinates": [[[-63.325540902888626, -16.781257841930096, 0.0], [-63.325382597999976, -16.780700571999944, 0.0], [-63.324804086999904, -16.77897735199991, 0.0], [-63.32427892680414, -16.777508949719685, 0.0], [-63.32424499065288, -16.777414059875333, 0.0], [-63.3239182729999, -16.776500509999888, 0.0], [-63.32381806703495, -16.776225597674888, 0.0], [-63.32358996253537, -16.77559979597543, 0.0], [-63.32264506150131, -16.773007424420662, 0.0], [-63.322605216071935, -16.772898105287094, 0.0], [-63.322454960673795, -16.77248586630628, 0.0], [-63.322304722999945, -16.772073673999895, 0.0], [-63.32185664277116, -16.770826132222634, 0.0], [-63.32165561397598, -16.770266423477658, 0.0], [-63.32148263733568, -16.769784815273724, 0.0], [-63.32091491826981, -16.768204131339374, 0.0], [-63.320588290727315, -16.76729469863053, 0.0], [-63.31949533399995, -16.764251497999908, 0.0], [-63.319430158733624, -16.76410340543909, 0.0], [-63.31943006699999, -16.76410319699988, 0.0], [-63.31942512329635, -16.76410341334751, 0.0], [-63.31932710099989, -16.764107702999972, 0.0], [-63.3192737689999, -16.764134888999937, 0.0], [-63.319185306999884, -16.764167032999914, 0.0], [-63.318981703999896, -16.764321039999967, 0.0], [-63.318698912999935, -16.764603327999957, 0.0], [-63.31849124299998, -16.764881094999964, 0.0], [-63.31844163574476, -16.765075813080855, 0.0], [-63.31842706499992, -16.765133005999925, 0.0], [-63.31842705999993, -16.76536318799998, 0.0], [-63.31842705699995, -16.765456857999876, 0.0], [-63.31844239476896, -16.76553193517112, 0.0], [-63.31846723513831, -16.765653526688084, 0.0], [-63.31849744349888, -16.765801393846306, 0.0], [-63.318549357999935, -16.76605550999994, 0.0], [-63.31856719159519, -16.766158066159342, 0.0], [-63.31863888599997, -16.76657035999994, 0.0], [-63.318802306999885, -16.767042083999975, 0.0], [-63.31885827942226, -16.76733656390421, 0.0], [-63.318894305999954, -16.767526104999938, 0.0], [-63.31893755570453, -16.767733377659667, 0.0], [-63.318967703999995, -16.767877861999924, 0.0], [-63.319011631999906, -16.768123115999966, 0.0], [-63.31900387997828, -16.76831870332697, 0.0], [-63.31898589499997, -16.768772471999966, 0.0], [-63.318971775999955, -16.76926021599991, 0.0], [-63.319009125069044, -16.769788361459735, 0.0], [-63.31901891999996, -16.7699268689999, 0.0], [-63.31906551333997, -16.770484987140133, 0.0], [-63.319066954999926, -16.770502255999922, 0.0], [-63.31918178999996, -16.770977761999973, 0.0], [-63.31927632899994, -16.77139375199994, 0.0], [-63.31928311898351, -16.771424215783387, 0.0], [-63.31928841254427, -16.771422842063348, 0.0], [-63.3192831189826, -16.771424215783625, 0.0], [-63.319288796536384, -16.771449688560935, 0.0], [-63.31935659050769, -16.771753850810445, 0.0], [-63.319376380999984, -16.771842641999964, 0.0], [-63.31938572253041, -16.771885166890144, 0.0], [-63.31941890576964, -16.77203622480063, 0.0], [-63.319459214834524, -16.772219720800514, 0.0], [-63.31946524599994, -16.772247175999944, 0.0], [-63.319471793592236, -16.772281270587165, 0.0], [-63.31953185299994, -16.772594010999963, 0.0], [-63.31954225199025, -16.77267555230034, 0.0], [-63.31956792499989, -16.77287686099993, 0.0], [-63.31957316016479, -16.77292318510358, 0.0], [-63.31960970899991, -16.773246591999964, 0.0], [-63.319630144288475, -16.773477296958397, 0.0], [-63.319649729999924, -16.77369840999995, 0.0], [-63.319667986148495, -16.773858376599247, 0.0], [-63.319698258999956, -16.774123636999935, 0.0], [-63.31970996499996, -16.774560181999902, 0.0], [-63.31971923204092, -16.77473076650106, 0.0], [-63.319734624999974, -16.77501411399993, 0.0], [-63.3197373119067, -16.7751095890839, 0.0], [-63.31974781299987, -16.77548272799987, 0.0], [-63.31975002899998, -16.775770766999923, 0.0], [-63.319728009999956, -16.776007967999938, 0.0], [-63.31971013488729, -16.776110484066276, 0.0], [-63.31969446199997, -16.776200369999916, 0.0], [-63.3196363059999, -16.77643196699989, 0.0], [-63.319576488331485, -16.776681584432914, 0.0], [-63.319571907999894, -16.776700697999953, 0.0], [-63.31955595326795, -16.776744191469326, 0.0], [-63.31947344799994, -16.776969104999925, 0.0], [-63.319312525999926, -16.77724776799988, 0.0], [-63.31915851099996, -16.777482102999954, 0.0], [-63.31858977499997, -16.778262117999876, 0.0], [-63.31831422399995, -16.77862792199994, 0.0], [-63.31799315799993, -16.779018014999906, 0.0], [-63.31772010199995, -16.779301459999942, 0.0], [-63.31754798399993, -16.77951817899998, 0.0], [-63.31753300460751, -16.77959087450236, 0.0], [-63.317532789999916, -16.779591915999962, 0.0], [-63.317533006466405, -16.779592006649768, 0.0], [-63.31784227999997, -16.779721520999942, 0.0], [-63.317958390999884, -16.77979564599997, 0.0], [-63.31808870299989, -16.779897887999883, 0.0], [-63.318119069677806, -16.779919144521575, 0.0], [-63.31814242334707, -16.779935491966164, 0.0], [-63.31843689902997, -16.78014162290821, 0.0], [-63.319140863740245, -16.78063438978059, 0.0], [-63.31915618986196, -16.780645117826566, 0.0], [-63.319185907320154, -16.780665919576684, 0.0], [-63.31961342675909, -16.780965175424026, 0.0], [-63.32013879572579, -16.78133292163064, 0.0], [-63.32024752420107, -16.781409028716357, 0.0], [-63.32072678599997, -16.781744497999913, 0.0], [-63.320787467999935, -16.781790493999893, 0.0], [-63.3208472639999, -16.78183534199997, 0.0], [-63.32090415899989, -16.781871236999905, 0.0], [-63.32095757799987, -16.7819066479999, 0.0], [-63.32101567099989, -16.781941589999974, 0.0], [-63.32105694199993, -16.781976059999977, 0.0], [-63.32111705899991, -16.78200484099995, 0.0], [-63.321160250999924, -16.782035869999962, 0.0], [-63.321203752999914, -16.782061439999946, 0.0], [-63.32124901299994, -16.782089275999905, 0.0], [-63.32125919788832, -16.782095683709148, 0.0], [-63.32130068999993, -16.782121787999937, 0.0], [-63.32137435699997, -16.782161558999974, 0.0], [-63.32145510358505, -16.7821879151691, 0.0], [-63.32145639899995, -16.782188337999965, 0.0], [-63.32158054099989, -16.782218156999928, 0.0], [-63.321652550068976, -16.782235753475597, 0.0], [-63.321728708999906, -16.78225436399998, 0.0], [-63.32173049814177, -16.78225465257953, 0.0], [-63.322163137142475, -16.78232443458199, 0.0], [-63.32216728553332, -16.782325103687192, 0.0], [-63.32229213529482, -16.782345241001998, 0.0], [-63.3225199372848, -16.782381983519834, 0.0], [-63.3227208772011, -16.782414393192706, 0.0], [-63.322853772952435, -16.78243582788311, 0.0], [-63.32294903255016, -16.7824511922009, 0.0], [-63.323274469359035, -16.78250368120067, 0.0], [-63.32341541111455, -16.782526413222826, 0.0], [-63.3238280620071, -16.78259296771108, 0.0], [-63.323976758524445, -16.782616950046265, 0.0], [-63.32397704978112, -16.78261699702113, 0.0], [-63.324363797390305, -16.782679372601045, 0.0], [-63.324508614601804, -16.78270272886946, 0.0], [-63.32456868722554, -16.782712417412167, 0.0], [-63.32484351748517, -16.782756741936733, 0.0], [-63.32546653496932, -16.782857220531653, 0.0], [-63.325605633354975, -16.782879653674883, 0.0], [-63.32544400105315, -16.782801826514017, 0.0], [-63.325444001032054, -16.782801826462165, 0.0], [-63.32560563335497, -16.782879653674872, 0.0], [-63.326026930999944, -16.78294759799997, 0.0], [-63.32588596299997, -16.782443654999952, 0.0], [-63.32581498699989, -16.782194645999933, 0.0], [-63.32578479770982, -16.78209226142698, 0.0], [-63.32575738111382, -16.78199928012212, 0.0], [-63.325597324999876, -16.781456459999955, 0.0], [-63.325560641673704, -16.78132732678581, 0.0], [-63.325540902888626, -16.781257841930096, 0.0]], [[-63.31938555659354, -16.771786462031127, 0.0], [-63.31938555659373, -16.771786462146938, 0.0], [-63.31935659050769, -16.771753850810445, 0.0], [-63.31938555659354, -16.771786462031127, 0.0]], [[-63.321455026814924, -16.78214191806808, 0.0], [-63.32145459542627, -16.782142650852933, 0.0], [-63.32145502681492, -16.782141918065317, 0.0], [-63.321455026814924, -16.78214191806808, 0.0]], [[-63.32452983426887, -16.782616265439607, 0.0], [-63.32452983394994, -16.782616260340063, 0.0], [-63.324534199519704, -16.782679172417485, 0.0], [-63.32452983426887, -16.782616265439607, 0.0]], [[-63.32107477190659, -16.779096541512015, 0.0], [-63.32107230977443, -16.778924551171897, 0.0], [-63.32107477191038, -16.779096541538678, 0.0], [-63.32107477190659, -16.779096541512015, 0.0]], [[-63.321045117914615, -16.778888308996248, 0.0], [-63.32104511791106, -16.778888308971293, 0.0], [-63.32107230977443, -16.778924551171897, 0.0], [-63.321045117914615, -16.778888308996248, 0.0]], [[-63.31976504485144, -16.77546985991862, 0.0], [-63.31976482022597, -16.775469525494543, 0.0], [-63.319765044851636, -16.77546985991862, 0.0], [-63.31976504485144, -16.77546985991862, 0.0]], [[-63.31900671333209, -16.7683437081827, 0.0], [-63.31900750217146, -16.768344122626587, 0.0], [-63.31900750216896, -16.76834412262659, 0.0], [-63.31900671333209, -16.7683437081827, 0.0]], [[-63.32527907466285, -16.781846694774625, 0.0], [-63.32530838770183, -16.782131579806347, 0.0], [-63.32530838755554, -16.78213157958856, 0.0], [-63.32527907466395, -16.78184669500874, 0.0], [-63.32527907466285, -16.781846694774625, 0.0]], [[-63.3210710606568, -16.775824917257705, 0.0], [-63.32107136236529, -16.775943236742734, 0.0], [-63.321071362353244, -16.775943236722597, 0.0], [-63.321071060706096, -16.77582494407277, 0.0], [-63.3210710606568, -16.775824917257705, 0.0]]]}, "properties": {"lote_id": "3", "orden": 4, "estrato": "ATENCION", "fecha_dato": "2026-04-21", "dias_atras": 8, "area_ha": 79.52, "status": "pending"}}, {"type": "Feature", "geometry": {"type": "Polygon", "coordinates": [[[-63.3245688498678, -16.774281710417767], [-63.324570600680076, -16.7742814998349], [-63.32457174833185, -16.774281361798526], [-63.32494976537023, -16.77423589459304], [-63.32559212785694, -16.774158630758574], [-63.32547567209131, -16.77383866822919], [-63.325191010587375, -16.77305655502475], [-63.32478453779614, -16.771939750665837], [-63.32476424049806, -16.77188398244645], [-63.32474643693453, -16.771835065904426], [-63.324605494282544, -16.77144781509171], [-63.32444978645805, -16.77101999382332], [-63.32416989211551, -16.77025095362293], [-63.32391908709319, -16.76956183372266], [-63.32385323555586, -16.76938089702782], [-63.32366253675089, -16.76885692214902], [-63.32352523926462, -16.768479673815463], [-63.32319710669913, -16.767578066825106], [-63.32308549764107, -16.767271397459357], [-63.32280268373395, -16.76649430191536], [-63.32146400857811, -16.765640024095244], [-63.32146368370108, -16.76563981677241], [-63.32256833999652, -16.768714250424512], [-63.32259436289135, -16.76878667495944], [-63.322595423704534, -16.76878962731615], [-63.32271991674113, -16.76913610407623], [-63.32288691653858, -16.76960087930264], [-63.32395418801546, -16.772571131763563], [-63.324000325875915, -16.772699532698244], [-63.32435417793506, -16.773684291077632], [-63.3243739379905, -16.773739282319], [-63.32441644185867, -16.773857568330506], [-63.32442783884679, -16.773889285516827], [-63.32453971076004, -16.774200618238247], [-63.32456877523148, -16.774281502709982], [-63.3245688498678, -16.774281710417767]], [[-63.324000523799654, -16.772571058099764], [-63.32400052378731, -16.772571058110206], [-63.32395418801546, -16.772571131763563], [-63.324000523799654, -16.772571058099764]]]}, "properties": {"lote_id": "J2_soya", "orden": 5, "estrato": "VIGILANCIA", "fecha_dato": "2026-04-29", "dias_atras": 0, "area_ha": 10.15, "status": "pending"}}, {"type": "Feature", "geometry": {"type": "Polygon", "coordinates": [[[-63.319499692677724, -16.81064188547614, 0.0], [-63.319523058784185, -16.8106116957034, 0.0], [-63.319523080999936, -16.810611666999925, 0.0], [-63.319523058821076, -16.810611652977897, 0.0], [-63.31932888857363, -16.81048889354232, 0.0], [-63.31905603652605, -16.810316388860166, 0.0], [-63.318985184109934, -16.810271593872912, 0.0], [-63.318814610840356, -16.810163752232025, 0.0], [-63.31709764285868, -16.80907821767089, 0.0], [-63.31707991460614, -16.80906700903267, 0.0], [-63.31706208101674, -16.80905573379261, 0.0], [-63.315021986719245, -16.807765870280456, 0.0], [-63.314929550260395, -16.8077074257961, 0.0], [-63.31313660315151, -16.80657378974933, 0.0], [-63.31313627299995, -16.806573580999956, 0.0], [-63.31313610206918, -16.806573790503233, 0.0], [-63.31305976350674, -16.806667355687757, 0.0], [-63.31305523099996, -16.806672910999964, 0.0], [-63.31308536811287, -16.80669179441102, 0.0], [-63.314629360913976, -16.80765922343599, 0.0], [-63.3148599292289, -16.80780369017707, 0.0], [-63.31493021331321, -16.807847727843082, 0.0], [-63.3152579667134, -16.808053086612844, 0.0], [-63.31579192693184, -16.808387645241048, 0.0], [-63.315848063278814, -16.808422817934, 0.0], [-63.315902664314855, -16.808457028637715, 0.0], [-63.31657371926297, -16.808877481119602, 0.0], [-63.31698593715361, -16.809135756054154, 0.0], [-63.317046779618494, -16.809173876742392, 0.0], [-63.31708622289757, -16.809198589808386, 0.0], [-63.31765762456144, -16.80955659818821, 0.0], [-63.31877268157874, -16.810255222108573, 0.0], [-63.31894431202744, -16.81036275384498, 0.0], [-63.31905568020801, -16.81043252928011, 0.0], [-63.319463482074966, -16.810688028160985, 0.0], [-63.31946381699998, -16.81068823799994, 0.0], [-63.3194639799922, -16.81068802740884, 0.0], [-63.319499692677724, -16.81064188547614, 0.0]]]}, "properties": {"lote_id": "A1", "orden": 6, "estrato": "VIGILANCIA", "fecha_dato": "2026-04-29", "dias_atras": 0, "area_ha": 0.99, "status": "pending"}}]}