{"type": "FeatureCollection", "features": [{"type": "Feature", "geometry": {"type": "MultiPolygon", "coordinates": [[[[-50.65505464675906, -23.480869113559972, 0.0], [-50.65656225863661, -23.48125993196528, 0.0], [-50.65602821571603, -23.494703500583263, 0.0], [-50.657440359144616, -23.494594406215892, 0.0], [-50.65904707161062, -23.495452011665346, 0.0], [-50.660307535216745, -23.495623487804497, 0.0], [-50.66091797927519, -23.49537910608215, 0.0], [-50.661069413595285, -23.494633774985495, 0.0], [-50.66189603893997, -23.47677330416047, 0.0], [-50.661404246358615, -23.47654694025398, 0.0], [-50.660358679027226, -23.477587093894858, 0.0], [-50.65996745107739, -23.48006788707796, 0.0], [-50.66057847924624, -23.480533066922238, 0.0], [-50.660118760253646, -23.482255825743536, 0.0], [-50.65847124892549, -23.48268473205356, 0.0], [-50.65807905040498, -23.483365398487514, 0.0], [-50.657605721530686, -23.483403678365818, 0.0], [-50.65725257119519, -23.482999520475953, 0.0], [-50.65788602725114, -23.48227316546221, 0.0], [-50.65773731822333, -23.48124656075008, 0.0], [-50.65972389686992, -23.47950063148636, 0.0], [-50.660368878023874, -23.477180996963234, 0.0], [-50.661820232644594, -23.47616567453452, 0.0], [-50.66108004788014, -23.475085237803963, 0.0], [-50.6588815222634, -23.47423558934805, 0.0], [-50.657656580149265, -23.474866338255662, 0.0], [-50.65542762221696, -23.474171119968865, 0.0], [-50.65505464675906, -23.480869113559972, 0.0]]], [[[-50.65680415059069, -23.49616627350364, 0.0], [-50.655920538050424, -23.496136084160774, 0.0], [-50.65590744075277, -23.49649408158203, 0.0], [-50.65660083219876, -23.496814789795383, 0.0], [-50.65589479169222, -23.496778492853252, 0.0], [-50.65583663094045, -23.49811501917952, 0.0], [-50.6608903956098, -23.49994950576059, 0.0], [-50.660979505651596, -23.495887032414775, 0.0], [-50.65915292134764, -23.49614039382674, 0.0], [-50.65594941746928, -23.495150246778632, 0.0], [-50.65596988549244, -23.495753011517113, 0.0], [-50.65680415059069, -23.49616627350364, 0.0]]]]}, "properties": {"tipo": "perimetro", "id": "SANTO_ANTONIO-PERIMETRO", "hacienda": "Santo Antonio"}}, {"type": "Feature", "geometry": {"type": "MultiPolygon", "coordinates": [[[[-50.66156911491884, -23.47694773447451], [-50.66155482600152, -23.482548031767983], [-50.66135896917677, -23.482547606424678], [-50.66135850790085, -23.482728261104796], [-50.660966793739306, -23.482727409663603], [-50.6609663319244, -23.482908064334737], [-50.66037875991402, -23.4829067853314], [-50.660378297299616, -23.48308743998457], [-50.659790724525664, -23.483086158744428], [-50.65979026110278, -23.48326681338861], [-50.659006829734395, -23.483265101612904], [-50.659006365242504, -23.48344575623014], [-50.65881050715113, -23.483445327670868], [-50.658810042380765, -23.48362598227912], [-50.658614184019896, -23.48362555346832], [-50.658613718989024, -23.48380620807657], [-50.658222001755234, -23.483805349709364], [-50.65822153617639, -23.48398600429965], [-50.657438100693724, -23.48398428459182], [-50.657438567332576, -23.4838036300195], [-50.657242708738146, -23.483803199474952], [-50.6572431756465, -23.483622544902634], [-50.6568514590056, -23.48362168309488], [-50.656851926434975, -23.483441028513578], [-50.65665606838851, -23.48344059725038], [-50.65665653608738, -23.483259942669076], [-50.65646067831041, -23.48325951116333], [-50.65646208217059, -23.482717547419423], [-50.65665793913907, -23.48271797892517], [-50.656658874491896, -23.482356669735616], [-50.65685473093038, -23.482357100980852], [-50.65685566572624, -23.48199579176435], [-50.65665980981777, -23.4819953605281], [-50.65666214805161, -23.481092087441926], [-50.65646629348162, -23.48109165597211], [-50.65646676137812, -23.480911001345895], [-50.655879198494624, -23.48090970548118], [-50.655879667190625, -23.480729050863946], [-50.655683813168615, -23.48072861842395], [-50.65568475108164, -23.480367309180497], [-50.655488897598616, -23.48036687649796], [-50.6554917128199, -23.479282948686755], [-50.65568756470392, -23.479283381342345], [-50.6556880336245, -23.479102726689177], [-50.65549218200099, -23.479102294033588], [-50.655496404478086, -23.47747640200237], [-50.65530055527105, -23.477475969131184], [-50.65530149408238, -23.477114659752985], [-50.65549734275942, -23.477115092615186], [-50.65549921925021, -23.476392473786923], [-50.65569506686723, -23.476392906388615], [-50.65569881750422, -23.474947668507507], [-50.65589466299224, -23.47494810083072], [-50.65589513152654, -23.474767446069755], [-50.65609097675405, -23.474767878150423], [-50.65609144502784, -23.474587223380475], [-50.65628728998585, -23.474587655209614], [-50.65628682198155, -23.474768309979563], [-50.656482667218036, -23.474768741557178], [-50.656482199474254, -23.474949396327123], [-50.65726558152513, -23.474951120212122], [-50.65726511484135, -23.475131774991052], [-50.65804849803309, -23.475133494959394], [-50.658048963647865, -23.474952840162498], [-50.65824480918978, -23.474953269539235], [-50.65824527453506, -23.474772614733354], [-50.658441119807485, -23.474773043858566], [-50.65844158488327, -23.474592389052685], [-50.65902911994595, -23.474593674928133], [-50.65902865567864, -23.47477432975198], [-50.65942034628636, -23.474775185783564], [-50.65941988254008, -23.47495584060741], [-50.65961572811793, -23.474956268259383], [-50.65961526463216, -23.47513692308323], [-50.659811110479495, -23.47513735049266], [-50.65981064726322, -23.475318005316506], [-50.66020233950588, -23.475318859398747], [-50.660201876810625, -23.475499514231576], [-50.66039772320594, -23.47549994090439], [-50.66039726078018, -23.475680595728235], [-50.66059310744499, -23.475681022167482], [-50.660591258757044, -23.476403641444904], [-50.660395411023245, -23.476403214996672], [-50.66039448611782, -23.476764524599453], [-50.660198637863, -23.476764097899693], [-50.66019817513182, -23.476944752687608], [-50.66000232661648, -23.47694432573632], [-50.66000093760545, -23.477486290073113], [-50.65980508829061, -23.477485862870296], [-50.65980369844416, -23.478027827162173], [-50.65960784832982, -23.47802739968986], [-50.65960460331856, -23.479291982872887], [-50.659212899379845, -23.47929112714673], [-50.65921243525627, -23.47947178186278], [-50.65901658302191, -23.4794713536269], [-50.65901611861986, -23.479652008333968], [-50.65862441363909, -23.47965115112559], [-50.65862394870703, -23.47983180581469], [-50.65842809595165, -23.479831376833207], [-50.65842716553956, -23.480192686211407], [-50.658231312254166, -23.4801922569784], [-50.65823084677414, -23.480372911649532], [-50.658034993228235, -23.480372482164995], [-50.658034527478705, -23.48055313683613], [-50.65764281987486, -23.48055227712145], [-50.65764235358635, -23.480732931783603], [-50.65744649951942, -23.48073250155346], [-50.65744556639442, -23.481093810850815], [-50.65724971179748, -23.481093380360164], [-50.65724784442459, -23.481815998883], [-50.65705198876765, -23.48181556814082], [-50.6570487188012, -23.48308015037163], [-50.65724457632664, -23.48308058114076], [-50.65724410943625, -23.483261235731046], [-50.657439967231184, -23.48326166625763], [-50.65743950060131, -23.483442320847914], [-50.65822293288598, -23.48344404051083], [-50.65822339844686, -23.48326338590258], [-50.658419256259755, -23.48326381519847], [-50.658420186833546, -23.482902505972984], [-50.658616044125424, -23.482902935017346], [-50.65861650913833, -23.482722280391126], [-50.65881236616071, -23.48272270918396], [-50.658812830904125, -23.482542054548762], [-50.659008687665995, -23.482542483090068], [-50.65900915213093, -23.482361828454867], [-50.66018429120197, -23.482364394519426], [-50.66018567978181, -23.481822430506025], [-50.660381535510616, -23.48182285731358], [-50.660382460676544, -23.481461547944367], [-50.66057831587535, -23.481461974500395], [-50.66058108965735, -23.48037804626698], [-50.66038523605755, -23.48037761972892], [-50.660386161142625, -23.480016310296822], [-50.660190308081816, -23.480015883525198], [-50.660194935923684, -23.47820933612216], [-50.6603907863165, -23.47820976285785], [-50.66039263625309, -23.477487143760094], [-50.6605884855859, -23.477487570235272], [-50.660588947796064, -23.47730691544736], [-50.660784796859375, -23.47730734167101], [-50.66078525880004, -23.477126686874115], [-50.66098110760284, -23.47712711284624], [-50.66098156926503, -23.47694645804036], [-50.66156911491884, -23.47694773447451]]]]}, "properties": {"tipo": "estrato", "id": "SANTO_ANTONIO-02-B1", "etiqueta": "B1", "lote_id": "SANTO_ANTONIO-02", "estrato": 1, "area_ha": 39.363, "partes": 1, "atraso_medido_dias": 36.5, "atraso_declarado_dias": 9, "diferencia_dias": 27.5, "clase": "bloque de siembra", "accion": "revisar la implantacion de este bloque", "capa": "contexto", "hacienda": "Santo Antonio", "cultivo": "trigo", "name": "SANTO_ANTONIO-02 / B1"}}, {"type": "Feature", "geometry": {"type": "MultiPolygon", "coordinates": [[[[-50.66155482600152, -23.482548031767983], [-50.6615502157307, -23.484354578416433], [-50.66135435623795, -23.4843541530372], [-50.66135251093666, -23.485076771569016], [-50.66056906874358, -23.485075067527806], [-50.66056953115137, -23.48489441291057], [-50.660177810611785, -23.48489355942122], [-50.66017734768297, -23.48507421402947], [-50.66037320820878, -23.48507464089991], [-50.66037228286319, -23.48543595009845], [-50.66056814393698, -23.485436376735326], [-50.6605676815202, -23.485617031334595], [-50.6607635428545, -23.485617457719943], [-50.66076308070721, -23.485798112319213], [-50.66095894231999, -23.485798538471], [-50.66095755663273, -23.486340502250837], [-50.660761694220454, -23.486340076090066], [-50.66076076988098, -23.48670138525267], [-50.66095663282326, -23.486701811422424], [-50.66095617090954, -23.486882465994743], [-50.6611520341303, -23.48688289192195], [-50.66115249577452, -23.48670223734065], [-50.66134835872579, -23.48670266301633], [-50.6613405146547, -23.48977379037744], [-50.66094877967918, -23.48977293865777], [-50.660950627594566, -23.489050320593073], [-50.66114649401333, -23.489050746556217], [-50.6611478791077, -23.48850878295604], [-50.66095201348844, -23.48850835700188], [-50.660952475438094, -23.488327702456512], [-50.66114834079684, -23.48832812841067], [-50.66115064916169, -23.48742485563891], [-50.66017132912328, -23.487422723496564], [-50.66017040312192, -23.487784032587303], [-50.66036626765422, -23.48778445951164], [-50.660365342164894, -23.488145768584413], [-50.66016947710259, -23.48814534165109], [-50.66016901408394, -23.488325996178496], [-50.659973148752144, -23.488325568993645], [-50.659972685464005, -23.488506223521046], [-50.65977681987169, -23.48850579608467], [-50.65977589274743, -23.488867105103544], [-50.65958002662512, -23.488866677415636], [-50.659579562789006, -23.48904733191609], [-50.65938369641516, -23.489046903976654], [-50.65938323230057, -23.489227558477108], [-50.659187365657225, -23.489227130286146], [-50.659186901282126, -23.48940778476863], [-50.65899103436929, -23.489407356335125], [-50.65899056972469, -23.489588010808628], [-50.658402968231606, -23.489586724007914], [-50.658404830007996, -23.488864106122882], [-50.65762136568941, -23.488862386998957], [-50.65762183218453, -23.488681732534435], [-50.65703423479675, -23.48868044062231], [-50.65703470209137, -23.48849978615779], [-50.65683883657093, -23.488499355029337], [-50.656839304126066, -23.488318700573796], [-50.656643438875115, -23.488318269202797], [-50.65664390669975, -23.488137614738278], [-50.656839771681206, -23.488138046100293], [-50.656840239227364, -23.48795739163577], [-50.65703610394831, -23.48795782274626], [-50.657035636671644, -23.488138477219763], [-50.65723150166209, -23.48813890809669], [-50.65723103463695, -23.488319562570194], [-50.657622765174786, -23.488320423587428], [-50.657623231660935, -23.48813976910494], [-50.657819096660354, -23.488140199236266], [-50.65782002908467, -23.487778890253324], [-50.65742830014584, -23.487778029757113], [-50.657428766892494, -23.487597375265644], [-50.65723290269257, -23.48759694464923], [-50.65723383668894, -23.487235635666288], [-50.65742970034987, -23.48723606627372], [-50.65743063379826, -23.48687475726383], [-50.65762649692919, -23.48687518761973], [-50.65762882912635, -23.485971915009667], [-50.65802055273817, -23.48597277493994], [-50.65802101863143, -23.48579212039457], [-50.65821688018132, -23.48579254999589], [-50.658218277025654, -23.485250586332832], [-50.65763069480143, -23.48524929683717], [-50.65763116120673, -23.485068642291804], [-50.65782702167864, -23.485069072360247], [-50.657827487814444, -23.48488841779691], [-50.659590229851815, -23.484892277336662], [-50.65959115730845, -23.484530968138127], [-50.65900357819239, -23.48452968386168], [-50.659004042711224, -23.484349029271396], [-50.6584164644306, -23.48434774279408], [-50.658415999112265, -23.484528397375378], [-50.65763256040465, -23.48452667861078], [-50.657632094008335, -23.484707333174114], [-50.65743623407541, -23.484706902863127], [-50.657436700741215, -23.484526248299794], [-50.65724084107779, -23.48452581774626], [-50.6572413080041, -23.484345163182926], [-50.656457870473275, -23.48434343853436], [-50.65646067831041, -23.48325951116333], [-50.65665653608738, -23.483259942669076], [-50.65665606838851, -23.48344059725038], [-50.656851926434975, -23.483441028513578], [-50.6568514590056, -23.48362168309488], [-50.6572431756465, -23.483622544902634], [-50.657242708738146, -23.483803199474952], [-50.657438567332576, -23.4838036300195], [-50.657438100693724, -23.48398428459182], [-50.65822153617639, -23.48398600429965], [-50.658222001755234, -23.483805349709364], [-50.658613718989024, -23.48380620807657], [-50.658614184019896, -23.48362555346832], [-50.658810042380765, -23.48362598227912], [-50.65881050715113, -23.483445327670868], [-50.659006365242504, -23.48344575623014], [-50.659006829734395, -23.483265101612904], [-50.65979026110278, -23.48326681338861], [-50.659790724525664, -23.483086158744428], [-50.660378297299616, -23.48308743998457], [-50.66037875991402, -23.4829067853314], [-50.6609663319244, -23.482908064334737], [-50.660966793739306, -23.482727409663603], [-50.66135850790085, -23.482728261104796], [-50.66135896917677, -23.482547606424678], [-50.66155482600152, -23.482548031767983]], [[-50.659393441599875, -23.485253158658647], [-50.659392049552544, -23.48579512239357], [-50.65919618798468, -23.48579469427447], [-50.65919572369043, -23.48597534883781], [-50.658608138196335, -23.48597406299829], [-50.658609068374865, -23.485612753889587], [-50.65880492966424, -23.48561318273632], [-50.65880539447952, -23.485432528172986], [-50.659001255517374, -23.485432956777174], [-50.65900172006316, -23.485252302204856], [-50.659393441599875, -23.485253158658647]], [[-50.65880167583154, -23.486877764580854], [-50.658800746120136, -23.487239073644645], [-50.658409018735384, -23.487238215627784], [-50.658409484125585, -23.487057561100382], [-50.658213620707194, -23.487057131732623], [-50.658214552008616, -23.4866958226868], [-50.658410414897, -23.486696252045576], [-50.658409949515786, -23.486876906581962], [-50.65880167583154, -23.486877764580854]]], [[[-50.66114418544186, -23.489954019148314], [-50.66113910616962, -23.49194121847364], [-50.66094323548386, -23.491940792447615], [-50.66094693168294, -23.4904955566506], [-50.66075106313518, -23.49049513040898], [-50.6607473647981, -23.491940366170066], [-50.65976801144117, -23.491938231108197], [-50.65976847508864, -23.491757576670626], [-50.65918086392968, -23.491756292690624], [-50.65918179280565, -23.491394983833445], [-50.658985922964305, -23.491394555355022], [-50.65898638765382, -23.49121390091745], [-50.659182257234654, -23.491214329386892], [-50.65918457931678, -23.490311057136154], [-50.65938044755912, -23.49031148534508], [-50.65938183994781, -23.48976952192457], [-50.659577707399635, -23.48976994988197], [-50.65957817125371, -23.489589295399483], [-50.65977403844503, -23.489589723096373], [-50.65977357486044, -23.489770377587845], [-50.66016530978205, -23.48977123226297], [-50.660164846718494, -23.489951886754444], [-50.660360714457774, -23.4899523137237], [-50.66036117724286, -23.489771659223244], [-50.660557044721635, -23.48977208594995], [-50.660557969752816, -23.489410776940062], [-50.66075383670158, -23.48941120340626], [-50.660752449936346, -23.489953166925588], [-50.66114418544186, -23.489954019148314]]], [[[-50.66078525880004, -23.477126686874115], [-50.660784796859375, -23.47730734167101], [-50.660588947796064, -23.47730691544736], [-50.66058940999724, -23.47712626065046], [-50.66078525880004, -23.477126686874115]]], [[[-50.66000093760545, -23.477486290073113], [-50.65999862250323, -23.478389563895902], [-50.659802771849904, -23.478389136666138], [-50.65979999197733, -23.479473065088197], [-50.65960413973398, -23.47947263759792], [-50.659603676140414, -23.47965329231397], [-50.659407823627575, -23.479652864563178], [-50.65940735976451, -23.47983351927923], [-50.659211506991156, -23.479833091285894], [-50.65921104284961, -23.480013745983978], [-50.659015189815754, -23.480013317739115], [-50.65901472540472, -23.4801939724372], [-50.658818872110345, -23.480193543940807], [-50.65881840742981, -23.480374198629907], [-50.65862255387493, -23.48037376988199], [-50.6586220889249, -23.480554424562104], [-50.65842623510052, -23.48055399556266], [-50.658425769881, -23.480734650233792], [-50.6580340617202, -23.480733791498277], [-50.6580331301942, -23.481095100813597], [-50.657837275588285, -23.481094671077532], [-50.6578368095513, -23.481275325721715], [-50.65764095468487, -23.481274895725136], [-50.657639089423014, -23.48199751426594], [-50.65783494534945, -23.4819979442715], [-50.65783401323056, -23.482359253523935], [-50.65763815675616, -23.482358823509394], [-50.657637690422725, -23.482539478117644], [-50.6574418336878, -23.482539047851574], [-50.65744136708488, -23.482719702459825], [-50.65724551008944, -23.482719271942223], [-50.65724457632664, -23.48308058114076], [-50.6570487188012, -23.48308015037163], [-50.65705198876765, -23.48181556814082], [-50.65724784442459, -23.481815998883], [-50.65724971179748, -23.481093380360164], [-50.65744556639442, -23.481093810850815], [-50.65744649951942, -23.48073250155346], [-50.65764235358635, -23.480732931783603], [-50.65764281987486, -23.48055227712145], [-50.658034527478705, -23.48055313683613], [-50.658034993228235, -23.480372482164995], [-50.65823084677414, -23.480372911649532], [-50.658231312254166, -23.4801922569784], [-50.65842716553956, -23.480192686211407], [-50.65842809595165, -23.479831376833207], [-50.65862394870703, -23.47983180581469], [-50.65862441363909, -23.47965115112559], [-50.65901611861986, -23.479652008333968], [-50.65901658302191, -23.4794713536269], [-50.65921243525627, -23.47947178186278], [-50.659212899379845, -23.47929112714673], [-50.65960460331856, -23.479291982872887], [-50.65960784832982, -23.47802739968986], [-50.65980369844416, -23.478027827162173], [-50.65980508829061, -23.477485862870296], [-50.66000093760545, -23.477486290073113]]], [[[-50.65726558152513, -23.474951120212122], [-50.656482199474254, -23.474949396327123], [-50.656482667218036, -23.474768741557178], [-50.65628682198155, -23.474768309979563], [-50.65628728998585, -23.474587655209614], [-50.65667897992881, -23.474588518122296], [-50.656678512454526, -23.47476917289224], [-50.657266048199915, -23.47477046543319], [-50.65726558152513, -23.474951120212122]]], [[[-50.66117834059271, -23.47658557414021], [-50.66078664457713, -23.476584722456472], [-50.66078618265443, -23.476765377271338], [-50.66059033438164, -23.476764951056666], [-50.66058987218944, -23.476945605853565], [-50.66039402366512, -23.47694517939635], [-50.66039356119445, -23.477125834184264], [-50.66019771240063, -23.47712540747552], [-50.660196786929276, -23.477486717042368], [-50.66000093760545, -23.477486290073113], [-50.66000232661648, -23.47694432573632], [-50.66019817513182, -23.476944752687608], [-50.660198637863, -23.476764097899693], [-50.66039448611782, -23.476764524599453], [-50.660395411023245, -23.476403214996672], [-50.660591258757044, -23.476403641444904], [-50.66059310744499, -23.475681022167482], [-50.66039726078018, -23.475680595728235], [-50.66039772320594, -23.47549994090439], [-50.660201876810625, -23.475499514231576], [-50.66020233950588, -23.475318859398747], [-50.65981064726322, -23.475318005316506], [-50.659811110479495, -23.47513735049266], [-50.65961526463216, -23.47513692308323], [-50.65961572811793, -23.474956268259383], [-50.65941988254008, -23.47495584060741], [-50.65942034628636, -23.474775185783564], [-50.65902865567864, -23.47477432975198], [-50.65902911994595, -23.474593674928133], [-50.65844158488327, -23.474592389052685], [-50.658441119807485, -23.474773043858566], [-50.65824527453506, -23.474772614733354], [-50.65824620519868, -23.474411305121592], [-50.65863789470148, -23.47441216310252], [-50.65863835948981, -23.474231508278674], [-50.65903004848056, -23.47423236528044], [-50.65902958421325, -23.474413020104286], [-50.65942127375198, -23.474413876126885], [-50.65942081002366, -23.474594530959717], [-50.65981250011036, -23.47459538599417], [-50.65981203690307, -23.474776040835984], [-50.66039957287304, -23.474777321564083], [-50.66039911045626, -23.474957976405896], [-50.660986647270654, -23.47495925492414], [-50.66098618565338, -23.47513990977494], [-50.66118203153665, -23.475140335468584], [-50.661181570179885, -23.475320990310397], [-50.661377416332655, -23.4753214157615], [-50.66137649414913, -23.47568272545411], [-50.66157234083191, -23.475683150653683], [-50.66157188000515, -23.475863805495496], [-50.6617677269664, -23.475864230461507], [-50.661766805815944, -23.476225540145137], [-50.661375110842414, -23.476224689961583], [-50.661374649728195, -23.47640534478543], [-50.66117880197642, -23.476404919316362], [-50.66117834059271, -23.47658557414021]]], [[[-50.66098156926503, -23.47694645804036], [-50.66098203092722, -23.47676580323448], [-50.661177879209, -23.476766228955075], [-50.66117834059271, -23.47658557414021], [-50.66157003663524, -23.4765864248358], [-50.66156957578153, -23.476767079650664], [-50.66176542407229, -23.476767504634644], [-50.661758054033186, -23.479657981286188], [-50.661562201475434, -23.479657556248313], [-50.66156911491884, -23.47694773447451], [-50.66098156926503, -23.47694645804036]]], [[[-50.66078525880004, -23.477126686874115], [-50.660785720731724, -23.476946032068234], [-50.66098156926503, -23.47694645804036], [-50.66098110760284, -23.47712711284624], [-50.66078525880004, -23.477126686874115]]], [[[-50.658048963647865, -23.474952840162498], [-50.658049429253666, -23.474772185365598], [-50.65824527453506, -23.474772614733354], [-50.65824480918978, -23.474953269539235], [-50.658048963647865, -23.474952840162498]]], [[[-50.65726558152513, -23.474951120212122], [-50.658048963647865, -23.474952840162498], [-50.65804849803309, -23.475133494959394], [-50.65726511484135, -23.475131774991052], [-50.65726558152513, -23.474951120212122]]], [[[-50.658010301936706, -23.489947173815168], [-50.65800983594463, -23.490127828261723], [-50.657813967998734, -23.490127398337012], [-50.657813035448655, -23.490488707203173], [-50.657617166972756, -23.49048827702693], [-50.6576162338747, -23.490849585875125], [-50.65742036486879, -23.490849155438372], [-50.65741989805027, -23.491029809848996], [-50.65702815951743, -23.49102894822989], [-50.65702862687494, -23.49084829382825], [-50.656832757886995, -23.49084786265488], [-50.65683322550502, -23.49066720824426], [-50.65702909423245, -23.49066763941763], [-50.657030028920516, -23.49030633057842], [-50.65722589711795, -23.49030676150026], [-50.65722683124906, -23.489945452643084], [-50.65703096359062, -23.489945021730225], [-50.65703283287693, -23.48922240397994], [-50.657228699475354, -23.489222834874834], [-50.657229166518455, -23.489042180419293], [-50.657425032847385, -23.489042611062658], [-50.6574245660648, -23.4892232655182], [-50.6576204326722, -23.489223695928], [-50.657619499637036, -23.48958500483009], [-50.65781536678343, -23.48958543499735], [-50.6578144342603, -23.489946743890457], [-50.658010301936706, -23.489947173815168]]], [[[-50.65646629348162, -23.48109165597211], [-50.65666214805161, -23.481092087441926], [-50.65666168041562, -23.481272742068143], [-50.65646582557614, -23.481272310598328], [-50.65646629348162, -23.48109165597211]]], [[[-50.655879198494624, -23.48090970548118], [-50.65509578137352, -23.480907974221015], [-50.655100478789905, -23.47910142798579], [-50.65529633039545, -23.47910186113545], [-50.65530055527105, -23.477475969131184], [-50.655496404478086, -23.47747640200237], [-50.65549218200099, -23.479102294033588], [-50.6556880336245, -23.479102726689177], [-50.65568756470392, -23.479283381342345], [-50.6554917128199, -23.479282948686755], [-50.655488897598616, -23.48036687649796], [-50.65568475108164, -23.480367309180497], [-50.655683813168615, -23.48072861842395], [-50.655879667190625, -23.480729050863946], [-50.655879198494624, -23.48090970548118]]], [[[-50.65646629348162, -23.48109165597211], [-50.65587872978964, -23.481090360098413], [-50.655879198494624, -23.48090970548118], [-50.65646676137812, -23.480911001345895], [-50.65646629348162, -23.48109165597211]]], [[[-50.65609191329265, -23.474406568610526], [-50.65609097675405, -23.474767878150423], [-50.65589513152654, -23.474767446069755], [-50.65589466299224, -23.47494810083072], [-50.65569881750422, -23.474947668507507], [-50.65569506686723, -23.476392906388615], [-50.65549921925021, -23.476392473786923], [-50.65549734275942, -23.477115092615186], [-50.65530149408238, -23.477114659752985], [-50.65530571849085, -23.47548876733549], [-50.65550156476939, -23.47548920016176], [-50.655504848291415, -23.47422461690687], [-50.65570069271043, -23.474225049463648], [-50.655700223915616, -23.474405704233593], [-50.65609191329265, -23.474406568610526]]]]}, "properties": {"tipo": "estrato", "id": "SANTO_ANTONIO-02-B2", "etiqueta": "B2", "lote_id": "SANTO_ANTONIO-02", "estrato": 2, "area_ha": 37.076, "partes": 15, "atraso_medido_dias": 8.8, "atraso_declarado_dias": 3, "diferencia_dias": 5.8, "clase": "bloque de siembra", "accion": "sin diferencia relevante con lo declarado", "capa": "contexto", "hacienda": "Santo Antonio", "cultivo": "trigo", "name": "SANTO_ANTONIO-02 / B2"}}, {"type": "Feature", "geometry": {"type": "MultiPolygon", "coordinates": [[[[-50.66135251093666, -23.485076771569016], [-50.66134835872579, -23.48670266301633], [-50.66115249577452, -23.48670223734065], [-50.6611520341303, -23.48688289192195], [-50.66095617090954, -23.486882465994743], [-50.66095663282326, -23.486701811422424], [-50.66076076988098, -23.48670138525267], [-50.660761694220454, -23.486340076090066], [-50.66095755663273, -23.486340502250837], [-50.66095894231999, -23.485798538471], [-50.66076308070721, -23.485798112319213], [-50.6607635428545, -23.485617457719943], [-50.6605676815202, -23.485617031334595], [-50.66056814393698, -23.485436376735326], [-50.66037228286319, -23.48543595009845], [-50.66037320820878, -23.48507464089991], [-50.66017734768297, -23.48507421402947], [-50.660177810611785, -23.48489355942122], [-50.66056953115137, -23.48489441291057], [-50.66056906874358, -23.485075067527806], [-50.66135251093666, -23.485076771569016]]], [[[-50.66115064916169, -23.48742485563891], [-50.66114834079684, -23.48832812841067], [-50.660952475438094, -23.488327702456512], [-50.66095201348844, -23.48850835700188], [-50.6611478791077, -23.48850878295604], [-50.66114649401333, -23.489050746556217], [-50.660950627594566, -23.489050320593073], [-50.66094877967918, -23.48977293865777], [-50.661144647166935, -23.48977336463888], [-50.66114418544186, -23.489954019148314], [-50.660752449936346, -23.489953166925588], [-50.66075383670158, -23.48941120340626], [-50.660557969752816, -23.489410776940062], [-50.660557044721635, -23.48977208594995], [-50.66036117724286, -23.489771659223244], [-50.660360714457774, -23.4899523137237], [-50.660164846718494, -23.489951886754444], [-50.66016530978205, -23.48977123226297], [-50.65977357486044, -23.489770377587845], [-50.65977403844503, -23.489589723096373], [-50.65957817125371, -23.489589295399483], [-50.659577707399635, -23.48976994988197], [-50.65938183994781, -23.48976952192457], [-50.65938044755912, -23.49031148534508], [-50.65918457931678, -23.490311057136154], [-50.659182257234654, -23.491214329386892], [-50.65898638765382, -23.49121390091745], [-50.658985922964305, -23.491394555355022], [-50.65918179280565, -23.491394983833445], [-50.65918086392968, -23.491756292690624], [-50.65976847508864, -23.491757576670626], [-50.65976801144117, -23.491938231108197], [-50.6607473647981, -23.491940366170066], [-50.66075106313518, -23.49049513040898], [-50.66094693168294, -23.4904955566506], [-50.66094323548386, -23.491940792447615], [-50.66113910616962, -23.49194121847364], [-50.661133102674675, -23.49428972610817], [-50.66093722851244, -23.49428930003723], [-50.660934455808416, -23.4953732263752], [-50.66073858004717, -23.495372800034765], [-50.660738117648364, -23.495553454400472], [-50.65917110962707, -23.495550034765714], [-50.659171574163864, -23.495369380426954], [-50.6587798227402, -23.495368523056882], [-50.658780287807005, -23.495187868718126], [-50.65858441236916, -23.495187439673764], [-50.65858487769648, -23.495006785335004], [-50.658389002528125, -23.495006356048098], [-50.65838946812494, -23.494825701700357], [-50.65780184344633, -23.4948244123664], [-50.657802309833656, -23.494643758036624], [-50.65741056061086, -23.49464289725295], [-50.6574110275282, -23.494462242923177], [-50.65643165588157, -23.494460086679034], [-50.65643118763473, -23.494640740990842], [-50.65603943847482, -23.494639876757642], [-50.65604459484947, -23.49265267918403], [-50.65624046648744, -23.49265311138148], [-50.65625311343713, -23.487775442348585], [-50.6564489778796, -23.48777587419569], [-50.656457870473275, -23.48434343853436], [-50.6572413080041, -23.484345163182926], [-50.65724084107779, -23.48452581774626], [-50.657436700741215, -23.484526248299794], [-50.65743623407541, -23.484706902863127], [-50.657632094008335, -23.484707333174114], [-50.65763256040465, -23.48452667861078], [-50.658415999112265, -23.484528397375378], [-50.6584164644306, -23.48434774279408], [-50.659004042711224, -23.484349029271396], [-50.65900357819239, -23.48452968386168], [-50.65959115730845, -23.484530968138127], [-50.659590229851815, -23.484892277336662], [-50.657827487814444, -23.48488841779691], [-50.65782702167864, -23.485069072360247], [-50.65763116120673, -23.485068642291804], [-50.65763069480143, -23.48524929683717], [-50.658218277025654, -23.485250586332832], [-50.65821688018132, -23.48579254999589], [-50.65802101863143, -23.48579212039457], [-50.65802055273817, -23.48597277493994], [-50.65762882912635, -23.485971915009667], [-50.65762649692919, -23.48687518761973], [-50.65743063379826, -23.48687475726383], [-50.65742970034987, -23.48723606627372], [-50.65723383668894, -23.487235635666288], [-50.65723290269257, -23.48759694464923], [-50.657428766892494, -23.487597375265644], [-50.65742830014584, -23.487778029757113], [-50.65782002908467, -23.487778890253324], [-50.657819096660354, -23.488140199236266], [-50.657623231660935, -23.48813976910494], [-50.657622765174786, -23.488320423587428], [-50.65723103463695, -23.488319562570194], [-50.65723150166209, -23.48813890809669], [-50.657035636671644, -23.488138477219763], [-50.65703610394831, -23.48795782274626], [-50.656840239227364, -23.48795739163577], [-50.656839771681206, -23.488138046100293], [-50.65664390669975, -23.488137614738278], [-50.656643438875115, -23.488318269202797], [-50.656839304126066, -23.488318700573796], [-50.65683883657093, -23.488499355029337], [-50.65703470209137, -23.48849978615779], [-50.65703423479675, -23.48868044062231], [-50.65762183218453, -23.488681732534435], [-50.65762136568941, -23.488862386998957], [-50.658404830007996, -23.488864106122882], [-50.658402968231606, -23.489586724007914], [-50.65899056972469, -23.489588010808628], [-50.65899103436929, -23.489407356335125], [-50.659186901282126, -23.48940778476863], [-50.659187365657225, -23.489227130286146], [-50.65938323230057, -23.489227558477108], [-50.65938369641516, -23.489046903976654], [-50.659579562789006, -23.48904733191609], [-50.65958002662512, -23.488866677415636], [-50.65977589274743, -23.488867105103544], [-50.65977681987169, -23.48850579608467], [-50.659972685464005, -23.488506223521046], [-50.659973148752144, -23.488325568993645], [-50.66016901408394, -23.488325996178496], [-50.66016947710259, -23.48814534165109], [-50.660365342164894, -23.488145768584413], [-50.66036626765422, -23.48778445951164], [-50.66017040312192, -23.487784032587303], [-50.66017132912328, -23.487422723496564], [-50.66115064916169, -23.48742485563891]], [[-50.66075753452662, -23.487965967178052], [-50.66075661009731, -23.48832727625981], [-50.66056074475652, -23.48832684981158], [-50.66056166971584, -23.487965540738806], [-50.66075753452662, -23.487965967178052]], [[-50.66075476118479, -23.489049894378404], [-50.6607542989387, -23.489230548896824], [-50.6605584322684, -23.489230122430627], [-50.660558894775015, -23.489049467912206], [-50.66075476118479, -23.489049894378404]], [[-50.65859790501083, -23.489948462116068], [-50.65859743980928, -23.490129116571605], [-50.65840157184541, -23.49012868738351], [-50.658402037316456, -23.489948032927973], [-50.65859790501083, -23.489948462116068]], [[-50.658010301936706, -23.489947173815168], [-50.65800983594463, -23.490127828261723], [-50.657813967998734, -23.490127398337012], [-50.657813035448655, -23.490488707203173], [-50.657617166972756, -23.49048827702693], [-50.6576162338747, -23.490849585875125], [-50.65742036486879, -23.490849155438372], [-50.65741989805027, -23.491029809848996], [-50.65702815951743, -23.49102894822989], [-50.65702862687494, -23.49084829382825], [-50.656832757886995, -23.49084786265488], [-50.65683322550502, -23.49066720824426], [-50.65702909423245, -23.49066763941763], [-50.657030028920516, -23.49030633057842], [-50.65722589711795, -23.49030676150026], [-50.65722683124906, -23.489945452643084], [-50.65703096359062, -23.489945021730225], [-50.65703283287693, -23.48922240397994], [-50.657228699475354, -23.489222834874834], [-50.657229166518455, -23.489042180419293], [-50.657425032847385, -23.489042611062658], [-50.6574245660648, -23.4892232655182], [-50.6576204326722, -23.489223695928], [-50.657619499637036, -23.48958500483009], [-50.65781536678343, -23.48958543499735], [-50.6578144342603, -23.489946743890457], [-50.658010301936706, -23.489947173815168]], [[-50.657042178194565, -23.48560931420443], [-50.657041710971804, -23.485789968731833], [-50.65684584944886, -23.485789537666264], [-50.65684631694111, -23.48560888313886], [-50.657042178194565, -23.48560931420443]]]]}, "properties": {"tipo": "estrato", "id": "SANTO_ANTONIO-02-B3", "etiqueta": "B3", "lote_id": "SANTO_ANTONIO-02", "estrato": 3, "area_ha": 37.758, "partes": 2, "atraso_medido_dias": 0.0, "atraso_declarado_dias": 0, "diferencia_dias": 0.0, "clase": "bloque de siembra", "accion": "sin diferencia relevante con lo declarado", "capa": "contexto", "hacienda": "Santo Antonio", "cultivo": "trigo", "name": "SANTO_ANTONIO-02 / B3"}}]}