{"type": "FeatureCollection", "features": [{"type": "Feature", "geometry": {"type": "MultiPolygon", "coordinates": [[[[-50.63331855589383, -23.511043119747253, 0.0], [-50.63052790442657, -23.515167515441853, 0.0], [-50.63316544977108, -23.51502637667401, 0.0], [-50.63823191258119, -23.516371025820803, 0.0], [-50.641379909468164, -23.516740712531448, 0.0], [-50.64161445824656, -23.51659397589176, 0.0], [-50.642136759356525, -23.512763357666202, 0.0], [-50.64171101391604, -23.511632935319803, 0.0], [-50.640691154528724, -23.510936113922035, 0.0], [-50.63871953895238, -23.51062324196366, 0.0], [-50.638560685026484, -23.511138166479682, 0.0], [-50.640264948880535, -23.513065193485705, 0.0], [-50.64092748704571, -23.513225202915393, 0.0], [-50.64105418502462, -23.5136950665647, 0.0], [-50.640443223493165, -23.514649791235954, 0.0], [-50.639084107902434, -23.51501489006506, 0.0], [-50.638839706282845, -23.51477719147956, 0.0], [-50.63936684951724, -23.513438864074136, 0.0], [-50.639314558717295, -23.512690736212498, 0.0], [-50.63811397365768, -23.511931693684488, 0.0], [-50.63649966420742, -23.51154424483241, 0.0], [-50.63486177266105, -23.51023611671685, 0.0], [-50.63331855589383, -23.511043119747253, 0.0]]], [[[-50.63666116460012, -23.504693817184485, 0.0], [-50.63565219717894, -23.508182738735925, 0.0], [-50.635714912066476, -23.50932203948947, 0.0], [-50.63609880668224, -23.50942158661781, 0.0], [-50.636766343245064, -23.50884977309973, 0.0], [-50.63735452618205, -23.509362729700612, 0.0], [-50.638659895504205, -23.50909787364897, 0.0], [-50.63968532977434, -23.51013304686469, 0.0], [-50.64132095252151, -23.51105928356015, 0.0], [-50.641927442840924, -23.510758546782593, 0.0], [-50.64238669573518, -23.511245292963835, 0.0], [-50.64332843673418, -23.504748330262746, 0.0], [-50.63737445497404, -23.504040549917445, 0.0], [-50.63666116460012, -23.504693817184485, 0.0]]]]}, "properties": {"tipo": "perimetro", "id": "SAO_FRANCISCO-PERIMETRO", "hacienda": "São Francisco"}}]}