{
"type": "FeatureCollection",
"name": "predicted_v2_SANTO_ANTONIO_2025",
"crs": { "type": "name", "properties": { "name": "urn:ogc:def:crs:OGC:1.3:CRS84" } },
"features": [
{ "type": "Feature", "properties": { "area_ha": 5.620048950243751 }, "geometry": { "type": "Polygon", "coordinates": [ [ [ -50.66390404600007, -23.471181743474858 ], [ -50.661388763204535, -23.471181743474858 ], [ -50.661388763204535, -23.471361406531681 ], [ -50.661209100147708, -23.471361406531681 ], [ -50.661209100147708, -23.471900395702153 ], [ -50.661388763204535, -23.471900395702153 ], [ -50.661388763204535, -23.472080058758976 ], [ -50.662287078488653, -23.472080058758976 ], [ -50.662287078488653, -23.472259721815799 ], [ -50.662466741545472, -23.472259721815799 ], [ -50.662466741545472, -23.472439384872622 ], [ -50.662646404602299, -23.472439384872622 ], [ -50.662646404602299, -23.472619047929449 ], [ -50.662466741545472, -23.472619047929449 ], [ -50.662466741545472, -23.472798710986272 ], [ -50.662287078488653, -23.472798710986272 ], [ -50.662287078488653, -23.472978374043095 ], [ -50.662107415431826, -23.472978374043095 ], [ -50.662107415431826, -23.473158037099921 ], [ -50.661748089318181, -23.473158037099921 ], [ -50.661748089318181, -23.473337700156744 ], [ -50.661568426261354, -23.473337700156744 ], [ -50.661568426261354, -23.47369702627039 ], [ -50.661388763204535, -23.47369702627039 ], [ -50.661388763204535, -23.473876689327216 ], [ -50.661568426261354, -23.473876689327216 ], [ -50.661568426261354, -23.474056352384039 ], [ -50.661748089318181, -23.474056352384039 ], [ -50.661748089318181, -23.473876689327216 ], [ -50.661927752375007, -23.473876689327216 ], [ -50.661927752375007, -23.47369702627039 ], [ -50.662107415431826, -23.47369702627039 ], [ -50.662107415431826, -23.473517363213567 ], [ -50.662826067659125, -23.473517363213567 ], [ -50.662826067659125, -23.47369702627039 ], [ -50.663005730715945, -23.47369702627039 ], [ -50.663005730715945, -23.473517363213567 ], [ -50.663365056829598, -23.473517363213567 ], [ -50.663365056829598, -23.47369702627039 ], [ -50.663544719886417, -23.47369702627039 ], [ -50.663544719886417, -23.473876689327216 ], [ -50.663724382943244, -23.473876689327216 ], [ -50.663724382943244, -23.474056352384039 ], [ -50.66390404600007, -23.474056352384039 ], [ -50.66390404600007, -23.473876689327216 ], [ -50.664083709056889, -23.473876689327216 ], [ -50.664083709056889, -23.47369702627039 ], [ -50.66390404600007, -23.47369702627039 ], [ -50.66390404600007, -23.473517363213567 ], [ -50.663724382943244, -23.473517363213567 ], [ -50.663724382943244, -23.473337700156744 ], [ -50.663544719886417, -23.473337700156744 ], [ -50.663544719886417, -23.473158037099921 ], [ -50.663365056829598, -23.473158037099921 ], [ -50.663365056829598, -23.472978374043095 ], [ -50.663185393772771, -23.472978374043095 ], [ -50.663185393772771, -23.472798710986272 ], [ -50.663005730715945, -23.472798710986272 ], [ -50.663005730715945, -23.472619047929449 ], [ -50.663185393772771, -23.472619047929449 ], [ -50.663185393772771, -23.472439384872622 ], [ -50.663365056829598, -23.472439384872622 ], [ -50.663365056829598, -23.472259721815799 ], [ -50.664083709056889, -23.472259721815799 ], [ -50.664083709056889, -23.472439384872622 ], [ -50.664263372113716, -23.472439384872622 ], [ -50.664263372113716, -23.472619047929449 ], [ -50.664443035170535, -23.472619047929449 ], [ -50.664443035170535, -23.472439384872622 ], [ -50.664622698227362, -23.472439384872622 ], [ -50.664622698227362, -23.472259721815799 ], [ -50.664443035170535, -23.472259721815799 ], [ -50.664443035170535, -23.472080058758976 ], [ -50.664263372113716, -23.472080058758976 ], [ -50.664263372113716, -23.471900395702153 ], [ -50.664083709056889, -23.471900395702153 ], [ -50.664083709056889, -23.471361406531681 ], [ -50.66390404600007, -23.471361406531681 ], [ -50.66390404600007, -23.471181743474858 ] ] ] } },
{ "type": "Feature", "properties": { "area_ha": 1.4596651270406507 }, "geometry": { "type": "Polygon", "coordinates": [ [ [ -50.657256512897582, -23.479985233259228 ], [ -50.656897186783937, -23.479985233259228 ], [ -50.656897186783937, -23.480164896316051 ], [ -50.65671752372711, -23.480164896316051 ], [ -50.65671752372711, -23.480344559372877 ], [ -50.656537860670284, -23.480344559372877 ], [ -50.656537860670284, -23.4805242224297 ], [ -50.65671752372711, -23.4805242224297 ], [ -50.65671752372711, -23.480703885486523 ], [ -50.656897186783937, -23.480703885486523 ], [ -50.656897186783937, -23.481063211600173 ], [ -50.657076849840756, -23.481063211600173 ], [ -50.657076849840756, -23.481422537713819 ], [ -50.657256512897582, -23.481422537713819 ], [ -50.657256512897582, -23.481602200770642 ], [ -50.657615839011228, -23.481602200770642 ], [ -50.657615839011228, -23.481422537713819 ], [ -50.657795502068055, -23.481422537713819 ], [ -50.657795502068055, -23.481063211600173 ], [ -50.657975165124881, -23.481063211600173 ], [ -50.657975165124881, -23.480703885486523 ], [ -50.657795502068055, -23.480703885486523 ], [ -50.657795502068055, -23.4805242224297 ], [ -50.657615839011228, -23.4805242224297 ], [ -50.657615839011228, -23.480344559372877 ], [ -50.657436175954409, -23.480344559372877 ], [ -50.657436175954409, -23.480164896316051 ], [ -50.657256512897582, -23.480164896316051 ], [ -50.657256512897582, -23.479985233259228 ] ] ] } },
{ "type": "Feature", "properties": { "area_ha": 37.583555338358778 }, "geometry": { "type": "Polygon", "coordinates": [ [ [ -50.657795502068055, -23.483039505225236 ], [ -50.657615839011228, -23.483039505225236 ], [ -50.657615839011228, -23.483219168282059 ], [ -50.657436175954409, -23.483219168282059 ], [ -50.657436175954409, -23.483398831338882 ], [ -50.657256512897582, -23.483398831338882 ], [ -50.657256512897582, -23.483219168282059 ], [ -50.657076849840756, -23.483219168282059 ], [ -50.657076849840756, -23.483398831338882 ], [ -50.656897186783937, -23.483398831338882 ], [ -50.656897186783937, -23.483578494395704 ], [ -50.65671752372711, -23.483578494395704 ], [ -50.65671752372711, -23.483758157452531 ], [ -50.656897186783937, -23.483758157452531 ], [ -50.656897186783937, -23.484117483566177 ], [ -50.65671752372711, -23.484117483566177 ], [ -50.65671752372711, -23.484297146623003 ], [ -50.656897186783937, -23.484297146623003 ], [ -50.656897186783937, -23.484476809679826 ], [ -50.657076849840756, -23.484476809679826 ], [ -50.657076849840756, -23.484656472736649 ], [ -50.656897186783937, -23.484656472736649 ], [ -50.656897186783937, -23.484836135793472 ], [ -50.65671752372711, -23.484836135793472 ], [ -50.65671752372711, -23.485015798850299 ], [ -50.656897186783937, -23.485015798850299 ], [ -50.656897186783937, -23.485195461907121 ], [ -50.657436175954409, -23.485195461907121 ], [ -50.657436175954409, -23.485375124963944 ], [ -50.657615839011228, -23.485375124963944 ], [ -50.657615839011228, -23.485554788020767 ], [ -50.657795502068055, -23.485554788020767 ], [ -50.657795502068055, -23.485914114134417 ], [ -50.657975165124881, -23.485914114134417 ], [ -50.657975165124881, -23.48609377719124 ], [ -50.657795502068055, -23.48609377719124 ], [ -50.657795502068055, -23.486273440248066 ], [ -50.657615839011228, -23.486273440248066 ], [ -50.657615839011228, -23.486632766361712 ], [ -50.657795502068055, -23.486632766361712 ], [ -50.657795502068055, -23.486812429418535 ], [ -50.657975165124881, -23.486812429418535 ], [ -50.657975165124881, -23.486992092475361 ], [ -50.658154828181701, -23.486992092475361 ], [ -50.658154828181701, -23.487171755532184 ], [ -50.658334491238527, -23.487171755532184 ], [ -50.658334491238527, -23.487351418589007 ], [ -50.658514154295347, -23.487351418589007 ], [ -50.658514154295347, -23.488070070816303 ], [ -50.658334491238527, -23.488070070816303 ], [ -50.658334491238527, -23.488249733873129 ], [ -50.658154828181701, -23.488249733873129 ], [ -50.658154828181701, -23.488429396929952 ], [ -50.657975165124881, -23.488429396929952 ], [ -50.657975165124881, -23.488249733873129 ], [ -50.657436175954409, -23.488249733873129 ], [ -50.657436175954409, -23.488070070816303 ], [ -50.657076849840756, -23.488070070816303 ], [ -50.657076849840756, -23.48789040775948 ], [ -50.656537860670284, -23.48789040775948 ], [ -50.656537860670284, -23.488070070816303 ], [ -50.656358197613464, -23.488070070816303 ], [ -50.656358197613464, -23.488429396929952 ], [ -50.656178534556638, -23.488429396929952 ], [ -50.656178534556638, -23.488609059986775 ], [ -50.655998871499818, -23.488609059986775 ], [ -50.655998871499818, -23.488788723043598 ], [ -50.655819208442992, -23.488788723043598 ], [ -50.655819208442992, -23.488968386100424 ], [ -50.655998871499818, -23.488968386100424 ], [ -50.655998871499818, -23.489148049157247 ], [ -50.656178534556638, -23.489148049157247 ], [ -50.656178534556638, -23.48932771221407 ], [ -50.656358197613464, -23.48932771221407 ], [ -50.656358197613464, -23.48968703832772 ], [ -50.656537860670284, -23.48968703832772 ], [ -50.656537860670284, -23.489866701384543 ], [ -50.65671752372711, -23.489866701384543 ], [ -50.65671752372711, -23.490046364441366 ], [ -50.656537860670284, -23.490046364441366 ], [ -50.656537860670284, -23.490226027498192 ], [ -50.656358197613464, -23.490226027498192 ], [ -50.656358197613464, -23.490585353611838 ], [ -50.656178534556638, -23.490585353611838 ], [ -50.656178534556638, -23.490765016668661 ], [ -50.656358197613464, -23.490765016668661 ], [ -50.656358197613464, -23.49112434278231 ], [ -50.656537860670284, -23.49112434278231 ], [ -50.656537860670284, -23.491304005839133 ], [ -50.656358197613464, -23.491304005839133 ], [ -50.656358197613464, -23.492022658066428 ], [ -50.656178534556638, -23.492022658066428 ], [ -50.656178534556638, -23.493100636407373 ], [ -50.655998871499818, -23.493100636407373 ], [ -50.655998871499818, -23.493819288634668 ], [ -50.655819208442992, -23.493819288634668 ], [ -50.655819208442992, -23.493998951691491 ], [ -50.655998871499818, -23.493998951691491 ], [ -50.655998871499818, -23.494358277805141 ], [ -50.656178534556638, -23.494358277805141 ], [ -50.656178534556638, -23.494537940861964 ], [ -50.656537860670284, -23.494537940861964 ], [ -50.656537860670284, -23.494717603918787 ], [ -50.65671752372711, -23.494717603918787 ], [ -50.65671752372711, -23.494897266975613 ], [ -50.656897186783937, -23.494897266975613 ], [ -50.656897186783937, -23.495076930032436 ], [ -50.65671752372711, -23.495076930032436 ], [ -50.65671752372711, -23.495256593089259 ], [ -50.656897186783937, -23.495256593089259 ], [ -50.656897186783937, -23.495436256146085 ], [ -50.657076849840756, -23.495436256146085 ], [ -50.657076849840756, -23.495615919202908 ], [ -50.657436175954409, -23.495615919202908 ], [ -50.657436175954409, -23.495795582259731 ], [ -50.657975165124881, -23.495795582259731 ], [ -50.657975165124881, -23.495615919202908 ], [ -50.658514154295347, -23.495615919202908 ], [ -50.658514154295347, -23.495795582259731 ], [ -50.658693817352173, -23.495795582259731 ], [ -50.658693817352173, -23.495975245316554 ], [ -50.658873480409, -23.495975245316554 ], [ -50.658873480409, -23.495795582259731 ], [ -50.659053143465819, -23.495795582259731 ], [ -50.659053143465819, -23.495615919202908 ], [ -50.659412469579472, -23.495615919202908 ], [ -50.659412469579472, -23.495436256146085 ], [ -50.659592132636291, -23.495436256146085 ], [ -50.659592132636291, -23.495256593089259 ], [ -50.659771795693118, -23.495256593089259 ], [ -50.659771795693118, -23.495436256146085 ], [ -50.659951458749944, -23.495436256146085 ], [ -50.659951458749944, -23.495615919202908 ], [ -50.660131121806764, -23.495615919202908 ], [ -50.660131121806764, -23.495795582259731 ], [ -50.660490447920409, -23.495795582259731 ], [ -50.660490447920409, -23.495615919202908 ], [ -50.660849774034062, -23.495615919202908 ], [ -50.660849774034062, -23.495436256146085 ], [ -50.661029437090882, -23.495436256146085 ], [ -50.661029437090882, -23.495256593089259 ], [ -50.661209100147708, -23.495256593089259 ], [ -50.661209100147708, -23.494717603918787 ], [ -50.661029437090882, -23.494717603918787 ], [ -50.661029437090882, -23.494537940861964 ], [ -50.660849774034062, -23.494537940861964 ], [ -50.660849774034062, -23.493998951691491 ], [ -50.660670110977236, -23.493998951691491 ], [ -50.660670110977236, -23.493639625577845 ], [ -50.660849774034062, -23.493639625577845 ], [ -50.660849774034062, -23.493459962521019 ], [ -50.660670110977236, -23.493459962521019 ], [ -50.660670110977236, -23.493280299464196 ], [ -50.660849774034062, -23.493280299464196 ], [ -50.660849774034062, -23.493100636407373 ], [ -50.661029437090882, -23.493100636407373 ], [ -50.661029437090882, -23.492741310293724 ], [ -50.660849774034062, -23.492741310293724 ], [ -50.660849774034062, -23.492561647236901 ], [ -50.660670110977236, -23.492561647236901 ], [ -50.660670110977236, -23.492381984180078 ], [ -50.66031078486359, -23.492381984180078 ], [ -50.66031078486359, -23.492561647236901 ], [ -50.660131121806764, -23.492561647236901 ], [ -50.660131121806764, -23.492381984180078 ], [ -50.659951458749944, -23.492381984180078 ], [ -50.659951458749944, -23.492202321123255 ], [ -50.659771795693118, -23.492202321123255 ], [ -50.659771795693118, -23.492022658066428 ], [ -50.659592132636291, -23.492022658066428 ], [ -50.659592132636291, -23.491842995009605 ], [ -50.659412469579472, -23.491842995009605 ], [ -50.659412469579472, -23.492022658066428 ], [ -50.659232806522645, -23.492022658066428 ], [ -50.659232806522645, -23.491842995009605 ], [ -50.659053143465819, -23.491842995009605 ], [ -50.659053143465819, -23.492022658066428 ], [ -50.658873480409, -23.492022658066428 ], [ -50.658873480409, -23.492202321123255 ], [ -50.658693817352173, -23.492202321123255 ], [ -50.658693817352173, -23.492022658066428 ], [ -50.658514154295347, -23.492022658066428 ], [ -50.658514154295347, -23.491842995009605 ], [ -50.658334491238527, -23.491842995009605 ], [ -50.658334491238527, -23.49112434278231 ], [ -50.658154828181701, -23.49112434278231 ], [ -50.658154828181701, -23.490765016668661 ], [ -50.657975165124881, -23.490765016668661 ], [ -50.657975165124881, -23.490585353611838 ], [ -50.657795502068055, -23.490585353611838 ], [ -50.657795502068055, -23.490405690555015 ], [ -50.657615839011228, -23.490405690555015 ], [ -50.657615839011228, -23.490226027498192 ], [ -50.657795502068055, -23.490226027498192 ], [ -50.657795502068055, -23.490046364441366 ], [ -50.657975165124881, -23.490046364441366 ], [ -50.657975165124881, -23.489866701384543 ], [ -50.658154828181701, -23.489866701384543 ], [ -50.658154828181701, -23.48968703832772 ], [ -50.658334491238527, -23.48968703832772 ], [ -50.658334491238527, -23.489507375270893 ], [ -50.658693817352173, -23.489507375270893 ], [ -50.658693817352173, -23.48968703832772 ], [ -50.658873480409, -23.48968703832772 ], [ -50.658873480409, -23.489866701384543 ], [ -50.659053143465819, -23.489866701384543 ], [ -50.659053143465819, -23.490046364441366 ], [ -50.659232806522645, -23.490046364441366 ], [ -50.659232806522645, -23.490226027498192 ], [ -50.659412469579472, -23.490226027498192 ], [ -50.659412469579472, -23.490405690555015 ], [ -50.659592132636291, -23.490405690555015 ], [ -50.659592132636291, -23.490226027498192 ], [ -50.659771795693118, -23.490226027498192 ], [ -50.659771795693118, -23.490046364441366 ], [ -50.659592132636291, -23.490046364441366 ], [ -50.659592132636291, -23.489866701384543 ], [ -50.659412469579472, -23.489866701384543 ], [ -50.659412469579472, -23.48968703832772 ], [ -50.659592132636291, -23.48968703832772 ], [ -50.659592132636291, -23.489507375270893 ], [ -50.659412469579472, -23.489507375270893 ], [ -50.659412469579472, -23.48932771221407 ], [ -50.659232806522645, -23.48932771221407 ], [ -50.659232806522645, -23.489148049157247 ], [ -50.659412469579472, -23.489148049157247 ], [ -50.659412469579472, -23.488968386100424 ], [ -50.659592132636291, -23.488968386100424 ], [ -50.659592132636291, -23.488788723043598 ], [ -50.659771795693118, -23.488788723043598 ], [ -50.659771795693118, -23.488429396929952 ], [ -50.659951458749944, -23.488429396929952 ], [ -50.659951458749944, -23.488249733873129 ], [ -50.660131121806764, -23.488249733873129 ], [ -50.660131121806764, -23.48789040775948 ], [ -50.66031078486359, -23.48789040775948 ], [ -50.66031078486359, -23.487710744702657 ], [ -50.660490447920409, -23.487710744702657 ], [ -50.660490447920409, -23.48753108164583 ], [ -50.660849774034062, -23.48753108164583 ], [ -50.660849774034062, -23.487351418589007 ], [ -50.661029437090882, -23.487351418589007 ], [ -50.661029437090882, -23.487171755532184 ], [ -50.661209100147708, -23.487171755532184 ], [ -50.661209100147708, -23.486992092475361 ], [ -50.661029437090882, -23.486992092475361 ], [ -50.661029437090882, -23.486632766361712 ], [ -50.661209100147708, -23.486632766361712 ], [ -50.661209100147708, -23.486453103304889 ], [ -50.661029437090882, -23.486453103304889 ], [ -50.661029437090882, -23.486273440248066 ], [ -50.66031078486359, -23.486273440248066 ], [ -50.66031078486359, -23.48609377719124 ], [ -50.660131121806764, -23.48609377719124 ], [ -50.660131121806764, -23.485914114134417 ], [ -50.659951458749944, -23.485914114134417 ], [ -50.659951458749944, -23.48609377719124 ], [ -50.659771795693118, -23.48609377719124 ], [ -50.659771795693118, -23.486273440248066 ], [ -50.659412469579472, -23.486273440248066 ], [ -50.659412469579472, -23.48609377719124 ], [ -50.659232806522645, -23.48609377719124 ], [ -50.659232806522645, -23.486273440248066 ], [ -50.659053143465819, -23.486273440248066 ], [ -50.659053143465819, -23.486453103304889 ], [ -50.658873480409, -23.486453103304889 ], [ -50.658873480409, -23.486632766361712 ], [ -50.658693817352173, -23.486632766361712 ], [ -50.658693817352173, -23.486453103304889 ], [ -50.658514154295347, -23.486453103304889 ], [ -50.658514154295347, -23.486273440248066 ], [ -50.658334491238527, -23.486273440248066 ], [ -50.658334491238527, -23.485914114134417 ], [ -50.658514154295347, -23.485914114134417 ], [ -50.658514154295347, -23.485734451077594 ], [ -50.658334491238527, -23.485734451077594 ], [ -50.658334491238527, -23.485554788020767 ], [ -50.658154828181701, -23.485554788020767 ], [ -50.658154828181701, -23.485375124963944 ], [ -50.657975165124881, -23.485375124963944 ], [ -50.657975165124881, -23.484836135793472 ], [ -50.657795502068055, -23.484836135793472 ], [ -50.657795502068055, -23.484656472736649 ], [ -50.657615839011228, -23.484656472736649 ], [ -50.657615839011228, -23.484476809679826 ], [ -50.657436175954409, -23.484476809679826 ], [ -50.657436175954409, -23.484297146623003 ], [ -50.657615839011228, -23.484297146623003 ], [ -50.657615839011228, -23.484117483566177 ], [ -50.657795502068055, -23.484117483566177 ], [ -50.657795502068055, -23.483937820509354 ], [ -50.657975165124881, -23.483937820509354 ], [ -50.657975165124881, -23.484117483566177 ], [ -50.658334491238527, -23.484117483566177 ], [ -50.658334491238527, -23.483937820509354 ], [ -50.658514154295347, -23.483937820509354 ], [ -50.658514154295347, -23.483758157452531 ], [ -50.658334491238527, -23.483758157452531 ], [ -50.658334491238527, -23.483578494395704 ], [ -50.658154828181701, -23.483578494395704 ], [ -50.658154828181701, -23.483398831338882 ], [ -50.657975165124881, -23.483398831338882 ], [ -50.657975165124881, -23.483219168282059 ], [ -50.657795502068055, -23.483219168282059 ], [ -50.657795502068055, -23.483039505225236 ] ], [ [ -50.658334491238527, -23.493819288634668 ], [ -50.658334491238527, -23.493998951691491 ], [ -50.658514154295347, -23.493998951691491 ], [ -50.658514154295347, -23.494178614748318 ], [ -50.658693817352173, -23.494178614748318 ], [ -50.658693817352173, -23.494358277805141 ], [ -50.658514154295347, -23.494358277805141 ], [ -50.658514154295347, -23.494537940861964 ], [ -50.658334491238527, -23.494537940861964 ], [ -50.658334491238527, -23.494717603918787 ], [ -50.658154828181701, -23.494717603918787 ], [ -50.658154828181701, -23.494537940861964 ], [ -50.657975165124881, -23.494537940861964 ], [ -50.657975165124881, -23.494358277805141 ], [ -50.657795502068055, -23.494358277805141 ], [ -50.657795502068055, -23.494178614748318 ], [ -50.657975165124881, -23.494178614748318 ], [ -50.657975165124881, -23.493998951691491 ], [ -50.658154828181701, -23.493998951691491 ], [ -50.658154828181701, -23.493819288634668 ], [ -50.658334491238527, -23.493819288634668 ] ] ] } }
]
}
