{
"type": "FeatureCollection",
"name": "predicted_planting_SANTO_ANTONIO_2025",
"crs": { "type": "name", "properties": { "name": "urn:ogc:def:crs:OGC:1.3:CRS84" } },
"features": [
{ "type": "Feature", "properties": { "area_ha": 2.591070621420565 }, "geometry": { "type": "Polygon", "coordinates": [ [ [ -50.66390404600007, -23.471181743474858 ], [ -50.661388763204535, -23.471181743474858 ], [ -50.661388763204535, -23.471361406531681 ], [ -50.661209100147708, -23.471361406531681 ], [ -50.661209100147708, -23.471720732645327 ], [ -50.661388763204535, -23.471720732645327 ], [ -50.661388763204535, -23.471900395702153 ], [ -50.661927752375007, -23.471900395702153 ], [ -50.661927752375007, -23.472080058758976 ], [ -50.663005730715945, -23.472080058758976 ], [ -50.663005730715945, -23.471900395702153 ], [ -50.663185393772771, -23.471900395702153 ], [ -50.663185393772771, -23.472080058758976 ], [ -50.66390404600007, -23.472080058758976 ], [ -50.66390404600007, -23.471900395702153 ], [ -50.664083709056889, -23.471900395702153 ], [ -50.664083709056889, -23.471361406531681 ], [ -50.66390404600007, -23.471361406531681 ], [ -50.66390404600007, -23.471181743474858 ] ] ] } },
{ "type": "Feature", "properties": { "area_ha": 1.605724425549494 }, "geometry": { "type": "Polygon", "coordinates": [ [ [ -50.653663251761103, -23.472259721815799 ], [ -50.653303925647457, -23.472259721815799 ], [ -50.653303925647457, -23.472439384872622 ], [ -50.652944599533811, -23.472439384872622 ], [ -50.652944599533811, -23.472619047929449 ], [ -50.652764936476984, -23.472619047929449 ], [ -50.652764936476984, -23.472798710986272 ], [ -50.652585273420158, -23.472798710986272 ], [ -50.652585273420158, -23.472978374043095 ], [ -50.652764936476984, -23.472978374043095 ], [ -50.652764936476984, -23.473158037099921 ], [ -50.652585273420158, -23.473158037099921 ], [ -50.652585273420158, -23.47369702627039 ], [ -50.652764936476984, -23.47369702627039 ], [ -50.652764936476984, -23.473876689327216 ], [ -50.652944599533811, -23.473876689327216 ], [ -50.652944599533811, -23.474056352384039 ], [ -50.65312426259063, -23.474056352384039 ], [ -50.65312426259063, -23.473876689327216 ], [ -50.653303925647457, -23.473876689327216 ], [ -50.653303925647457, -23.47369702627039 ], [ -50.653483588704283, -23.47369702627039 ], [ -50.653483588704283, -23.473517363213567 ], [ -50.653303925647457, -23.473517363213567 ], [ -50.653303925647457, -23.473337700156744 ], [ -50.653483588704283, -23.473337700156744 ], [ -50.653483588704283, -23.473158037099921 ], [ -50.653663251761103, -23.473158037099921 ], [ -50.653663251761103, -23.472978374043095 ], [ -50.653842914817929, -23.472978374043095 ], [ -50.653842914817929, -23.472798710986272 ], [ -50.654022577874755, -23.472798710986272 ], [ -50.654022577874755, -23.472619047929449 ], [ -50.653842914817929, -23.472619047929449 ], [ -50.653842914817929, -23.472439384872622 ], [ -50.653663251761103, -23.472439384872622 ], [ -50.653663251761103, -23.472259721815799 ] ] ] } },
{ "type": "Feature", "properties": { "area_ha": 1.2407680386537954 }, "geometry": { "type": "Polygon", "coordinates": [ [ [ -50.661568426261354, -23.474236015440862 ], [ -50.661209100147708, -23.474236015440862 ], [ -50.661209100147708, -23.474415678497685 ], [ -50.661029437090882, -23.474415678497685 ], [ -50.661029437090882, -23.474595341554512 ], [ -50.660849774034062, -23.474595341554512 ], [ -50.660849774034062, -23.474775004611335 ], [ -50.661029437090882, -23.474775004611335 ], [ -50.661029437090882, -23.474954667668158 ], [ -50.661388763204535, -23.474954667668158 ], [ -50.661388763204535, -23.475134330724984 ], [ -50.661568426261354, -23.475134330724984 ], [ -50.661568426261354, -23.475313993781807 ], [ -50.661748089318181, -23.475313993781807 ], [ -50.661748089318181, -23.47549365683863 ], [ -50.661927752375007, -23.47549365683863 ], [ -50.661927752375007, -23.475673319895453 ], [ -50.662287078488653, -23.475673319895453 ], [ -50.662287078488653, -23.47549365683863 ], [ -50.662466741545472, -23.47549365683863 ], [ -50.662466741545472, -23.475134330724984 ], [ -50.662287078488653, -23.475134330724984 ], [ -50.662287078488653, -23.474954667668158 ], [ -50.662107415431826, -23.474954667668158 ], [ -50.662107415431826, -23.474775004611335 ], [ -50.661927752375007, -23.474775004611335 ], [ -50.661927752375007, -23.474595341554512 ], [ -50.661748089318181, -23.474595341554512 ], [ -50.661748089318181, -23.474415678497685 ], [ -50.661568426261354, -23.474415678497685 ], [ -50.661568426261354, -23.474236015440862 ] ] ] } },
{ "type": "Feature", "properties": { "area_ha": 1.8976431596556635 }, "geometry": { "type": "Polygon", "coordinates": [ [ [ -50.653303925647457, -23.474415678497685 ], [ -50.65312426259063, -23.474415678497685 ], [ -50.65312426259063, -23.474595341554512 ], [ -50.652944599533811, -23.474595341554512 ], [ -50.652944599533811, -23.474775004611335 ], [ -50.652764936476984, -23.474775004611335 ], [ -50.652764936476984, -23.474595341554512 ], [ -50.652405610363338, -23.474595341554512 ], [ -50.652405610363338, -23.474775004611335 ], [ -50.652225947306512, -23.474775004611335 ], [ -50.652225947306512, -23.475673319895453 ], [ -50.652405610363338, -23.475673319895453 ], [ -50.652405610363338, -23.475852982952279 ], [ -50.652585273420158, -23.475852982952279 ], [ -50.652585273420158, -23.476032646009102 ], [ -50.652764936476984, -23.476032646009102 ], [ -50.652764936476984, -23.476212309065925 ], [ -50.65312426259063, -23.476212309065925 ], [ -50.65312426259063, -23.476032646009102 ], [ -50.653303925647457, -23.476032646009102 ], [ -50.653303925647457, -23.475673319895453 ], [ -50.653483588704283, -23.475673319895453 ], [ -50.653483588704283, -23.474595341554512 ], [ -50.653303925647457, -23.474595341554512 ], [ -50.653303925647457, -23.474415678497685 ] ] ] } },
{ "type": "Feature", "properties": { "area_ha": 1.2772543723852019 }, "geometry": { "type": "Polygon", "coordinates": [ [ [ -50.656178534556638, -23.475134330724984 ], [ -50.655819208442992, -23.475134330724984 ], [ -50.655819208442992, -23.475313993781807 ], [ -50.655639545386165, -23.475313993781807 ], [ -50.655639545386165, -23.47549365683863 ], [ -50.655459882329346, -23.47549365683863 ], [ -50.655459882329346, -23.476212309065925 ], [ -50.655639545386165, -23.476212309065925 ], [ -50.655639545386165, -23.476391972122748 ], [ -50.656358197613464, -23.476391972122748 ], [ -50.656358197613464, -23.476212309065925 ], [ -50.656537860670284, -23.476212309065925 ], [ -50.656537860670284, -23.476032646009102 ], [ -50.65671752372711, -23.476032646009102 ], [ -50.65671752372711, -23.475852982952279 ], [ -50.656537860670284, -23.475852982952279 ], [ -50.656537860670284, -23.47549365683863 ], [ -50.656358197613464, -23.47549365683863 ], [ -50.656358197613464, -23.475313993781807 ], [ -50.656178534556638, -23.475313993781807 ], [ -50.656178534556638, -23.475134330724984 ] ] ] } },
{ "type": "Feature", "properties": { "area_ha": 8.612038684414955 }, "geometry": { "type": "Polygon", "coordinates": [ [ [ -50.663544719886417, -23.478547928804637 ], [ -50.663365056829598, -23.478547928804637 ], [ -50.663365056829598, -23.47872759186146 ], [ -50.663185393772771, -23.47872759186146 ], [ -50.663185393772771, -23.478547928804637 ], [ -50.662826067659125, -23.478547928804637 ], [ -50.662826067659125, -23.47872759186146 ], [ -50.662466741545472, -23.47872759186146 ], [ -50.662466741545472, -23.478547928804637 ], [ -50.662287078488653, -23.478547928804637 ], [ -50.662287078488653, -23.47872759186146 ], [ -50.662107415431826, -23.47872759186146 ], [ -50.662107415431826, -23.478907254918283 ], [ -50.662287078488653, -23.478907254918283 ], [ -50.662287078488653, -23.47908691797511 ], [ -50.662107415431826, -23.47908691797511 ], [ -50.662107415431826, -23.479446244088756 ], [ -50.661927752375007, -23.479446244088756 ], [ -50.661927752375007, -23.479625907145579 ], [ -50.662107415431826, -23.479625907145579 ], [ -50.662107415431826, -23.479985233259228 ], [ -50.661927752375007, -23.479985233259228 ], [ -50.661927752375007, -23.480703885486523 ], [ -50.661748089318181, -23.480703885486523 ], [ -50.661748089318181, -23.480883548543346 ], [ -50.661927752375007, -23.480883548543346 ], [ -50.661927752375007, -23.481602200770642 ], [ -50.661748089318181, -23.481602200770642 ], [ -50.661748089318181, -23.481781863827468 ], [ -50.661927752375007, -23.481781863827468 ], [ -50.661927752375007, -23.481961526884291 ], [ -50.662107415431826, -23.481961526884291 ], [ -50.662107415431826, -23.482141189941114 ], [ -50.662287078488653, -23.482141189941114 ], [ -50.662287078488653, -23.481961526884291 ], [ -50.662466741545472, -23.481961526884291 ], [ -50.662466741545472, -23.482141189941114 ], [ -50.662646404602299, -23.482141189941114 ], [ -50.662646404602299, -23.48232085299794 ], [ -50.662826067659125, -23.48232085299794 ], [ -50.662826067659125, -23.482141189941114 ], [ -50.663005730715945, -23.482141189941114 ], [ -50.663005730715945, -23.481961526884291 ], [ -50.663185393772771, -23.481961526884291 ], [ -50.663185393772771, -23.481781863827468 ], [ -50.663365056829598, -23.481781863827468 ], [ -50.663365056829598, -23.481602200770642 ], [ -50.664263372113716, -23.481602200770642 ], [ -50.664263372113716, -23.481422537713819 ], [ -50.664622698227362, -23.481422537713819 ], [ -50.664622698227362, -23.481242874656996 ], [ -50.664802361284188, -23.481242874656996 ], [ -50.664802361284188, -23.480164896316051 ], [ -50.664622698227362, -23.480164896316051 ], [ -50.664622698227362, -23.479985233259228 ], [ -50.664443035170535, -23.479985233259228 ], [ -50.664443035170535, -23.479805570202405 ], [ -50.664263372113716, -23.479805570202405 ], [ -50.664263372113716, -23.479985233259228 ], [ -50.664083709056889, -23.479985233259228 ], [ -50.664083709056889, -23.479805570202405 ], [ -50.66390404600007, -23.479805570202405 ], [ -50.66390404600007, -23.479625907145579 ], [ -50.663724382943244, -23.479625907145579 ], [ -50.663724382943244, -23.479446244088756 ], [ -50.66390404600007, -23.479446244088756 ], [ -50.66390404600007, -23.479266581031933 ], [ -50.664083709056889, -23.479266581031933 ], [ -50.664083709056889, -23.47908691797511 ], [ -50.66390404600007, -23.47908691797511 ], [ -50.66390404600007, -23.478907254918283 ], [ -50.663724382943244, -23.478907254918283 ], [ -50.663724382943244, -23.47872759186146 ], [ -50.663544719886417, -23.47872759186146 ], [ -50.663544719886417, -23.478547928804637 ] ] ] } },
{ "type": "Feature", "properties": { "area_ha": 6.3494214521282295 }, "geometry": { "type": "Polygon", "coordinates": [ [ [ -50.652944599533811, -23.481602200770642 ], [ -50.652764936476984, -23.481602200770642 ], [ -50.652764936476984, -23.481781863827468 ], [ -50.652585273420158, -23.481781863827468 ], [ -50.652585273420158, -23.481961526884291 ], [ -50.652405610363338, -23.481961526884291 ], [ -50.652405610363338, -23.482141189941114 ], [ -50.652225947306512, -23.482141189941114 ], [ -50.652225947306512, -23.484476809679826 ], [ -50.652405610363338, -23.484476809679826 ], [ -50.652405610363338, -23.484656472736649 ], [ -50.652585273420158, -23.484656472736649 ], [ -50.652585273420158, -23.484836135793472 ], [ -50.652764936476984, -23.484836135793472 ], [ -50.652764936476984, -23.484656472736649 ], [ -50.652944599533811, -23.484656472736649 ], [ -50.652944599533811, -23.484476809679826 ], [ -50.65312426259063, -23.484476809679826 ], [ -50.65312426259063, -23.484656472736649 ], [ -50.653303925647457, -23.484656472736649 ], [ -50.653303925647457, -23.484836135793472 ], [ -50.653483588704283, -23.484836135793472 ], [ -50.653483588704283, -23.484656472736649 ], [ -50.653663251761103, -23.484656472736649 ], [ -50.653663251761103, -23.484476809679826 ], [ -50.653483588704283, -23.484476809679826 ], [ -50.653483588704283, -23.484297146623003 ], [ -50.653303925647457, -23.484297146623003 ], [ -50.653303925647457, -23.484117483566177 ], [ -50.653483588704283, -23.484117483566177 ], [ -50.653483588704283, -23.483937820509354 ], [ -50.653663251761103, -23.483937820509354 ], [ -50.653663251761103, -23.483758157452531 ], [ -50.653842914817929, -23.483758157452531 ], [ -50.653842914817929, -23.483937820509354 ], [ -50.654920893158874, -23.483937820509354 ], [ -50.654920893158874, -23.484117483566177 ], [ -50.655100556215693, -23.484117483566177 ], [ -50.655100556215693, -23.483937820509354 ], [ -50.655459882329346, -23.483937820509354 ], [ -50.655459882329346, -23.483758157452531 ], [ -50.655639545386165, -23.483758157452531 ], [ -50.655639545386165, -23.483937820509354 ], [ -50.655819208442992, -23.483937820509354 ], [ -50.655819208442992, -23.484117483566177 ], [ -50.655998871499818, -23.484117483566177 ], [ -50.655998871499818, -23.484297146623003 ], [ -50.656178534556638, -23.484297146623003 ], [ -50.656178534556638, -23.484476809679826 ], [ -50.656358197613464, -23.484476809679826 ], [ -50.656358197613464, -23.484297146623003 ], [ -50.656537860670284, -23.484297146623003 ], [ -50.656537860670284, -23.483758157452531 ], [ -50.656358197613464, -23.483758157452531 ], [ -50.656358197613464, -23.483578494395704 ], [ -50.655998871499818, -23.483578494395704 ], [ -50.655998871499818, -23.483398831338882 ], [ -50.655819208442992, -23.483398831338882 ], [ -50.655819208442992, -23.483578494395704 ], [ -50.655639545386165, -23.483578494395704 ], [ -50.655639545386165, -23.483398831338882 ], [ -50.655459882329346, -23.483398831338882 ], [ -50.655459882329346, -23.483219168282059 ], [ -50.654920893158874, -23.483219168282059 ], [ -50.654920893158874, -23.483039505225236 ], [ -50.654381903988401, -23.483039505225236 ], [ -50.654381903988401, -23.483219168282059 ], [ -50.654202240931575, -23.483219168282059 ], [ -50.654202240931575, -23.483039505225236 ], [ -50.654022577874755, -23.483039505225236 ], [ -50.654022577874755, -23.482859842168409 ], [ -50.653663251761103, -23.482859842168409 ], [ -50.653663251761103, -23.482680179111586 ], [ -50.653303925647457, -23.482680179111586 ], [ -50.653303925647457, -23.482500516054763 ], [ -50.65312426259063, -23.482500516054763 ], [ -50.65312426259063, -23.48232085299794 ], [ -50.652944599533811, -23.48232085299794 ], [ -50.652944599533811, -23.481961526884291 ], [ -50.65312426259063, -23.481961526884291 ], [ -50.65312426259063, -23.481781863827468 ], [ -50.652944599533811, -23.481781863827468 ], [ -50.652944599533811, -23.481602200770642 ] ] ] } },
{ "type": "Feature", "properties": { "area_ha": 1.2406721908795235 }, "geometry": { "type": "Polygon", "coordinates": [ [ [ -50.656358197613464, -23.484656472736649 ], [ -50.656178534556638, -23.484656472736649 ], [ -50.656178534556638, -23.484836135793472 ], [ -50.655998871499818, -23.484836135793472 ], [ -50.655998871499818, -23.485015798850299 ], [ -50.655819208442992, -23.485015798850299 ], [ -50.655819208442992, -23.485195461907121 ], [ -50.655639545386165, -23.485195461907121 ], [ -50.655639545386165, -23.485375124963944 ], [ -50.655459882329346, -23.485375124963944 ], [ -50.655459882329346, -23.485554788020767 ], [ -50.655639545386165, -23.485554788020767 ], [ -50.655639545386165, -23.485734451077594 ], [ -50.655819208442992, -23.485734451077594 ], [ -50.655819208442992, -23.48609377719124 ], [ -50.655998871499818, -23.48609377719124 ], [ -50.655998871499818, -23.486273440248066 ], [ -50.656358197613464, -23.486273440248066 ], [ -50.656358197613464, -23.48609377719124 ], [ -50.656537860670284, -23.48609377719124 ], [ -50.656537860670284, -23.484836135793472 ], [ -50.656358197613464, -23.484836135793472 ], [ -50.656358197613464, -23.484656472736649 ] ] ] } },
{ "type": "Feature", "properties": { "area_ha": 9.3780818881843722 }, "geometry": { "type": "Polygon", "coordinates": [ [ [ -50.663185393772771, -23.482500516054763 ], [ -50.662826067659125, -23.482500516054763 ], [ -50.662826067659125, -23.482680179111586 ], [ -50.662646404602299, -23.482680179111586 ], [ -50.662646404602299, -23.482859842168409 ], [ -50.662466741545472, -23.482859842168409 ], [ -50.662466741545472, -23.483039505225236 ], [ -50.662287078488653, -23.483039505225236 ], [ -50.662287078488653, -23.483398831338882 ], [ -50.662107415431826, -23.483398831338882 ], [ -50.662107415431826, -23.483758157452531 ], [ -50.661927752375007, -23.483758157452531 ], [ -50.661927752375007, -23.484297146623003 ], [ -50.662107415431826, -23.484297146623003 ], [ -50.662107415431826, -23.484656472736649 ], [ -50.661927752375007, -23.484656472736649 ], [ -50.661927752375007, -23.485015798850299 ], [ -50.661748089318181, -23.485015798850299 ], [ -50.661748089318181, -23.485195461907121 ], [ -50.661927752375007, -23.485195461907121 ], [ -50.661927752375007, -23.485375124963944 ], [ -50.662107415431826, -23.485375124963944 ], [ -50.662107415431826, -23.485554788020767 ], [ -50.661927752375007, -23.485554788020767 ], [ -50.661927752375007, -23.485734451077594 ], [ -50.661748089318181, -23.485734451077594 ], [ -50.661748089318181, -23.485914114134417 ], [ -50.661927752375007, -23.485914114134417 ], [ -50.661927752375007, -23.48609377719124 ], [ -50.662107415431826, -23.48609377719124 ], [ -50.662107415431826, -23.486453103304889 ], [ -50.662287078488653, -23.486453103304889 ], [ -50.662287078488653, -23.486632766361712 ], [ -50.663005730715945, -23.486632766361712 ], [ -50.663005730715945, -23.486453103304889 ], [ -50.663185393772771, -23.486453103304889 ], [ -50.663185393772771, -23.486273440248066 ], [ -50.663005730715945, -23.486273440248066 ], [ -50.663005730715945, -23.48609377719124 ], [ -50.662826067659125, -23.48609377719124 ], [ -50.662826067659125, -23.485914114134417 ], [ -50.663005730715945, -23.485914114134417 ], [ -50.663005730715945, -23.485734451077594 ], [ -50.663185393772771, -23.485734451077594 ], [ -50.663185393772771, -23.485554788020767 ], [ -50.663544719886417, -23.485554788020767 ], [ -50.663544719886417, -23.485375124963944 ], [ -50.663724382943244, -23.485375124963944 ], [ -50.663724382943244, -23.485554788020767 ], [ -50.664263372113716, -23.485554788020767 ], [ -50.664263372113716, -23.485375124963944 ], [ -50.664443035170535, -23.485375124963944 ], [ -50.664443035170535, -23.485554788020767 ], [ -50.664622698227362, -23.485554788020767 ], [ -50.664622698227362, -23.485375124963944 ], [ -50.664802361284188, -23.485375124963944 ], [ -50.664802361284188, -23.483219168282059 ], [ -50.664622698227362, -23.483219168282059 ], [ -50.664622698227362, -23.483039505225236 ], [ -50.664263372113716, -23.483039505225236 ], [ -50.664263372113716, -23.483219168282059 ], [ -50.66390404600007, -23.483219168282059 ], [ -50.66390404600007, -23.483039505225236 ], [ -50.663724382943244, -23.483039505225236 ], [ -50.663724382943244, -23.482859842168409 ], [ -50.663365056829598, -23.482859842168409 ], [ -50.663365056829598, -23.482680179111586 ], [ -50.663185393772771, -23.482680179111586 ], [ -50.663185393772771, -23.482500516054763 ] ] ] } },
{ "type": "Feature", "properties": { "area_ha": 5.2180002960374896 }, "geometry": { "type": "Polygon", "coordinates": [ [ [ -50.664443035170535, -23.486453103304889 ], [ -50.66390404600007, -23.486453103304889 ], [ -50.66390404600007, -23.486632766361712 ], [ -50.663724382943244, -23.486632766361712 ], [ -50.663724382943244, -23.486812429418535 ], [ -50.663544719886417, -23.486812429418535 ], [ -50.663544719886417, -23.486992092475361 ], [ -50.663724382943244, -23.486992092475361 ], [ -50.663724382943244, -23.487171755532184 ], [ -50.663544719886417, -23.487171755532184 ], [ -50.663544719886417, -23.487351418589007 ], [ -50.663365056829598, -23.487351418589007 ], [ -50.663365056829598, -23.48753108164583 ], [ -50.663185393772771, -23.48753108164583 ], [ -50.663185393772771, -23.487710744702657 ], [ -50.663365056829598, -23.487710744702657 ], [ -50.663365056829598, -23.488249733873129 ], [ -50.663544719886417, -23.488249733873129 ], [ -50.663544719886417, -23.488429396929952 ], [ -50.663365056829598, -23.488429396929952 ], [ -50.663365056829598, -23.488609059986775 ], [ -50.663185393772771, -23.488609059986775 ], [ -50.663185393772771, -23.488788723043598 ], [ -50.662466741545472, -23.488788723043598 ], [ -50.662466741545472, -23.488968386100424 ], [ -50.662287078488653, -23.488968386100424 ], [ -50.662287078488653, -23.48932771221407 ], [ -50.662466741545472, -23.48932771221407 ], [ -50.662466741545472, -23.489507375270893 ], [ -50.662646404602299, -23.489507375270893 ], [ -50.662646404602299, -23.48968703832772 ], [ -50.663005730715945, -23.48968703832772 ], [ -50.663005730715945, -23.489866701384543 ], [ -50.663185393772771, -23.489866701384543 ], [ -50.663185393772771, -23.490046364441366 ], [ -50.663365056829598, -23.490046364441366 ], [ -50.663365056829598, -23.490226027498192 ], [ -50.663724382943244, -23.490226027498192 ], [ -50.663724382943244, -23.490046364441366 ], [ -50.66390404600007, -23.490046364441366 ], [ -50.66390404600007, -23.489866701384543 ], [ -50.664263372113716, -23.489866701384543 ], [ -50.664263372113716, -23.48968703832772 ], [ -50.664443035170535, -23.48968703832772 ], [ -50.664443035170535, -23.489507375270893 ], [ -50.664622698227362, -23.489507375270893 ], [ -50.664622698227362, -23.48932771221407 ], [ -50.664443035170535, -23.48932771221407 ], [ -50.664443035170535, -23.489148049157247 ], [ -50.664263372113716, -23.489148049157247 ], [ -50.664263372113716, -23.488788723043598 ], [ -50.664083709056889, -23.488788723043598 ], [ -50.664083709056889, -23.488609059986775 ], [ -50.66390404600007, -23.488609059986775 ], [ -50.66390404600007, -23.488429396929952 ], [ -50.664083709056889, -23.488429396929952 ], [ -50.664083709056889, -23.488249733873129 ], [ -50.664263372113716, -23.488249733873129 ], [ -50.664263372113716, -23.488070070816303 ], [ -50.664443035170535, -23.488070070816303 ], [ -50.664443035170535, -23.488249733873129 ], [ -50.664622698227362, -23.488249733873129 ], [ -50.664622698227362, -23.488070070816303 ], [ -50.664802361284188, -23.488070070816303 ], [ -50.664802361284188, -23.48789040775948 ], [ -50.664622698227362, -23.48789040775948 ], [ -50.664622698227362, -23.48753108164583 ], [ -50.664802361284188, -23.48753108164583 ], [ -50.664802361284188, -23.486992092475361 ], [ -50.664622698227362, -23.486992092475361 ], [ -50.664622698227362, -23.486632766361712 ], [ -50.664443035170535, -23.486632766361712 ], [ -50.664443035170535, -23.486453103304889 ] ] ] } },
{ "type": "Feature", "properties": { "area_ha": 52.434075666427589 }, "geometry": { "type": "Polygon", "coordinates": [ [ [ -50.662287078488653, -23.495615919202908 ], [ -50.662287078488653, -23.495795582259731 ], [ -50.662107415431826, -23.495795582259731 ], [ -50.662107415431826, -23.495975245316554 ], [ -50.661927752375007, -23.495975245316554 ], [ -50.661927752375007, -23.496154908373381 ], [ -50.661748089318181, -23.496154908373381 ], [ -50.661748089318181, -23.496334571430204 ], [ -50.661568426261354, -23.496334571430204 ], [ -50.661568426261354, -23.496514234487027 ], [ -50.661388763204535, -23.496514234487027 ], [ -50.661388763204535, -23.49669389754385 ], [ -50.661568426261354, -23.49669389754385 ], [ -50.661568426261354, -23.496873560600676 ], [ -50.661748089318181, -23.496873560600676 ], [ -50.661748089318181, -23.497053223657499 ], [ -50.661927752375007, -23.497053223657499 ], [ -50.661927752375007, -23.497232886714322 ], [ -50.661748089318181, -23.497232886714322 ], [ -50.661748089318181, -23.497771875884794 ], [ -50.661927752375007, -23.497771875884794 ], [ -50.661927752375007, -23.498131201998444 ], [ -50.662107415431826, -23.498131201998444 ], [ -50.662107415431826, -23.498310865055267 ], [ -50.662287078488653, -23.498310865055267 ], [ -50.662287078488653, -23.498131201998444 ], [ -50.662466741545472, -23.498131201998444 ], [ -50.662466741545472, -23.497951538941617 ], [ -50.662646404602299, -23.497951538941617 ], [ -50.662646404602299, -23.497771875884794 ], [ -50.662826067659125, -23.497771875884794 ], [ -50.662826067659125, -23.497592212827971 ], [ -50.663005730715945, -23.497592212827971 ], [ -50.663005730715945, -23.497412549771148 ], [ -50.663544719886417, -23.497412549771148 ], [ -50.663544719886417, -23.497232886714322 ], [ -50.664083709056889, -23.497232886714322 ], [ -50.664083709056889, -23.497412549771148 ], [ -50.664263372113716, -23.497412549771148 ], [ -50.664263372113716, -23.497592212827971 ], [ -50.664443035170535, -23.497592212827971 ], [ -50.664443035170535, -23.497771875884794 ], [ -50.664263372113716, -23.497771875884794 ], [ -50.664263372113716, -23.497951538941617 ], [ -50.664443035170535, -23.497951538941617 ], [ -50.664443035170535, -23.498131201998444 ], [ -50.664622698227362, -23.498131201998444 ], [ -50.664622698227362, -23.497951538941617 ], [ -50.664802361284188, -23.497951538941617 ], [ -50.664802361284188, -23.497771875884794 ], [ -50.664622698227362, -23.497771875884794 ], [ -50.664622698227362, -23.497592212827971 ], [ -50.664802361284188, -23.497592212827971 ], [ -50.664802361284188, -23.496514234487027 ], [ -50.664622698227362, -23.496514234487027 ], [ -50.664622698227362, -23.496334571430204 ], [ -50.664263372113716, -23.496334571430204 ], [ -50.664263372113716, -23.496154908373381 ], [ -50.664083709056889, -23.496154908373381 ], [ -50.664083709056889, -23.495975245316554 ], [ -50.66390404600007, -23.495975245316554 ], [ -50.66390404600007, -23.495795582259731 ], [ -50.663724382943244, -23.495795582259731 ], [ -50.663724382943244, -23.495615919202908 ], [ -50.663544719886417, -23.495615919202908 ], [ -50.663544719886417, -23.495436256146085 ], [ -50.663724382943244, -23.495436256146085 ], [ -50.663724382943244, -23.495256593089259 ], [ -50.66390404600007, -23.495256593089259 ], [ -50.66390404600007, -23.495076930032436 ], [ -50.664622698227362, -23.495076930032436 ], [ -50.664622698227362, -23.494897266975613 ], [ -50.664802361284188, -23.494897266975613 ], [ -50.664802361284188, -23.493639625577845 ], [ -50.664622698227362, -23.493639625577845 ], [ -50.664622698227362, -23.493459962521019 ], [ -50.664263372113716, -23.493459962521019 ], [ -50.664263372113716, -23.493639625577845 ], [ -50.664083709056889, -23.493639625577845 ], [ -50.664083709056889, -23.493819288634668 ], [ -50.66390404600007, -23.493819288634668 ], [ -50.66390404600007, -23.493639625577845 ], [ -50.663724382943244, -23.493639625577845 ], [ -50.663724382943244, -23.493819288634668 ], [ -50.663365056829598, -23.493819288634668 ], [ -50.663365056829598, -23.493639625577845 ], [ -50.663005730715945, -23.493639625577845 ], [ -50.663005730715945, -23.493819288634668 ], [ -50.662826067659125, -23.493819288634668 ], [ -50.662826067659125, -23.493639625577845 ], [ -50.662646404602299, -23.493639625577845 ], [ -50.662646404602299, -23.493819288634668 ], [ -50.662466741545472, -23.493819288634668 ], [ -50.662466741545472, -23.493998951691491 ], [ -50.662287078488653, -23.493998951691491 ], [ -50.662287078488653, -23.493819288634668 ], [ -50.662107415431826, -23.493819288634668 ], [ -50.662107415431826, -23.493639625577845 ], [ -50.661927752375007, -23.493639625577845 ], [ -50.661927752375007, -23.493459962521019 ], [ -50.662107415431826, -23.493459962521019 ], [ -50.662107415431826, -23.493100636407373 ], [ -50.662287078488653, -23.493100636407373 ], [ -50.662287078488653, -23.49292097335055 ], [ -50.662466741545472, -23.49292097335055 ], [ -50.662466741545472, -23.492741310293724 ], [ -50.662646404602299, -23.492741310293724 ], [ -50.662646404602299, -23.49292097335055 ], [ -50.662826067659125, -23.49292097335055 ], [ -50.662826067659125, -23.492741310293724 ], [ -50.663005730715945, -23.492741310293724 ], [ -50.663005730715945, -23.492381984180078 ], [ -50.662826067659125, -23.492381984180078 ], [ -50.662826067659125, -23.492202321123255 ], [ -50.662646404602299, -23.492202321123255 ], [ -50.662646404602299, -23.492022658066428 ], [ -50.662466741545472, -23.492022658066428 ], [ -50.662466741545472, -23.491842995009605 ], [ -50.662107415431826, -23.491842995009605 ], [ -50.662107415431826, -23.492022658066428 ], [ -50.661927752375007, -23.492022658066428 ], [ -50.661927752375007, -23.492202321123255 ], [ -50.661748089318181, -23.492202321123255 ], [ -50.661748089318181, -23.492381984180078 ], [ -50.661568426261354, -23.492381984180078 ], [ -50.661568426261354, -23.492741310293724 ], [ -50.661388763204535, -23.492741310293724 ], [ -50.661388763204535, -23.49292097335055 ], [ -50.661209100147708, -23.49292097335055 ], [ -50.661209100147708, -23.493100636407373 ], [ -50.661029437090882, -23.493100636407373 ], [ -50.661029437090882, -23.49292097335055 ], [ -50.660849774034062, -23.49292097335055 ], [ -50.660849774034062, -23.492741310293724 ], [ -50.660670110977236, -23.492741310293724 ], [ -50.660670110977236, -23.492561647236901 ], [ -50.66031078486359, -23.492561647236901 ], [ -50.66031078486359, -23.492741310293724 ], [ -50.660131121806764, -23.492741310293724 ], [ -50.660131121806764, -23.492561647236901 ], [ -50.659951458749944, -23.492561647236901 ], [ -50.659951458749944, -23.492741310293724 ], [ -50.659771795693118, -23.492741310293724 ], [ -50.659771795693118, -23.49292097335055 ], [ -50.659592132636291, -23.49292097335055 ], [ -50.659592132636291, -23.493100636407373 ], [ -50.659412469579472, -23.493100636407373 ], [ -50.659412469579472, -23.493459962521019 ], [ -50.659232806522645, -23.493459962521019 ], [ -50.659232806522645, -23.493639625577845 ], [ -50.659053143465819, -23.493639625577845 ], [ -50.659053143465819, -23.493819288634668 ], [ -50.658873480409, -23.493819288634668 ], [ -50.658873480409, -23.493639625577845 ], [ -50.658693817352173, -23.493639625577845 ], [ -50.658693817352173, -23.493459962521019 ], [ -50.658514154295347, -23.493459962521019 ], [ -50.658514154295347, -23.493280299464196 ], [ -50.658334491238527, -23.493280299464196 ], [ -50.658334491238527, -23.49292097335055 ], [ -50.658514154295347, -23.49292097335055 ], [ -50.658514154295347, -23.492741310293724 ], [ -50.658334491238527, -23.492741310293724 ], [ -50.658334491238527, -23.492561647236901 ], [ -50.658514154295347, -23.492561647236901 ], [ -50.658514154295347, -23.492381984180078 ], [ -50.658334491238527, -23.492381984180078 ], [ -50.658334491238527, -23.492202321123255 ], [ -50.658154828181701, -23.492202321123255 ], [ -50.658154828181701, -23.492022658066428 ], [ -50.658334491238527, -23.492022658066428 ], [ -50.658334491238527, -23.491842995009605 ], [ -50.658514154295347, -23.491842995009605 ], [ -50.658514154295347, -23.491663331952783 ], [ -50.658693817352173, -23.491663331952783 ], [ -50.658693817352173, -23.491304005839133 ], [ -50.658514154295347, -23.491304005839133 ], [ -50.658514154295347, -23.49112434278231 ], [ -50.658334491238527, -23.49112434278231 ], [ -50.658334491238527, -23.490944679725487 ], [ -50.658154828181701, -23.490944679725487 ], [ -50.658154828181701, -23.490765016668661 ], [ -50.657975165124881, -23.490765016668661 ], [ -50.657975165124881, -23.490585353611838 ], [ -50.657795502068055, -23.490585353611838 ], [ -50.657795502068055, -23.490405690555015 ], [ -50.657615839011228, -23.490405690555015 ], [ -50.657615839011228, -23.490226027498192 ], [ -50.657795502068055, -23.490226027498192 ], [ -50.657795502068055, -23.490046364441366 ], [ -50.657975165124881, -23.490046364441366 ], [ -50.657975165124881, -23.489866701384543 ], [ -50.658154828181701, -23.489866701384543 ], [ -50.658154828181701, -23.48968703832772 ], [ -50.658334491238527, -23.48968703832772 ], [ -50.658334491238527, -23.489507375270893 ], [ -50.658693817352173, -23.489507375270893 ], [ -50.658693817352173, -23.48968703832772 ], [ -50.658873480409, -23.48968703832772 ], [ -50.658873480409, -23.489866701384543 ], [ -50.659053143465819, -23.489866701384543 ], [ -50.659053143465819, -23.490226027498192 ], [ -50.658873480409, -23.490226027498192 ], [ -50.658873480409, -23.490405690555015 ], [ -50.658693817352173, -23.490405690555015 ], [ -50.658693817352173, -23.490585353611838 ], [ -50.658873480409, -23.490585353611838 ], [ -50.658873480409, -23.490765016668661 ], [ -50.659053143465819, -23.490765016668661 ], [ -50.659053143465819, -23.490585353611838 ], [ -50.659232806522645, -23.490585353611838 ], [ -50.659232806522645, -23.490765016668661 ], [ -50.659412469579472, -23.490765016668661 ], [ -50.659412469579472, -23.490585353611838 ], [ -50.659592132636291, -23.490585353611838 ], [ -50.659592132636291, -23.490405690555015 ], [ -50.659771795693118, -23.490405690555015 ], [ -50.659771795693118, -23.490046364441366 ], [ -50.659951458749944, -23.490046364441366 ], [ -50.659951458749944, -23.489866701384543 ], [ -50.660131121806764, -23.489866701384543 ], [ -50.660131121806764, -23.48968703832772 ], [ -50.660490447920409, -23.48968703832772 ], [ -50.660490447920409, -23.489866701384543 ], [ -50.660670110977236, -23.489866701384543 ], [ -50.660670110977236, -23.490046364441366 ], [ -50.661029437090882, -23.490046364441366 ], [ -50.661029437090882, -23.489866701384543 ], [ -50.661209100147708, -23.489866701384543 ], [ -50.661209100147708, -23.48968703832772 ], [ -50.661388763204535, -23.48968703832772 ], [ -50.661388763204535, -23.48932771221407 ], [ -50.661209100147708, -23.48932771221407 ], [ -50.661209100147708, -23.489148049157247 ], [ -50.66031078486359, -23.489148049157247 ], [ -50.66031078486359, -23.488968386100424 ], [ -50.660131121806764, -23.488968386100424 ], [ -50.660131121806764, -23.488788723043598 ], [ -50.659951458749944, -23.488788723043598 ], [ -50.659951458749944, -23.488609059986775 ], [ -50.660131121806764, -23.488609059986775 ], [ -50.660131121806764, -23.488429396929952 ], [ -50.659951458749944, -23.488429396929952 ], [ -50.659951458749944, -23.488249733873129 ], [ -50.660131121806764, -23.488249733873129 ], [ -50.660131121806764, -23.488070070816303 ], [ -50.66031078486359, -23.488070070816303 ], [ -50.66031078486359, -23.48789040775948 ], [ -50.660490447920409, -23.48789040775948 ], [ -50.660490447920409, -23.487710744702657 ], [ -50.660670110977236, -23.487710744702657 ], [ -50.660670110977236, -23.48753108164583 ], [ -50.660849774034062, -23.48753108164583 ], [ -50.660849774034062, -23.487351418589007 ], [ -50.661029437090882, -23.487351418589007 ], [ -50.661029437090882, -23.487171755532184 ], [ -50.661209100147708, -23.487171755532184 ], [ -50.661209100147708, -23.486992092475361 ], [ -50.661388763204535, -23.486992092475361 ], [ -50.661388763204535, -23.486632766361712 ], [ -50.661209100147708, -23.486632766361712 ], [ -50.661209100147708, -23.486453103304889 ], [ -50.661029437090882, -23.486453103304889 ], [ -50.661029437090882, -23.486273440248066 ], [ -50.661209100147708, -23.486273440248066 ], [ -50.661209100147708, -23.48609377719124 ], [ -50.661388763204535, -23.48609377719124 ], [ -50.661388763204535, -23.485914114134417 ], [ -50.661568426261354, -23.485914114134417 ], [ -50.661568426261354, -23.485734451077594 ], [ -50.661388763204535, -23.485734451077594 ], [ -50.661388763204535, -23.485554788020767 ], [ -50.661209100147708, -23.485554788020767 ], [ -50.661209100147708, -23.485734451077594 ], [ -50.661029437090882, -23.485734451077594 ], [ -50.661029437090882, -23.485914114134417 ], [ -50.660849774034062, -23.485914114134417 ], [ -50.660849774034062, -23.48609377719124 ], [ -50.66031078486359, -23.48609377719124 ], [ -50.66031078486359, -23.485914114134417 ], [ -50.659951458749944, -23.485914114134417 ], [ -50.659951458749944, -23.48609377719124 ], [ -50.659412469579472, -23.48609377719124 ], [ -50.659412469579472, -23.485914114134417 ], [ -50.658693817352173, -23.485914114134417 ], [ -50.658693817352173, -23.485734451077594 ], [ -50.658154828181701, -23.485734451077594 ], [ -50.658154828181701, -23.485554788020767 ], [ -50.657975165124881, -23.485554788020767 ], [ -50.657975165124881, -23.485734451077594 ], [ -50.657795502068055, -23.485734451077594 ], [ -50.657795502068055, -23.486273440248066 ], [ -50.657615839011228, -23.486273440248066 ], [ -50.657615839011228, -23.486453103304889 ], [ -50.657795502068055, -23.486453103304889 ], [ -50.657795502068055, -23.486632766361712 ], [ -50.657975165124881, -23.486632766361712 ], [ -50.657975165124881, -23.486812429418535 ], [ -50.658154828181701, -23.486812429418535 ], [ -50.658154828181701, -23.48753108164583 ], [ -50.658334491238527, -23.48753108164583 ], [ -50.658334491238527, -23.48789040775948 ], [ -50.658154828181701, -23.48789040775948 ], [ -50.658154828181701, -23.488070070816303 ], [ -50.657975165124881, -23.488070070816303 ], [ -50.657975165124881, -23.488249733873129 ], [ -50.657615839011228, -23.488249733873129 ], [ -50.657615839011228, -23.488070070816303 ], [ -50.656897186783937, -23.488070070816303 ], [ -50.656897186783937, -23.48789040775948 ], [ -50.656537860670284, -23.48789040775948 ], [ -50.656537860670284, -23.487710744702657 ], [ -50.656358197613464, -23.487710744702657 ], [ -50.656358197613464, -23.48753108164583 ], [ -50.656178534556638, -23.48753108164583 ], [ -50.656178534556638, -23.487710744702657 ], [ -50.655998871499818, -23.487710744702657 ], [ -50.655998871499818, -23.488070070816303 ], [ -50.655819208442992, -23.488070070816303 ], [ -50.655819208442992, -23.488429396929952 ], [ -50.655998871499818, -23.488429396929952 ], [ -50.655998871499818, -23.488609059986775 ], [ -50.655819208442992, -23.488609059986775 ], [ -50.655819208442992, -23.488788723043598 ], [ -50.655639545386165, -23.488788723043598 ], [ -50.655639545386165, -23.488968386100424 ], [ -50.655819208442992, -23.488968386100424 ], [ -50.655819208442992, -23.489507375270893 ], [ -50.655639545386165, -23.489507375270893 ], [ -50.655639545386165, -23.48968703832772 ], [ -50.655819208442992, -23.48968703832772 ], [ -50.655819208442992, -23.490046364441366 ], [ -50.655639545386165, -23.490046364441366 ], [ -50.655639545386165, -23.490226027498192 ], [ -50.655459882329346, -23.490226027498192 ], [ -50.655459882329346, -23.490405690555015 ], [ -50.65528021927252, -23.490405690555015 ], [ -50.65528021927252, -23.490585353611838 ], [ -50.655459882329346, -23.490585353611838 ], [ -50.655459882329346, -23.490765016668661 ], [ -50.655639545386165, -23.490765016668661 ], [ -50.655639545386165, -23.490944679725487 ], [ -50.655819208442992, -23.490944679725487 ], [ -50.655819208442992, -23.49112434278231 ], [ -50.655998871499818, -23.49112434278231 ], [ -50.655998871499818, -23.491304005839133 ], [ -50.656178534556638, -23.491304005839133 ], [ -50.656178534556638, -23.491483668895956 ], [ -50.656358197613464, -23.491483668895956 ], [ -50.656358197613464, -23.491304005839133 ], [ -50.656537860670284, -23.491304005839133 ], [ -50.656537860670284, -23.49112434278231 ], [ -50.65671752372711, -23.49112434278231 ], [ -50.65671752372711, -23.491304005839133 ], [ -50.656897186783937, -23.491304005839133 ], [ -50.656897186783937, -23.491483668895956 ], [ -50.657076849840756, -23.491483668895956 ], [ -50.657076849840756, -23.491663331952783 ], [ -50.657256512897582, -23.491663331952783 ], [ -50.657256512897582, -23.491842995009605 ], [ -50.657436175954409, -23.491842995009605 ], [ -50.657436175954409, -23.492022658066428 ], [ -50.657256512897582, -23.492022658066428 ], [ -50.657256512897582, -23.492202321123255 ], [ -50.657076849840756, -23.492202321123255 ], [ -50.657076849840756, -23.492381984180078 ], [ -50.656897186783937, -23.492381984180078 ], [ -50.656897186783937, -23.492561647236901 ], [ -50.65671752372711, -23.492561647236901 ], [ -50.65671752372711, -23.492381984180078 ], [ -50.656537860670284, -23.492381984180078 ], [ -50.656537860670284, -23.492202321123255 ], [ -50.656358197613464, -23.492202321123255 ], [ -50.656358197613464, -23.492022658066428 ], [ -50.655998871499818, -23.492022658066428 ], [ -50.655998871499818, -23.492202321123255 ], [ -50.655819208442992, -23.492202321123255 ], [ -50.655819208442992, -23.49292097335055 ], [ -50.655998871499818, -23.49292097335055 ], [ -50.655998871499818, -23.493280299464196 ], [ -50.655819208442992, -23.493280299464196 ], [ -50.655819208442992, -23.493459962521019 ], [ -50.655639545386165, -23.493459962521019 ], [ -50.655639545386165, -23.493639625577845 ], [ -50.65528021927252, -23.493639625577845 ], [ -50.65528021927252, -23.493819288634668 ], [ -50.655100556215693, -23.493819288634668 ], [ -50.655100556215693, -23.494178614748318 ], [ -50.654920893158874, -23.494178614748318 ], [ -50.654920893158874, -23.494358277805141 ], [ -50.655100556215693, -23.494358277805141 ], [ -50.655100556215693, -23.494537940861964 ], [ -50.65528021927252, -23.494537940861964 ], [ -50.65528021927252, -23.494717603918787 ], [ -50.655459882329346, -23.494717603918787 ], [ -50.655459882329346, -23.494897266975613 ], [ -50.655639545386165, -23.494897266975613 ], [ -50.655639545386165, -23.494717603918787 ], [ -50.655819208442992, -23.494717603918787 ], [ -50.655819208442992, -23.494537940861964 ], [ -50.655998871499818, -23.494537940861964 ], [ -50.655998871499818, -23.494717603918787 ], [ -50.656178534556638, -23.494717603918787 ], [ -50.656178534556638, -23.494897266975613 ], [ -50.656358197613464, -23.494897266975613 ], [ -50.656358197613464, -23.495076930032436 ], [ -50.656537860670284, -23.495076930032436 ], [ -50.656537860670284, -23.494897266975613 ], [ -50.65671752372711, -23.494897266975613 ], [ -50.65671752372711, -23.494717603918787 ], [ -50.657256512897582, -23.494717603918787 ], [ -50.657256512897582, -23.494897266975613 ], [ -50.657436175954409, -23.494897266975613 ], [ -50.657436175954409, -23.495076930032436 ], [ -50.657615839011228, -23.495076930032436 ], [ -50.657615839011228, -23.495256593089259 ], [ -50.657795502068055, -23.495256593089259 ], [ -50.657795502068055, -23.495436256146085 ], [ -50.657975165124881, -23.495436256146085 ], [ -50.657975165124881, -23.495615919202908 ], [ -50.658154828181701, -23.495615919202908 ], [ -50.658154828181701, -23.495795582259731 ], [ -50.658514154295347, -23.495795582259731 ], [ -50.658514154295347, -23.495975245316554 ], [ -50.658873480409, -23.495975245316554 ], [ -50.658873480409, -23.495795582259731 ], [ -50.659053143465819, -23.495795582259731 ], [ -50.659053143465819, -23.495615919202908 ], [ -50.659232806522645, -23.495615919202908 ], [ -50.659232806522645, -23.495436256146085 ], [ -50.659053143465819, -23.495436256146085 ], [ -50.659053143465819, -23.495256593089259 ], [ -50.658873480409, -23.495256593089259 ], [ -50.658873480409, -23.495076930032436 ], [ -50.659053143465819, -23.495076930032436 ], [ -50.659053143465819, -23.494897266975613 ], [ -50.659232806522645, -23.494897266975613 ], [ -50.659232806522645, -23.494717603918787 ], [ -50.659592132636291, -23.494717603918787 ], [ -50.659592132636291, -23.494897266975613 ], [ -50.659771795693118, -23.494897266975613 ], [ -50.659771795693118, -23.495076930032436 ], [ -50.659951458749944, -23.495076930032436 ], [ -50.659951458749944, -23.495436256146085 ], [ -50.660131121806764, -23.495436256146085 ], [ -50.660131121806764, -23.495615919202908 ], [ -50.659951458749944, -23.495615919202908 ], [ -50.659951458749944, -23.495795582259731 ], [ -50.660131121806764, -23.495795582259731 ], [ -50.660131121806764, -23.495975245316554 ], [ -50.660490447920409, -23.495975245316554 ], [ -50.660490447920409, -23.495795582259731 ], [ -50.660670110977236, -23.495795582259731 ], [ -50.660670110977236, -23.495615919202908 ], [ -50.660849774034062, -23.495615919202908 ], [ -50.660849774034062, -23.495256593089259 ], [ -50.661029437090882, -23.495256593089259 ], [ -50.661029437090882, -23.495076930032436 ], [ -50.661209100147708, -23.495076930032436 ], [ -50.661209100147708, -23.494897266975613 ], [ -50.661388763204535, -23.494897266975613 ], [ -50.661388763204535, -23.495076930032436 ], [ -50.661568426261354, -23.495076930032436 ], [ -50.661568426261354, -23.495256593089259 ], [ -50.661748089318181, -23.495256593089259 ], [ -50.661748089318181, -23.495436256146085 ], [ -50.661927752375007, -23.495436256146085 ], [ -50.661927752375007, -23.495615919202908 ], [ -50.662287078488653, -23.495615919202908 ] ], [ [ -50.663005730715945, -23.495076930032436 ], [ -50.663005730715945, -23.495256593089259 ], [ -50.663185393772771, -23.495256593089259 ], [ -50.663185393772771, -23.495436256146085 ], [ -50.663365056829598, -23.495436256146085 ], [ -50.663365056829598, -23.495615919202908 ], [ -50.663185393772771, -23.495615919202908 ], [ -50.663185393772771, -23.495795582259731 ], [ -50.663005730715945, -23.495795582259731 ], [ -50.663005730715945, -23.495975245316554 ], [ -50.662646404602299, -23.495975245316554 ], [ -50.662646404602299, -23.495795582259731 ], [ -50.662466741545472, -23.495795582259731 ], [ -50.662466741545472, -23.495615919202908 ], [ -50.662287078488653, -23.495615919202908 ], [ -50.662287078488653, -23.495436256146085 ], [ -50.662466741545472, -23.495436256146085 ], [ -50.662466741545472, -23.495256593089259 ], [ -50.662646404602299, -23.495256593089259 ], [ -50.662646404602299, -23.495076930032436 ], [ -50.663005730715945, -23.495076930032436 ] ], [ [ -50.658334491238527, -23.493819288634668 ], [ -50.658334491238527, -23.493998951691491 ], [ -50.658514154295347, -23.493998951691491 ], [ -50.658514154295347, -23.494178614748318 ], [ -50.658693817352173, -23.494178614748318 ], [ -50.658693817352173, -23.494358277805141 ], [ -50.658514154295347, -23.494358277805141 ], [ -50.658514154295347, -23.494537940861964 ], [ -50.658334491238527, -23.494537940861964 ], [ -50.658334491238527, -23.494717603918787 ], [ -50.658154828181701, -23.494717603918787 ], [ -50.658154828181701, -23.494537940861964 ], [ -50.657975165124881, -23.494537940861964 ], [ -50.657975165124881, -23.494358277805141 ], [ -50.657795502068055, -23.494358277805141 ], [ -50.657795502068055, -23.494178614748318 ], [ -50.657975165124881, -23.494178614748318 ], [ -50.657975165124881, -23.493998951691491 ], [ -50.658154828181701, -23.493998951691491 ], [ -50.658154828181701, -23.493819288634668 ], [ -50.658334491238527, -23.493819288634668 ] ], [ [ -50.661209100147708, -23.493280299464196 ], [ -50.661209100147708, -23.493459962521019 ], [ -50.661388763204535, -23.493459962521019 ], [ -50.661388763204535, -23.493639625577845 ], [ -50.661568426261354, -23.493639625577845 ], [ -50.661568426261354, -23.493819288634668 ], [ -50.661748089318181, -23.493819288634668 ], [ -50.661748089318181, -23.493998951691491 ], [ -50.661927752375007, -23.493998951691491 ], [ -50.661927752375007, -23.494358277805141 ], [ -50.661748089318181, -23.494358277805141 ], [ -50.661748089318181, -23.494537940861964 ], [ -50.661568426261354, -23.494537940861964 ], [ -50.661568426261354, -23.494717603918787 ], [ -50.661209100147708, -23.494717603918787 ], [ -50.661209100147708, -23.494537940861964 ], [ -50.661029437090882, -23.494537940861964 ], [ -50.661029437090882, -23.494358277805141 ], [ -50.660849774034062, -23.494358277805141 ], [ -50.660849774034062, -23.493998951691491 ], [ -50.660670110977236, -23.493998951691491 ], [ -50.660670110977236, -23.493639625577845 ], [ -50.660849774034062, -23.493639625577845 ], [ -50.660849774034062, -23.493459962521019 ], [ -50.661029437090882, -23.493459962521019 ], [ -50.661029437090882, -23.493280299464196 ], [ -50.661209100147708, -23.493280299464196 ] ] ] } },
{ "type": "Feature", "properties": { "area_ha": 1.313531070162151 }, "geometry": { "type": "Polygon", "coordinates": [ [ [ -50.652585273420158, -23.497412549771148 ], [ -50.652405610363338, -23.497412549771148 ], [ -50.652405610363338, -23.497592212827971 ], [ -50.652225947306512, -23.497592212827971 ], [ -50.652225947306512, -23.498131201998444 ], [ -50.652405610363338, -23.498131201998444 ], [ -50.652405610363338, -23.498310865055267 ], [ -50.652585273420158, -23.498310865055267 ], [ -50.652585273420158, -23.498490528112089 ], [ -50.652764936476984, -23.498490528112089 ], [ -50.652764936476984, -23.498670191168912 ], [ -50.652944599533811, -23.498670191168912 ], [ -50.652944599533811, -23.498490528112089 ], [ -50.65312426259063, -23.498490528112089 ], [ -50.65312426259063, -23.498670191168912 ], [ -50.653483588704283, -23.498670191168912 ], [ -50.653483588704283, -23.498490528112089 ], [ -50.653663251761103, -23.498490528112089 ], [ -50.653663251761103, -23.498310865055267 ], [ -50.653483588704283, -23.498310865055267 ], [ -50.653483588704283, -23.498131201998444 ], [ -50.653663251761103, -23.498131201998444 ], [ -50.653663251761103, -23.497951538941617 ], [ -50.653842914817929, -23.497951538941617 ], [ -50.653842914817929, -23.497771875884794 ], [ -50.653663251761103, -23.497771875884794 ], [ -50.653663251761103, -23.497592212827971 ], [ -50.653483588704283, -23.497592212827971 ], [ -50.653483588704283, -23.497771875884794 ], [ -50.653303925647457, -23.497771875884794 ], [ -50.653303925647457, -23.497951538941617 ], [ -50.65312426259063, -23.497951538941617 ], [ -50.65312426259063, -23.497771875884794 ], [ -50.652764936476984, -23.497771875884794 ], [ -50.652764936476984, -23.497592212827971 ], [ -50.652585273420158, -23.497592212827971 ], [ -50.652585273420158, -23.497412549771148 ] ] ] } },
{ "type": "Feature", "properties": { "area_ha": 2.6635154077412406 }, "geometry": { "type": "Polygon", "coordinates": [ [ [ -50.656178534556638, -23.498310865055267 ], [ -50.655639545386165, -23.498310865055267 ], [ -50.655639545386165, -23.498490528112089 ], [ -50.655459882329346, -23.498490528112089 ], [ -50.655459882329346, -23.498670191168912 ], [ -50.655639545386165, -23.498670191168912 ], [ -50.655639545386165, -23.498849854225739 ], [ -50.655459882329346, -23.498849854225739 ], [ -50.655459882329346, -23.499209180339385 ], [ -50.655639545386165, -23.499209180339385 ], [ -50.655639545386165, -23.499568506453034 ], [ -50.655819208442992, -23.499568506453034 ], [ -50.655819208442992, -23.499748169509857 ], [ -50.655998871499818, -23.499748169509857 ], [ -50.655998871499818, -23.49992783256668 ], [ -50.655819208442992, -23.49992783256668 ], [ -50.655819208442992, -23.500107495623507 ], [ -50.655639545386165, -23.500107495623507 ], [ -50.655639545386165, -23.500287158680329 ], [ -50.655819208442992, -23.500287158680329 ], [ -50.655819208442992, -23.500466821737152 ], [ -50.655998871499818, -23.500466821737152 ], [ -50.655998871499818, -23.500646484793975 ], [ -50.656358197613464, -23.500646484793975 ], [ -50.656358197613464, -23.500466821737152 ], [ -50.656537860670284, -23.500466821737152 ], [ -50.656537860670284, -23.500646484793975 ], [ -50.65671752372711, -23.500646484793975 ], [ -50.65671752372711, -23.500826147850802 ], [ -50.657076849840756, -23.500826147850802 ], [ -50.657076849840756, -23.500646484793975 ], [ -50.657256512897582, -23.500646484793975 ], [ -50.657256512897582, -23.500287158680329 ], [ -50.657436175954409, -23.500287158680329 ], [ -50.657436175954409, -23.500107495623507 ], [ -50.657256512897582, -23.500107495623507 ], [ -50.657256512897582, -23.49992783256668 ], [ -50.657076849840756, -23.49992783256668 ], [ -50.657076849840756, -23.499748169509857 ], [ -50.656897186783937, -23.499748169509857 ], [ -50.656897186783937, -23.499568506453034 ], [ -50.65671752372711, -23.499568506453034 ], [ -50.65671752372711, -23.499388843396211 ], [ -50.656537860670284, -23.499388843396211 ], [ -50.656537860670284, -23.499568506453034 ], [ -50.656358197613464, -23.499568506453034 ], [ -50.656358197613464, -23.499388843396211 ], [ -50.656178534556638, -23.499388843396211 ], [ -50.656178534556638, -23.499209180339385 ], [ -50.655998871499818, -23.499209180339385 ], [ -50.655998871499818, -23.499029517282562 ], [ -50.656178534556638, -23.499029517282562 ], [ -50.656178534556638, -23.498849854225739 ], [ -50.656358197613464, -23.498849854225739 ], [ -50.656358197613464, -23.498490528112089 ], [ -50.656178534556638, -23.498490528112089 ], [ -50.656178534556638, -23.498310865055267 ] ] ] } },
{ "type": "Feature", "properties": { "area_ha": 2.663487493407565 }, "geometry": { "type": "Polygon", "coordinates": [ [ [ -50.662646404602299, -23.500287158680329 ], [ -50.662466741545472, -23.500287158680329 ], [ -50.662466741545472, -23.500466821737152 ], [ -50.662287078488653, -23.500466821737152 ], [ -50.662287078488653, -23.500646484793975 ], [ -50.662107415431826, -23.500646484793975 ], [ -50.662107415431826, -23.500826147850802 ], [ -50.661927752375007, -23.500826147850802 ], [ -50.661927752375007, -23.501005810907625 ], [ -50.661748089318181, -23.501005810907625 ], [ -50.661748089318181, -23.501365137021274 ], [ -50.661568426261354, -23.501365137021274 ], [ -50.661568426261354, -23.501544800078097 ], [ -50.661748089318181, -23.501544800078097 ], [ -50.661748089318181, -23.50172446313492 ], [ -50.663544719886417, -23.50172446313492 ], [ -50.663544719886417, -23.501544800078097 ], [ -50.663724382943244, -23.501544800078097 ], [ -50.663724382943244, -23.501365137021274 ], [ -50.66390404600007, -23.501365137021274 ], [ -50.66390404600007, -23.501185473964448 ], [ -50.664083709056889, -23.501185473964448 ], [ -50.664083709056889, -23.501005810907625 ], [ -50.66390404600007, -23.501005810907625 ], [ -50.66390404600007, -23.500826147850802 ], [ -50.663724382943244, -23.500826147850802 ], [ -50.663724382943244, -23.500646484793975 ], [ -50.663544719886417, -23.500646484793975 ], [ -50.663544719886417, -23.500466821737152 ], [ -50.663185393772771, -23.500466821737152 ], [ -50.663185393772771, -23.500646484793975 ], [ -50.662826067659125, -23.500646484793975 ], [ -50.662826067659125, -23.500466821737152 ], [ -50.662646404602299, -23.500466821737152 ], [ -50.662646404602299, -23.500287158680329 ] ] ] } }
]
}
