{"type": "FeatureCollection", "features": [{"type": "Feature", "id": 4619, "geometry": {"type": "Point", "coordinates": [-50.672288199999976, -23.511279799309072]}, "properties": {"objectid": 4619, "coord_latitude": -23.5112798, "coord_longitude": -50.6722882, "nm_requerente": "Silvio Shigueyuki Nakamura", "nm_empreendimento": "SÍTIO SANTA BARBARA", "cod_municipio_emp": "4124301", "nm_municipio_emp": "Santo Antônio do Paraíso", "cod_tipo_interferencia": "CSUP", "nm_tipo_interferencia": "Captação superficial", "nr_portaria": "11105/2021/DUIO-GOUT", "st_portaria": "IRREGULAR", "nm_tipo_documento": "Declaração de uso independente de outorga", "cod_municipio": "4124301", "nm_municipio": "Santo Antônio do Paraíso", "nm_comite": "Tibagi", "nm_bacia_hidrografica": "Tibagi", "cod_otto": "864227455", "hr_inicio_bombeamento": null, "hr_termino_bombeamento": null, "qtd_hora_dia_jan": 4.37, "qtd_dia_mes_jan": 10, "vlr_vazao_capt_lanc_jan": 1, "vlr_vazao_diluicao_jan": 0, "qtd_dia_mes_fev": 10, "vlr_vazao_capt_lanc_fev": 1, "vlr_vazao_diluicao_fev": 0, "qtd_hora_dia_mar": 4.37, "qtd_dia_mes_mar": 10, "vlr_vazao_capt_lanc_mar": 1, "vlr_vazao_diluicao_mar": 0, "qtd_hora_dia_abr": 4.37, "qtd_dia_mes_abr": 10, "vlr_vazao_capt_lanc_abr": 1, "vlr_vazao_diluicao_abr": 0, "qtd_hora_dia_mai": 4.37, "qtd_dia_mes_mai": 10, "vlr_vazao_capt_lanc_mai": 1, "vlr_vazao_diluicao_mai": 0, "qtd_hora_dia_jun": 4.37, "qtd_dia_mes_jun": 10, "vlr_vazao_capt_lanc_jun": 1, "vlr_vazao_diluicao_jun": 0, "qtd_hora_dia_jul": 4.37, "qtd_dia_mes_jul": 10, "vlr_vazao_capt_lanc_jul": 1, "vlr_vazao_diluicao_jul": 0, "qtd_hora_dia_ago": 4.37, "qtd_dia_mes_ago": 10, "vlr_vazao_capt_lanc_ago": 1, "vlr_vazao_diluicao_ago": 0, "qtd_hora_dia_set": 4.37, "qtd_dia_mes_set": 10, "vlr_vazao_capt_lanc_set": 1, "vlr_vazao_diluicao_set": 0, "qtd_hora_dia_out": 4.37, "qtd_dia_mes_out": 10, "vlr_vazao_capt_lanc_out": 1, "vlr_vazao_diluicao_out": 0, "qtd_hora_dia_nov": 4.37, "qtd_dia_mes_nov": 10, "vlr_vazao_capt_lanc_nov": 1, "vlr_vazao_diluicao_nov": 0, "qtd_hora_dia_dez": 4.37, "qtd_dia_mes_dez": 10, "vlr_vazao_capt_lanc_dez": 1, "vlr_vazao_diluicao_dez": 0, "dt_publicacao": 1620292677000, "dt_vencimento": 1714987077000, "crh": null, "vlr_vazao_consumida_jan": 0.8, "vlr_vazao_consumida_fev": 0.8, "vlr_vazao_consumida_mar": 0.8, "vlr_vazao_consumida_abr": 0.8, "vlr_vazao_consumida_mai": 0.8, "vlr_vazao_consumida_jun": 0.8, "vlr_vazao_consumida_jul": 0.8, "vlr_vazao_consumida_ago": 0.8, "vlr_vazao_consumida_set": 0.8, "vlr_vazao_consumida_out": 0.8, "vlr_vazao_consumida_nov": 0.8, "vlr_vazao_consumida_dez": 0.8, "qtd_hora_dia_fev": 4.37, "nr_e_protocolo": "176094869", "nm_tipo_corpo_hidrico": "Represa", "desc_tipo_poco": null, "nm_tipo_usuario": "Agropecuária", "nm_cnae": null, "cod_cnae": null, "desc_finalidades": "Irrigação", "nm_sistema_origem": "SIGARH", "cod_bueiro": null, "desc_poco": null, "nm_aquifero": "Aquífero Serra Geral", "nm_corpo_hidrico_complemento": "Ribeirão do Salto", "nm_corpo_hidrico_popular": null, "pfd_poco": null, "vlr_dbo_efluente": null, "vlr_dbo_mistura_abr": null, "vlr_dbo_mistura_ago": null, "vlr_dbo_mistura_dez": null, "vlr_dbo_mistura_fev": null, "vlr_dbo_mistura_jan": null, "vlr_dbo_mistura_jul": null, "vlr_dbo_mistura_jun": null, "vlr_dbo_mistura_mai": null, "vlr_dbo_mistura_mar": null, "vlr_dbo_mistura_nov": null, "vlr_dbo_mistura_out": null, "vlr_dbo_mistura_set": null, "vlr_od_efluente": null, "vlr_od_mistura_abr": null, "vlr_od_mistura_ago": null, "vlr_od_mistura_dez": null, "vlr_od_mistura_fev": null, "vlr_od_mistura_jan": null, "vlr_od_mistura_jul": null, "vlr_od_mistura_jun": null, "vlr_od_mistura_mai": null, "vlr_od_mistura_mar": null, "vlr_od_mistura_nov": null, "vlr_od_mistura_out": null, "vlr_od_mistura_set": null, "vlr_poco_nivel_dinamico": null, "vlr_poco_nivel_estatico": null, "nm_tipo_solicitacao": "Uso independente de outorga"}}, {"type": "Feature", "id": 5145, "geometry": {"type": "Point", "coordinates": [-50.67534979999993, -23.475874999309884]}, "properties": {"objectid": 5145, "coord_latitude": -23.475875, "coord_longitude": -50.6753498, "nm_requerente": "INOVA AGROPECUARIA LTDA", "nm_empreendimento": "Represa Itaipu  (Farinheira)", "cod_municipio_emp": "4126009", "nm_municipio_emp": "São Sebastião da Amoreira", "cod_tipo_interferencia": "BRRG", "nm_tipo_interferencia": "Barragem/soleira", "nr_portaria": "24756/2023/OP-GOUT", "st_portaria": "IRREGULAR", "nm_tipo_documento": "Portaria de outorga prévia", "cod_municipio": "4126009", "nm_municipio": "São Sebastião da Amoreira", "nm_comite": "Tibagi", "nm_bacia_hidrografica": "Tibagi", "cod_otto": "864227427", "hr_inicio_bombeamento": null, "hr_termino_bombeamento": null, "qtd_hora_dia_jan": null, "qtd_dia_mes_jan": null, "vlr_vazao_capt_lanc_jan": null, "vlr_vazao_diluicao_jan": null, "qtd_dia_mes_fev": null, "vlr_vazao_capt_lanc_fev": null, "vlr_vazao_diluicao_fev": null, "qtd_hora_dia_mar": null, "qtd_dia_mes_mar": null, "vlr_vazao_capt_lanc_mar": null, "vlr_vazao_diluicao_mar": null, "qtd_hora_dia_abr": null, "qtd_dia_mes_abr": null, "vlr_vazao_capt_lanc_abr": null, "vlr_vazao_diluicao_abr": null, "qtd_hora_dia_mai": null, "qtd_dia_mes_mai": null, "vlr_vazao_capt_lanc_mai": null, "vlr_vazao_diluicao_mai": null, "qtd_hora_dia_jun": null, "qtd_dia_mes_jun": null, "vlr_vazao_capt_lanc_jun": null, "vlr_vazao_diluicao_jun": null, "qtd_hora_dia_jul": null, "qtd_dia_mes_jul": null, "vlr_vazao_capt_lanc_jul": null, "vlr_vazao_diluicao_jul": null, "qtd_hora_dia_ago": null, "qtd_dia_mes_ago": null, "vlr_vazao_capt_lanc_ago": null, "vlr_vazao_diluicao_ago": null, "qtd_hora_dia_set": null, "qtd_dia_mes_set": null, "vlr_vazao_capt_lanc_set": null, "vlr_vazao_diluicao_set": null, "qtd_hora_dia_out": null, "qtd_dia_mes_out": null, "vlr_vazao_capt_lanc_out": null, "vlr_vazao_diluicao_out": null, "qtd_hora_dia_nov": null, "qtd_dia_mes_nov": null, "vlr_vazao_capt_lanc_nov": null, "vlr_vazao_diluicao_nov": null, "qtd_hora_dia_dez": null, "qtd_dia_mes_dez": null, "vlr_vazao_capt_lanc_dez": null, "vlr_vazao_diluicao_dez": null, "dt_publicacao": 1688601600000, "dt_vencimento": 1751726173000, "crh": null, "vlr_vazao_consumida_jan": null, "vlr_vazao_consumida_fev": null, "vlr_vazao_consumida_mar": null, "vlr_vazao_consumida_abr": null, "vlr_vazao_consumida_mai": null, "vlr_vazao_consumida_jun": null, "vlr_vazao_consumida_jul": null, "vlr_vazao_consumida_ago": null, "vlr_vazao_consumida_set": null, "vlr_vazao_consumida_out": null, "vlr_vazao_consumida_nov": null, "vlr_vazao_consumida_dez": null, "qtd_hora_dia_fev": null, "nr_e_protocolo": "199858386", "nm_tipo_corpo_hidrico": "Córrego", "desc_tipo_poco": null, "nm_tipo_usuario": "Agropecuária", "nm_cnae": "Cultivo de soja", "cod_cnae": "0115-6/00", "desc_finalidades": "Acumulação", "nm_sistema_origem": "SIGARH", "cod_bueiro": null, "desc_poco": null, "nm_aquifero": "Aquífero Serra Geral", "nm_corpo_hidrico_complemento": "Sem denominação na base", "nm_corpo_hidrico_popular": null, "pfd_poco": null, "vlr_dbo_efluente": null, "vlr_dbo_mistura_abr": null, "vlr_dbo_mistura_ago": null, "vlr_dbo_mistura_dez": null, "vlr_dbo_mistura_fev": null, "vlr_dbo_mistura_jan": null, "vlr_dbo_mistura_jul": null, "vlr_dbo_mistura_jun": null, "vlr_dbo_mistura_mai": null, "vlr_dbo_mistura_mar": null, "vlr_dbo_mistura_nov": null, "vlr_dbo_mistura_out": null, "vlr_dbo_mistura_set": null, "vlr_od_efluente": null, "vlr_od_mistura_abr": null, "vlr_od_mistura_ago": null, "vlr_od_mistura_dez": null, "vlr_od_mistura_fev": null, "vlr_od_mistura_jan": null, "vlr_od_mistura_jul": null, "vlr_od_mistura_jun": null, "vlr_od_mistura_mai": null, "vlr_od_mistura_mar": null, "vlr_od_mistura_nov": null, "vlr_od_mistura_out": null, "vlr_od_mistura_set": null, "vlr_poco_nivel_dinamico": null, "vlr_poco_nivel_estatico": null, "nm_tipo_solicitacao": "Outorga prévia"}}, {"type": "Feature", "id": 6509, "geometry": {"type": "Point", "coordinates": [-50.68435899999997, -23.47577609930988]}, "properties": {"objectid": 6509, "coord_latitude": -23.4757761, "coord_longitude": -50.684359, "nm_requerente": "INOVA AGROPECUARIA LTDA", "nm_empreendimento": "Represa Gema", "cod_municipio_emp": "4126009", "nm_municipio_emp": "São Sebastião da Amoreira", "cod_tipo_interferencia": "BRRG", "nm_tipo_interferencia": "Barragem/soleira", "nr_portaria": "25217/2023/OP-GOUT", "st_portaria": "EXTINTA", "nm_tipo_documento": "Portaria de outorga prévia", "cod_municipio": "4126009", "nm_municipio": "São Sebastião da Amoreira", "nm_comite": "Tibagi", "nm_bacia_hidrografica": "Tibagi", "cod_otto": "864227428", "hr_inicio_bombeamento": null, "hr_termino_bombeamento": null, "qtd_hora_dia_jan": null, "qtd_dia_mes_jan": null, "vlr_vazao_capt_lanc_jan": null, "vlr_vazao_diluicao_jan": null, "qtd_dia_mes_fev": null, "vlr_vazao_capt_lanc_fev": null, "vlr_vazao_diluicao_fev": null, "qtd_hora_dia_mar": null, "qtd_dia_mes_mar": null, "vlr_vazao_capt_lanc_mar": null, "vlr_vazao_diluicao_mar": null, "qtd_hora_dia_abr": null, "qtd_dia_mes_abr": null, "vlr_vazao_capt_lanc_abr": null, "vlr_vazao_diluicao_abr": null, "qtd_hora_dia_mai": null, "qtd_dia_mes_mai": null, "vlr_vazao_capt_lanc_mai": null, "vlr_vazao_diluicao_mai": null, "qtd_hora_dia_jun": null, "qtd_dia_mes_jun": null, "vlr_vazao_capt_lanc_jun": null, "vlr_vazao_diluicao_jun": null, "qtd_hora_dia_jul": null, "qtd_dia_mes_jul": null, "vlr_vazao_capt_lanc_jul": null, "vlr_vazao_diluicao_jul": null, "qtd_hora_dia_ago": null, "qtd_dia_mes_ago": null, "vlr_vazao_capt_lanc_ago": null, "vlr_vazao_diluicao_ago": null, "qtd_hora_dia_set": null, "qtd_dia_mes_set": null, "vlr_vazao_capt_lanc_set": null, "vlr_vazao_diluicao_set": null, "qtd_hora_dia_out": null, "qtd_dia_mes_out": null, "vlr_vazao_capt_lanc_out": null, "vlr_vazao_diluicao_out": null, "qtd_hora_dia_nov": null, "qtd_dia_mes_nov": null, "vlr_vazao_capt_lanc_nov": null, "vlr_vazao_diluicao_nov": null, "qtd_hora_dia_dez": null, "qtd_dia_mes_dez": null, "vlr_vazao_capt_lanc_dez": null, "vlr_vazao_diluicao_dez": null, "dt_publicacao": 1692144000000, "dt_vencimento": 1755186605000, "crh": null, "vlr_vazao_consumida_jan": null, "vlr_vazao_consumida_fev": null, "vlr_vazao_consumida_mar": null, "vlr_vazao_consumida_abr": null, "vlr_vazao_consumida_mai": null, "vlr_vazao_consumida_jun": null, "vlr_vazao_consumida_jul": null, "vlr_vazao_consumida_ago": null, "vlr_vazao_consumida_set": null, "vlr_vazao_consumida_out": null, "vlr_vazao_consumida_nov": null, "vlr_vazao_consumida_dez": null, "qtd_hora_dia_fev": null, "nr_e_protocolo": "199858432", "nm_tipo_corpo_hidrico": "Córrego", "desc_tipo_poco": null, "nm_tipo_usuario": "Agropecuária", "nm_cnae": "Cultivo de soja", "cod_cnae": "0115-6/00", "desc_finalidades": "Acumulação", "nm_sistema_origem": "SIGARH", "cod_bueiro": null, "desc_poco": null, "nm_aquifero": "Aquífero Serra Geral", "nm_corpo_hidrico_complemento": "Sem denominação na base", "nm_corpo_hidrico_popular": "sem nome", "pfd_poco": null, "vlr_dbo_efluente": null, "vlr_dbo_mistura_abr": null, "vlr_dbo_mistura_ago": null, "vlr_dbo_mistura_dez": null, "vlr_dbo_mistura_fev": null, "vlr_dbo_mistura_jan": null, "vlr_dbo_mistura_jul": null, "vlr_dbo_mistura_jun": null, "vlr_dbo_mistura_mai": null, "vlr_dbo_mistura_mar": null, "vlr_dbo_mistura_nov": null, "vlr_dbo_mistura_out": null, "vlr_dbo_mistura_set": null, "vlr_od_efluente": null, "vlr_od_mistura_abr": null, "vlr_od_mistura_ago": null, "vlr_od_mistura_dez": null, "vlr_od_mistura_fev": null, "vlr_od_mistura_jan": null, "vlr_od_mistura_jul": null, "vlr_od_mistura_jun": null, "vlr_od_mistura_mai": null, "vlr_od_mistura_mar": null, "vlr_od_mistura_nov": null, "vlr_od_mistura_out": null, "vlr_od_mistura_set": null, "vlr_poco_nivel_dinamico": null, "vlr_poco_nivel_estatico": null, "nm_tipo_solicitacao": "Outorga prévia"}}, {"type": "Feature", "id": 9256, "geometry": {"type": "Point", "coordinates": [-50.65640109999998, -23.494929699309434]}, "properties": {"objectid": 9256, "coord_latitude": -23.4949297, "coord_longitude": -50.6564011, "nm_requerente": "Sonia Maria Bigati", "nm_empreendimento": "Fazenda Santo Antônio", "cod_municipio_emp": "4124301", "nm_municipio_emp": "Santo Antônio do Paraíso", "cod_tipo_interferencia": "BRRG", "nm_tipo_interferencia": "Barragem/soleira", "nr_portaria": "26039/2023/OP-GOUT", "st_portaria": "IRREGULAR", "nm_tipo_documento": "Portaria de outorga prévia", "cod_municipio": "4126009", "nm_municipio": "São Sebastião da Amoreira", "nm_comite": "Tibagi", "nm_bacia_hidrografica": "Tibagi", "cod_otto": "864227451", "hr_inicio_bombeamento": null, "hr_termino_bombeamento": null, "qtd_hora_dia_jan": null, "qtd_dia_mes_jan": null, "vlr_vazao_capt_lanc_jan": null, "vlr_vazao_diluicao_jan": null, "qtd_dia_mes_fev": null, "vlr_vazao_capt_lanc_fev": null, "vlr_vazao_diluicao_fev": null, "qtd_hora_dia_mar": null, "qtd_dia_mes_mar": null, "vlr_vazao_capt_lanc_mar": null, "vlr_vazao_diluicao_mar": null, "qtd_hora_dia_abr": null, "qtd_dia_mes_abr": null, "vlr_vazao_capt_lanc_abr": null, "vlr_vazao_diluicao_abr": null, "qtd_hora_dia_mai": null, "qtd_dia_mes_mai": null, "vlr_vazao_capt_lanc_mai": null, "vlr_vazao_diluicao_mai": null, "qtd_hora_dia_jun": null, "qtd_dia_mes_jun": null, "vlr_vazao_capt_lanc_jun": null, "vlr_vazao_diluicao_jun": null, "qtd_hora_dia_jul": null, "qtd_dia_mes_jul": null, "vlr_vazao_capt_lanc_jul": null, "vlr_vazao_diluicao_jul": null, "qtd_hora_dia_ago": null, "qtd_dia_mes_ago": null, "vlr_vazao_capt_lanc_ago": null, "vlr_vazao_diluicao_ago": null, "qtd_hora_dia_set": null, "qtd_dia_mes_set": null, "vlr_vazao_capt_lanc_set": null, "vlr_vazao_diluicao_set": null, "qtd_hora_dia_out": null, "qtd_dia_mes_out": null, "vlr_vazao_capt_lanc_out": null, "vlr_vazao_diluicao_out": null, "qtd_hora_dia_nov": null, "qtd_dia_mes_nov": null, "vlr_vazao_capt_lanc_nov": null, "vlr_vazao_diluicao_nov": null, "qtd_hora_dia_dez": null, "qtd_dia_mes_dez": null, "vlr_vazao_capt_lanc_dez": null, "vlr_vazao_diluicao_dez": null, "dt_publicacao": 1699488000000, "dt_vencimento": 1762597145000, "crh": null, "vlr_vazao_consumida_jan": null, "vlr_vazao_consumida_fev": null, "vlr_vazao_consumida_mar": null, "vlr_vazao_consumida_abr": null, "vlr_vazao_consumida_mai": null, "vlr_vazao_consumida_jun": null, "vlr_vazao_consumida_jul": null, "vlr_vazao_consumida_ago": null, "vlr_vazao_consumida_set": null, "vlr_vazao_consumida_out": null, "vlr_vazao_consumida_nov": null, "vlr_vazao_consumida_dez": null, "qtd_hora_dia_fev": null, "nr_e_protocolo": "210053859", "nm_tipo_corpo_hidrico": "Córrego", "desc_tipo_poco": null, "nm_tipo_usuario": "Agropecuária", "nm_cnae": null, "cod_cnae": null, "desc_finalidades": "Regularização de nível,Acumulação", "nm_sistema_origem": "SIGARH", "cod_bueiro": null, "desc_poco": null, "nm_aquifero": "Aquífero Serra Geral", "nm_corpo_hidrico_complemento": "Ribeirão do Salto", "nm_corpo_hidrico_popular": null, "pfd_poco": null, "vlr_dbo_efluente": null, "vlr_dbo_mistura_abr": null, "vlr_dbo_mistura_ago": null, "vlr_dbo_mistura_dez": null, "vlr_dbo_mistura_fev": null, "vlr_dbo_mistura_jan": null, "vlr_dbo_mistura_jul": null, "vlr_dbo_mistura_jun": null, "vlr_dbo_mistura_mai": null, "vlr_dbo_mistura_mar": null, "vlr_dbo_mistura_nov": null, "vlr_dbo_mistura_out": null, "vlr_dbo_mistura_set": null, "vlr_od_efluente": null, "vlr_od_mistura_abr": null, "vlr_od_mistura_ago": null, "vlr_od_mistura_dez": null, "vlr_od_mistura_fev": null, "vlr_od_mistura_jan": null, "vlr_od_mistura_jul": null, "vlr_od_mistura_jun": null, "vlr_od_mistura_mai": null, "vlr_od_mistura_mar": null, "vlr_od_mistura_nov": null, "vlr_od_mistura_out": null, "vlr_od_mistura_set": null, "vlr_poco_nivel_dinamico": null, "vlr_poco_nivel_estatico": null, "nm_tipo_solicitacao": "Outorga prévia"}}, {"type": "Feature", "id": 9272, "geometry": {"type": "Point", "coordinates": [-50.636116299999976, -23.509832899309096]}, "properties": {"objectid": 9272, "coord_latitude": -23.5098329, "coord_longitude": -50.6361163, "nm_requerente": "Sonia Maria Bigati", "nm_empreendimento": "Fazenda Nuporanga (Parcela 1)", "cod_municipio_emp": "4124301", "nm_municipio_emp": "Santo Antônio do Paraíso", "cod_tipo_interferencia": "BRRG", "nm_tipo_interferencia": "Barragem/soleira", "nr_portaria": "26041/2023/OP-GOUT", "st_portaria": "IRREGULAR", "nm_tipo_documento": "Portaria de outorga prévia", "cod_municipio": "4124301", "nm_municipio": "Santo Antônio do Paraíso", "nm_comite": "Tibagi", "nm_bacia_hidrografica": "Tibagi", "cod_otto": "864227565", "hr_inicio_bombeamento": null, "hr_termino_bombeamento": null, "qtd_hora_dia_jan": null, "qtd_dia_mes_jan": null, "vlr_vazao_capt_lanc_jan": null, "vlr_vazao_diluicao_jan": null, "qtd_dia_mes_fev": null, "vlr_vazao_capt_lanc_fev": null, "vlr_vazao_diluicao_fev": null, "qtd_hora_dia_mar": null, "qtd_dia_mes_mar": null, "vlr_vazao_capt_lanc_mar": null, "vlr_vazao_diluicao_mar": null, "qtd_hora_dia_abr": null, "qtd_dia_mes_abr": null, "vlr_vazao_capt_lanc_abr": null, "vlr_vazao_diluicao_abr": null, "qtd_hora_dia_mai": null, "qtd_dia_mes_mai": null, "vlr_vazao_capt_lanc_mai": null, "vlr_vazao_diluicao_mai": null, "qtd_hora_dia_jun": null, "qtd_dia_mes_jun": null, "vlr_vazao_capt_lanc_jun": null, "vlr_vazao_diluicao_jun": null, "qtd_hora_dia_jul": null, "qtd_dia_mes_jul": null, "vlr_vazao_capt_lanc_jul": null, "vlr_vazao_diluicao_jul": null, "qtd_hora_dia_ago": null, "qtd_dia_mes_ago": null, "vlr_vazao_capt_lanc_ago": null, "vlr_vazao_diluicao_ago": null, "qtd_hora_dia_set": null, "qtd_dia_mes_set": null, "vlr_vazao_capt_lanc_set": null, "vlr_vazao_diluicao_set": null, "qtd_hora_dia_out": null, "qtd_dia_mes_out": null, "vlr_vazao_capt_lanc_out": null, "vlr_vazao_diluicao_out": null, "qtd_hora_dia_nov": null, "qtd_dia_mes_nov": null, "vlr_vazao_capt_lanc_nov": null, "vlr_vazao_diluicao_nov": null, "qtd_hora_dia_dez": null, "qtd_dia_mes_dez": null, "vlr_vazao_capt_lanc_dez": null, "vlr_vazao_diluicao_dez": null, "dt_publicacao": 1699488000000, "dt_vencimento": 1762597186000, "crh": null, "vlr_vazao_consumida_jan": null, "vlr_vazao_consumida_fev": null, "vlr_vazao_consumida_mar": null, "vlr_vazao_consumida_abr": null, "vlr_vazao_consumida_mai": null, "vlr_vazao_consumida_jun": null, "vlr_vazao_consumida_jul": null, "vlr_vazao_consumida_ago": null, "vlr_vazao_consumida_set": null, "vlr_vazao_consumida_out": null, "vlr_vazao_consumida_nov": null, "vlr_vazao_consumida_dez": null, "qtd_hora_dia_fev": null, "nr_e_protocolo": "210053875", "nm_tipo_corpo_hidrico": "Córrego", "desc_tipo_poco": null, "nm_tipo_usuario": "Agropecuária", "nm_cnae": null, "cod_cnae": null, "desc_finalidades": "Regularização de nível,Acumulação", "nm_sistema_origem": "SIGARH", "cod_bueiro": null, "desc_poco": null, "nm_aquifero": "Aquífero Serra Geral", "nm_corpo_hidrico_complemento": "Sem denominação na base", "nm_corpo_hidrico_popular": null, "pfd_poco": null, "vlr_dbo_efluente": null, "vlr_dbo_mistura_abr": null, "vlr_dbo_mistura_ago": null, "vlr_dbo_mistura_dez": null, "vlr_dbo_mistura_fev": null, "vlr_dbo_mistura_jan": null, "vlr_dbo_mistura_jul": null, "vlr_dbo_mistura_jun": null, "vlr_dbo_mistura_mai": null, "vlr_dbo_mistura_mar": null, "vlr_dbo_mistura_nov": null, "vlr_dbo_mistura_out": null, "vlr_dbo_mistura_set": null, "vlr_od_efluente": null, "vlr_od_mistura_abr": null, "vlr_od_mistura_ago": null, "vlr_od_mistura_dez": null, "vlr_od_mistura_fev": null, "vlr_od_mistura_jan": null, "vlr_od_mistura_jul": null, "vlr_od_mistura_jun": null, "vlr_od_mistura_mai": null, "vlr_od_mistura_mar": null, "vlr_od_mistura_nov": null, "vlr_od_mistura_out": null, "vlr_od_mistura_set": null, "vlr_poco_nivel_dinamico": null, "vlr_poco_nivel_estatico": null, "nm_tipo_solicitacao": "Outorga prévia"}}, {"type": "Feature", "id": 9838, "geometry": {"type": "Point", "coordinates": [-50.675514239999984, -23.47578351030988]}, "properties": {"objectid": 9838, "coord_latitude": -23.47578351, "coord_longitude": -50.67551424, "nm_requerente": "INOVA AGROPECUARIA LTDA", "nm_empreendimento": "Represa Itaipu  (Farinheira)", "cod_municipio_emp": "4126009", "nm_municipio_emp": "São Sebastião da Amoreira", "cod_tipo_interferencia": "CSUP", "nm_tipo_interferencia": "Captação superficial", "nr_portaria": "24254/2023/OP-GOUT", "st_portaria": "EM REGULARIZAÇÃO", "nm_tipo_documento": "Portaria de outorga prévia", "cod_municipio": "4126009", "nm_municipio": "São Sebastião da Amoreira", "nm_comite": "Tibagi", "nm_bacia_hidrografica": "Tibagi", "cod_otto": "864227427", "hr_inicio_bombeamento": null, "hr_termino_bombeamento": null, "qtd_hora_dia_jan": 24, "qtd_dia_mes_jan": 31, "vlr_vazao_capt_lanc_jan": 187.75, "vlr_vazao_diluicao_jan": null, "qtd_dia_mes_fev": 28, "vlr_vazao_capt_lanc_fev": 187.75, "vlr_vazao_diluicao_fev": null, "qtd_hora_dia_mar": 24, "qtd_dia_mes_mar": 31, "vlr_vazao_capt_lanc_mar": 187.75, "vlr_vazao_diluicao_mar": null, "qtd_hora_dia_abr": 24, "qtd_dia_mes_abr": 30, "vlr_vazao_capt_lanc_abr": 187.75, "vlr_vazao_diluicao_abr": null, "qtd_hora_dia_mai": 24, "qtd_dia_mes_mai": 31, "vlr_vazao_capt_lanc_mai": 187.75, "vlr_vazao_diluicao_mai": null, "qtd_hora_dia_jun": 24, "qtd_dia_mes_jun": 30, "vlr_vazao_capt_lanc_jun": 187.75, "vlr_vazao_diluicao_jun": null, "qtd_hora_dia_jul": 24, "qtd_dia_mes_jul": 31, "vlr_vazao_capt_lanc_jul": 187.75, "vlr_vazao_diluicao_jul": null, "qtd_hora_dia_ago": 24, "qtd_dia_mes_ago": 31, "vlr_vazao_capt_lanc_ago": 187.75, "vlr_vazao_diluicao_ago": null, "qtd_hora_dia_set": 24, "qtd_dia_mes_set": 30, "vlr_vazao_capt_lanc_set": 187.75, "vlr_vazao_diluicao_set": null, "qtd_hora_dia_out": 24, "qtd_dia_mes_out": 31, "vlr_vazao_capt_lanc_out": 187.75, "vlr_vazao_diluicao_out": null, "qtd_hora_dia_nov": 24, "qtd_dia_mes_nov": 30, "vlr_vazao_capt_lanc_nov": 187.75, "vlr_vazao_diluicao_nov": null, "qtd_hora_dia_dez": 24, "qtd_dia_mes_dez": 31, "vlr_vazao_capt_lanc_dez": 187.75, "vlr_vazao_diluicao_dez": null, "dt_publicacao": 1684800000000, "dt_vencimento": 1689811200000, "crh": null, "vlr_vazao_consumida_jan": null, "vlr_vazao_consumida_fev": null, "vlr_vazao_consumida_mar": null, "vlr_vazao_consumida_abr": null, "vlr_vazao_consumida_mai": null, "vlr_vazao_consumida_jun": null, "vlr_vazao_consumida_jul": null, "vlr_vazao_consumida_ago": null, "vlr_vazao_consumida_set": null, "vlr_vazao_consumida_out": null, "vlr_vazao_consumida_nov": null, "vlr_vazao_consumida_dez": null, "qtd_hora_dia_fev": 24, "nr_e_protocolo": "204364745", "nm_tipo_corpo_hidrico": "Represa", "desc_tipo_poco": null, "nm_tipo_usuario": "Agropecuária", "nm_cnae": "Cultivo de soja", "cod_cnae": "0115-6/00", "desc_finalidades": "Abastecimento de pulverizadores,Irrigação", "nm_sistema_origem": "SIGARH", "cod_bueiro": null, "desc_poco": null, "nm_aquifero": "Aquífero Serra Geral", "nm_corpo_hidrico_complemento": "Sem denominação na base", "nm_corpo_hidrico_popular": "- Barragem (P. N° 45/2021)", "pfd_poco": null, "vlr_dbo_efluente": null, "vlr_dbo_mistura_abr": null, "vlr_dbo_mistura_ago": null, "vlr_dbo_mistura_dez": null, "vlr_dbo_mistura_fev": null, "vlr_dbo_mistura_jan": null, "vlr_dbo_mistura_jul": null, "vlr_dbo_mistura_jun": null, "vlr_dbo_mistura_mai": null, "vlr_dbo_mistura_mar": null, "vlr_dbo_mistura_nov": null, "vlr_dbo_mistura_out": null, "vlr_dbo_mistura_set": null, "vlr_od_efluente": null, "vlr_od_mistura_abr": null, "vlr_od_mistura_ago": null, "vlr_od_mistura_dez": null, "vlr_od_mistura_fev": null, "vlr_od_mistura_jan": null, "vlr_od_mistura_jul": null, "vlr_od_mistura_jun": null, "vlr_od_mistura_mai": null, "vlr_od_mistura_mar": null, "vlr_od_mistura_nov": null, "vlr_od_mistura_out": null, "vlr_od_mistura_set": null, "vlr_poco_nivel_dinamico": null, "vlr_poco_nivel_estatico": null, "nm_tipo_solicitacao": "Outorga prévia"}}, {"type": "Feature", "id": 16608, "geometry": {"type": "Point", "coordinates": [-50.68435899999997, -23.47577609930988]}, "properties": {"objectid": 16608, "coord_latitude": -23.4757761, "coord_longitude": -50.684359, "nm_requerente": "INOVA AGROPECUARIA LTDA", "nm_empreendimento": "Represa Gema", "cod_municipio_emp": "4126009", "nm_municipio_emp": "São Sebastião da Amoreira", "cod_tipo_interferencia": "BRRG", "nm_tipo_interferencia": "Barragem/soleira", "nr_portaria": "10206/2026/OP-GOUT", "st_portaria": "DEFERIDA", "nm_tipo_documento": "Portaria de outorga prévia", "cod_municipio": "4126009", "nm_municipio": "São Sebastião da Amoreira", "nm_comite": "Tibagi", "nm_bacia_hidrografica": "Tibagi", "cod_otto": "864227428", "hr_inicio_bombeamento": null, "hr_termino_bombeamento": null, "qtd_hora_dia_jan": null, "qtd_dia_mes_jan": null, "vlr_vazao_capt_lanc_jan": null, "vlr_vazao_diluicao_jan": null, "qtd_dia_mes_fev": null, "vlr_vazao_capt_lanc_fev": null, "vlr_vazao_diluicao_fev": null, "qtd_hora_dia_mar": null, "qtd_dia_mes_mar": null, "vlr_vazao_capt_lanc_mar": null, "vlr_vazao_diluicao_mar": null, "qtd_hora_dia_abr": null, "qtd_dia_mes_abr": null, "vlr_vazao_capt_lanc_abr": null, "vlr_vazao_diluicao_abr": null, "qtd_hora_dia_mai": null, "qtd_dia_mes_mai": null, "vlr_vazao_capt_lanc_mai": null, "vlr_vazao_diluicao_mai": null, "qtd_hora_dia_jun": null, "qtd_dia_mes_jun": null, "vlr_vazao_capt_lanc_jun": null, "vlr_vazao_diluicao_jun": null, "qtd_hora_dia_jul": null, "qtd_dia_mes_jul": null, "vlr_vazao_capt_lanc_jul": null, "vlr_vazao_diluicao_jul": null, "qtd_hora_dia_ago": null, "qtd_dia_mes_ago": null, "vlr_vazao_capt_lanc_ago": null, "vlr_vazao_diluicao_ago": null, "qtd_hora_dia_set": null, "qtd_dia_mes_set": null, "vlr_vazao_capt_lanc_set": null, "vlr_vazao_diluicao_set": null, "qtd_hora_dia_out": null, "qtd_dia_mes_out": null, "vlr_vazao_capt_lanc_out": null, "vlr_vazao_diluicao_out": null, "qtd_hora_dia_nov": null, "qtd_dia_mes_nov": null, "vlr_vazao_capt_lanc_nov": null, "vlr_vazao_diluicao_nov": null, "qtd_hora_dia_dez": null, "qtd_dia_mes_dez": null, "vlr_vazao_capt_lanc_dez": null, "vlr_vazao_diluicao_dez": null, "dt_publicacao": 1770336000000, "dt_vencimento": 1801759324000, "crh": null, "vlr_vazao_consumida_jan": null, "vlr_vazao_consumida_fev": null, "vlr_vazao_consumida_mar": null, "vlr_vazao_consumida_abr": null, "vlr_vazao_consumida_mai": null, "vlr_vazao_consumida_jun": null, "vlr_vazao_consumida_jul": null, "vlr_vazao_consumida_ago": null, "vlr_vazao_consumida_set": null, "vlr_vazao_consumida_out": null, "vlr_vazao_consumida_nov": null, "vlr_vazao_consumida_dez": null, "qtd_hora_dia_fev": null, "nr_e_protocolo": "241655938", "nm_tipo_corpo_hidrico": "Represa", "desc_tipo_poco": null, "nm_tipo_usuario": "Agropecuária", "nm_cnae": "Cultivo de soja", "cod_cnae": "0115-6/00", "desc_finalidades": "Captação", "nm_sistema_origem": "SIGARH", "cod_bueiro": null, "desc_poco": null, "nm_aquifero": "Aquífero Serra Geral", "nm_corpo_hidrico_complemento": "Sem denominação na base", "nm_corpo_hidrico_popular": null, "pfd_poco": null, "vlr_dbo_efluente": null, "vlr_dbo_mistura_abr": null, "vlr_dbo_mistura_ago": null, "vlr_dbo_mistura_dez": null, "vlr_dbo_mistura_fev": null, "vlr_dbo_mistura_jan": null, "vlr_dbo_mistura_jul": null, "vlr_dbo_mistura_jun": null, "vlr_dbo_mistura_mai": null, "vlr_dbo_mistura_mar": null, "vlr_dbo_mistura_nov": null, "vlr_dbo_mistura_out": null, "vlr_dbo_mistura_set": null, "vlr_od_efluente": null, "vlr_od_mistura_abr": null, "vlr_od_mistura_ago": null, "vlr_od_mistura_dez": null, "vlr_od_mistura_fev": null, "vlr_od_mistura_jan": null, "vlr_od_mistura_jul": null, "vlr_od_mistura_jun": null, "vlr_od_mistura_mai": null, "vlr_od_mistura_mar": null, "vlr_od_mistura_nov": null, "vlr_od_mistura_out": null, "vlr_od_mistura_set": null, "vlr_poco_nivel_dinamico": null, "vlr_poco_nivel_estatico": null, "nm_tipo_solicitacao": "Outorga prévia"}}, {"type": "Feature", "id": 18765, "geometry": {"type": "Point", "coordinates": [-50.67789725499995, -23.47840877230982]}, "properties": {"objectid": 18765, "coord_latitude": -23.47840877, "coord_longitude": -50.677897259999995, "nm_requerente": "INOVA AGROPECUARIA LTDA", "nm_empreendimento": "Represa Itaipu (Jangadinha 1)", "cod_municipio_emp": "4126009", "nm_municipio_emp": "São Sebastião da Amoreira", "cod_tipo_interferencia": "CSUP", "nm_tipo_interferencia": "Captação superficial", "nr_portaria": "24249/2023/OP-GOUT", "st_portaria": "EM REGULARIZAÇÃO", "nm_tipo_documento": "Portaria de outorga prévia", "cod_municipio": "4126009", "nm_municipio": "São Sebastião da Amoreira", "nm_comite": "Tibagi", "nm_bacia_hidrografica": "Tibagi", "cod_otto": "8642274291", "hr_inicio_bombeamento": null, "hr_termino_bombeamento": null, "qtd_hora_dia_jan": 24, "qtd_dia_mes_jan": 31, "vlr_vazao_capt_lanc_jan": 152.2, "vlr_vazao_diluicao_jan": null, "qtd_dia_mes_fev": 28, "vlr_vazao_capt_lanc_fev": 152.2, "vlr_vazao_diluicao_fev": null, "qtd_hora_dia_mar": 24, "qtd_dia_mes_mar": 31, "vlr_vazao_capt_lanc_mar": 152.2, "vlr_vazao_diluicao_mar": null, "qtd_hora_dia_abr": 24, "qtd_dia_mes_abr": 30, "vlr_vazao_capt_lanc_abr": 152.2, "vlr_vazao_diluicao_abr": null, "qtd_hora_dia_mai": 24, "qtd_dia_mes_mai": 31, "vlr_vazao_capt_lanc_mai": 152.2, "vlr_vazao_diluicao_mai": null, "qtd_hora_dia_jun": 24, "qtd_dia_mes_jun": 30, "vlr_vazao_capt_lanc_jun": 152.2, "vlr_vazao_diluicao_jun": null, "qtd_hora_dia_jul": 24, "qtd_dia_mes_jul": 31, "vlr_vazao_capt_lanc_jul": 152.2, "vlr_vazao_diluicao_jul": null, "qtd_hora_dia_ago": 24, "qtd_dia_mes_ago": 31, "vlr_vazao_capt_lanc_ago": 152.2, "vlr_vazao_diluicao_ago": null, "qtd_hora_dia_set": 24, "qtd_dia_mes_set": 30, "vlr_vazao_capt_lanc_set": 152.2, "vlr_vazao_diluicao_set": null, "qtd_hora_dia_out": 24, "qtd_dia_mes_out": 31, "vlr_vazao_capt_lanc_out": 152.2, "vlr_vazao_diluicao_out": null, "qtd_hora_dia_nov": 24, "qtd_dia_mes_nov": 30, "vlr_vazao_capt_lanc_nov": 152.2, "vlr_vazao_diluicao_nov": null, "qtd_hora_dia_dez": 24, "qtd_dia_mes_dez": 31, "vlr_vazao_capt_lanc_dez": 152.2, "vlr_vazao_diluicao_dez": null, "dt_publicacao": 1684108800000, "dt_vencimento": 1689811200000, "crh": null, "vlr_vazao_consumida_jan": null, "vlr_vazao_consumida_fev": null, "vlr_vazao_consumida_mar": null, "vlr_vazao_consumida_abr": null, "vlr_vazao_consumida_mai": null, "vlr_vazao_consumida_jun": null, "vlr_vazao_consumida_jul": null, "vlr_vazao_consumida_ago": null, "vlr_vazao_consumida_set": null, "vlr_vazao_consumida_out": null, "vlr_vazao_consumida_nov": null, "vlr_vazao_consumida_dez": null, "qtd_hora_dia_fev": 24, "nr_e_protocolo": "204364770", "nm_tipo_corpo_hidrico": "Represa", "desc_tipo_poco": null, "nm_tipo_usuario": "Agropecuária", "nm_cnae": "Cultivo de soja", "cod_cnae": "0115-6/00", "desc_finalidades": "Abastecimento de pulverizadores,Irrigação", "nm_sistema_origem": "SIGARH", "cod_bueiro": null, "desc_poco": null, "nm_aquifero": "Aquífero Serra Geral", "nm_corpo_hidrico_complemento": "Sem denominação na base", "nm_corpo_hidrico_popular": "Barragem P.45/2021", "pfd_poco": null, "vlr_dbo_efluente": null, "vlr_dbo_mistura_abr": null, "vlr_dbo_mistura_ago": null, "vlr_dbo_mistura_dez": null, "vlr_dbo_mistura_fev": null, "vlr_dbo_mistura_jan": null, "vlr_dbo_mistura_jul": null, "vlr_dbo_mistura_jun": null, "vlr_dbo_mistura_mai": null, "vlr_dbo_mistura_mar": null, "vlr_dbo_mistura_nov": null, "vlr_dbo_mistura_out": null, "vlr_dbo_mistura_set": null, "vlr_od_efluente": null, "vlr_od_mistura_abr": null, "vlr_od_mistura_ago": null, "vlr_od_mistura_dez": null, "vlr_od_mistura_fev": null, "vlr_od_mistura_jan": null, "vlr_od_mistura_jul": null, "vlr_od_mistura_jun": null, "vlr_od_mistura_mai": null, "vlr_od_mistura_mar": null, "vlr_od_mistura_nov": null, "vlr_od_mistura_out": null, "vlr_od_mistura_set": null, "vlr_poco_nivel_dinamico": null, "vlr_poco_nivel_estatico": null, "nm_tipo_solicitacao": "Outorga prévia"}}, {"type": "Feature", "id": 18766, "geometry": {"type": "Point", "coordinates": [-50.678192156999955, -23.476825372309833]}, "properties": {"objectid": 18766, "coord_latitude": -23.47682537, "coord_longitude": -50.67819216, "nm_requerente": "INOVA AGROPECUARIA LTDA", "nm_empreendimento": "Represa Itaipu (Gema)", "cod_municipio_emp": "4126009", "nm_municipio_emp": "São Sebastião da Amoreira", "cod_tipo_interferencia": "CSUP", "nm_tipo_interferencia": "Captação superficial", "nr_portaria": "24252/2023/OP-GOUT", "st_portaria": "EM REGULARIZAÇÃO", "nm_tipo_documento": "Portaria de outorga prévia", "cod_municipio": "4126009", "nm_municipio": "São Sebastião da Amoreira", "nm_comite": "Tibagi", "nm_bacia_hidrografica": "Tibagi", "cod_otto": "864227427", "hr_inicio_bombeamento": null, "hr_termino_bombeamento": null, "qtd_hora_dia_jan": 24, "qtd_dia_mes_jan": 31, "vlr_vazao_capt_lanc_jan": 228.3, "vlr_vazao_diluicao_jan": null, "qtd_dia_mes_fev": 28, "vlr_vazao_capt_lanc_fev": 228.3, "vlr_vazao_diluicao_fev": null, "qtd_hora_dia_mar": 24, "qtd_dia_mes_mar": 31, "vlr_vazao_capt_lanc_mar": 228.3, "vlr_vazao_diluicao_mar": null, "qtd_hora_dia_abr": 24, "qtd_dia_mes_abr": 30, "vlr_vazao_capt_lanc_abr": 228.3, "vlr_vazao_diluicao_abr": null, "qtd_hora_dia_mai": 24, "qtd_dia_mes_mai": 31, "vlr_vazao_capt_lanc_mai": 228.3, "vlr_vazao_diluicao_mai": null, "qtd_hora_dia_jun": 24, "qtd_dia_mes_jun": 30, "vlr_vazao_capt_lanc_jun": 228.3, "vlr_vazao_diluicao_jun": null, "qtd_hora_dia_jul": 24, "qtd_dia_mes_jul": 31, "vlr_vazao_capt_lanc_jul": 228.3, "vlr_vazao_diluicao_jul": null, "qtd_hora_dia_ago": 24, "qtd_dia_mes_ago": 31, "vlr_vazao_capt_lanc_ago": 228.3, "vlr_vazao_diluicao_ago": null, "qtd_hora_dia_set": 24, "qtd_dia_mes_set": 30, "vlr_vazao_capt_lanc_set": 228.3, "vlr_vazao_diluicao_set": null, "qtd_hora_dia_out": 24, "qtd_dia_mes_out": 31, "vlr_vazao_capt_lanc_out": 228.3, "vlr_vazao_diluicao_out": null, "qtd_hora_dia_nov": 24, "qtd_dia_mes_nov": 30, "vlr_vazao_capt_lanc_nov": 228.3, "vlr_vazao_diluicao_nov": null, "qtd_hora_dia_dez": 24, "qtd_dia_mes_dez": 31, "vlr_vazao_capt_lanc_dez": 228.3, "vlr_vazao_diluicao_dez": null, "dt_publicacao": 1684108800000, "dt_vencimento": 1689811200000, "crh": null, "vlr_vazao_consumida_jan": null, "vlr_vazao_consumida_fev": null, "vlr_vazao_consumida_mar": null, "vlr_vazao_consumida_abr": null, "vlr_vazao_consumida_mai": null, "vlr_vazao_consumida_jun": null, "vlr_vazao_consumida_jul": null, "vlr_vazao_consumida_ago": null, "vlr_vazao_consumida_set": null, "vlr_vazao_consumida_out": null, "vlr_vazao_consumida_nov": null, "vlr_vazao_consumida_dez": null, "qtd_hora_dia_fev": 24, "nr_e_protocolo": "204364761", "nm_tipo_corpo_hidrico": "Represa", "desc_tipo_poco": null, "nm_tipo_usuario": "Agropecuária", "nm_cnae": "Cultivo de soja", "cod_cnae": "0115-6/00", "desc_finalidades": "Abastecimento de pulverizadores,Irrigação", "nm_sistema_origem": "SIGARH", "cod_bueiro": null, "desc_poco": null, "nm_aquifero": "Aquífero Serra Geral", "nm_corpo_hidrico_complemento": "Sem denominação na base", "nm_corpo_hidrico_popular": "- Barragem (P. N° 45/2021)", "pfd_poco": null, "vlr_dbo_efluente": null, "vlr_dbo_mistura_abr": null, "vlr_dbo_mistura_ago": null, "vlr_dbo_mistura_dez": null, "vlr_dbo_mistura_fev": null, "vlr_dbo_mistura_jan": null, "vlr_dbo_mistura_jul": null, "vlr_dbo_mistura_jun": null, "vlr_dbo_mistura_mai": null, "vlr_dbo_mistura_mar": null, "vlr_dbo_mistura_nov": null, "vlr_dbo_mistura_out": null, "vlr_dbo_mistura_set": null, "vlr_od_efluente": null, "vlr_od_mistura_abr": null, "vlr_od_mistura_ago": null, "vlr_od_mistura_dez": null, "vlr_od_mistura_fev": null, "vlr_od_mistura_jan": null, "vlr_od_mistura_jul": null, "vlr_od_mistura_jun": null, "vlr_od_mistura_mai": null, "vlr_od_mistura_mar": null, "vlr_od_mistura_nov": null, "vlr_od_mistura_out": null, "vlr_od_mistura_set": null, "vlr_poco_nivel_dinamico": null, "vlr_poco_nivel_estatico": null, "nm_tipo_solicitacao": "Outorga prévia"}}, {"type": "Feature", "id": 22367, "geometry": {"type": "Point", "coordinates": [-50.62840099999994, -23.489920199309577]}, "properties": {"objectid": 22367, "coord_latitude": -23.4899202, "coord_longitude": -50.628401, "nm_requerente": "LUIZ ANTONIO POLICAN", "nm_empreendimento": "ESTUFA 2000 m²", "cod_municipio_emp": "4124301", "nm_municipio_emp": "Santo Antônio do Paraíso", "cod_tipo_interferencia": "CSUP", "nm_tipo_interferencia": "Captação superficial", "nr_portaria": "14021/2024/DUIO-GOUT", "st_portaria": "DEFERIDA", "nm_tipo_documento": "Declaração de uso independente de outorga", "cod_municipio": "4124301", "nm_municipio": "Santo Antônio do Paraíso", "nm_comite": "Tibagi", "nm_bacia_hidrografica": "Tibagi", "cod_otto": "864227542", "hr_inicio_bombeamento": null, "hr_termino_bombeamento": null, "qtd_hora_dia_jan": 2.27, "qtd_dia_mes_jan": 30, "vlr_vazao_capt_lanc_jan": 1.5, "vlr_vazao_diluicao_jan": null, "qtd_dia_mes_fev": 28, "vlr_vazao_capt_lanc_fev": 1.5, "vlr_vazao_diluicao_fev": null, "qtd_hora_dia_mar": 2.27, "qtd_dia_mes_mar": 30, "vlr_vazao_capt_lanc_mar": 1.5, "vlr_vazao_diluicao_mar": null, "qtd_hora_dia_abr": 2.27, "qtd_dia_mes_abr": 30, "vlr_vazao_capt_lanc_abr": 1.5, "vlr_vazao_diluicao_abr": null, "qtd_hora_dia_mai": 2.27, "qtd_dia_mes_mai": 30, "vlr_vazao_capt_lanc_mai": 1.5, "vlr_vazao_diluicao_mai": null, "qtd_hora_dia_jun": 2.27, "qtd_dia_mes_jun": 30, "vlr_vazao_capt_lanc_jun": 1.5, "vlr_vazao_diluicao_jun": null, "qtd_hora_dia_jul": 2.27, "qtd_dia_mes_jul": 30, "vlr_vazao_capt_lanc_jul": 1.5, "vlr_vazao_diluicao_jul": null, "qtd_hora_dia_ago": 2.27, "qtd_dia_mes_ago": 30, "vlr_vazao_capt_lanc_ago": 1.5, "vlr_vazao_diluicao_ago": null, "qtd_hora_dia_set": 2.27, "qtd_dia_mes_set": 30, "vlr_vazao_capt_lanc_set": 1.5, "vlr_vazao_diluicao_set": null, "qtd_hora_dia_out": 2.27, "qtd_dia_mes_out": 30, "vlr_vazao_capt_lanc_out": 1.5, "vlr_vazao_diluicao_out": null, "qtd_hora_dia_nov": 2.27, "qtd_dia_mes_nov": 30, "vlr_vazao_capt_lanc_nov": 1.5, "vlr_vazao_diluicao_nov": null, "qtd_hora_dia_dez": 2.27, "qtd_dia_mes_dez": 30, "vlr_vazao_capt_lanc_dez": 1.5, "vlr_vazao_diluicao_dez": null, "dt_publicacao": 1717409451000, "dt_vencimento": 1812017451000, "crh": null, "vlr_vazao_consumida_jan": null, "vlr_vazao_consumida_fev": null, "vlr_vazao_consumida_mar": null, "vlr_vazao_consumida_abr": null, "vlr_vazao_consumida_mai": null, "vlr_vazao_consumida_jun": null, "vlr_vazao_consumida_jul": null, "vlr_vazao_consumida_ago": null, "vlr_vazao_consumida_set": null, "vlr_vazao_consumida_out": null, "vlr_vazao_consumida_nov": null, "vlr_vazao_consumida_dez": null, "qtd_hora_dia_fev": 2.27, "nr_e_protocolo": "222500478", "nm_tipo_corpo_hidrico": "Mina/Nascente", "desc_tipo_poco": null, "nm_tipo_usuario": "Agropecuária", "nm_cnae": null, "cod_cnae": null, "desc_finalidades": "Irrigação", "nm_sistema_origem": "SIGARH", "cod_bueiro": null, "desc_poco": null, "nm_aquifero": "Aquífero Serra Geral", "nm_corpo_hidrico_complemento": "Sem denominação na base", "nm_corpo_hidrico_popular": "sem denominação", "pfd_poco": null, "vlr_dbo_efluente": null, "vlr_dbo_mistura_abr": null, "vlr_dbo_mistura_ago": null, "vlr_dbo_mistura_dez": null, "vlr_dbo_mistura_fev": null, "vlr_dbo_mistura_jan": null, "vlr_dbo_mistura_jul": null, "vlr_dbo_mistura_jun": null, "vlr_dbo_mistura_mai": null, "vlr_dbo_mistura_mar": null, "vlr_dbo_mistura_nov": null, "vlr_dbo_mistura_out": null, "vlr_dbo_mistura_set": null, "vlr_od_efluente": null, "vlr_od_mistura_abr": null, "vlr_od_mistura_ago": null, "vlr_od_mistura_dez": null, "vlr_od_mistura_fev": null, "vlr_od_mistura_jan": null, "vlr_od_mistura_jul": null, "vlr_od_mistura_jun": null, "vlr_od_mistura_mai": null, "vlr_od_mistura_mar": null, "vlr_od_mistura_nov": null, "vlr_od_mistura_out": null, "vlr_od_mistura_set": null, "vlr_poco_nivel_dinamico": null, "vlr_poco_nivel_estatico": null, "nm_tipo_solicitacao": "Uso independente de outorga"}}, {"type": "Feature", "id": 30470, "geometry": {"type": "Point", "coordinates": [-50.63829999999996, -23.50269999930926]}, "properties": {"objectid": 30470, "coord_latitude": -23.5027, "coord_longitude": -50.6383, "nm_requerente": "LEANDRO APARECIDO DE MOURA", "nm_empreendimento": "SITIO SAGRADA FAMILIA", "cod_municipio_emp": "4124301", "nm_municipio_emp": "Santo Antônio do Paraíso", "cod_tipo_interferencia": "CSUB", "nm_tipo_interferencia": "Captação subterrânea (Poço tubular)", "nr_portaria": "18794/2024/DUIO-GOUT", "st_portaria": "DEFERIDA", "nm_tipo_documento": "Declaração de uso independente de outorga", "cod_municipio": "4124301", "nm_municipio": "Santo Antônio do Paraíso", "nm_comite": "Tibagi", "nm_bacia_hidrografica": "Tibagi", "cod_otto": "864227543", "hr_inicio_bombeamento": null, "hr_termino_bombeamento": null, "qtd_hora_dia_jan": 2.25, "qtd_dia_mes_jan": 30, "vlr_vazao_capt_lanc_jan": 1.8, "vlr_vazao_diluicao_jan": null, "qtd_dia_mes_fev": 28, "vlr_vazao_capt_lanc_fev": 1.8, "vlr_vazao_diluicao_fev": null, "qtd_hora_dia_mar": 2.25, "qtd_dia_mes_mar": 30, "vlr_vazao_capt_lanc_mar": 1.8, "vlr_vazao_diluicao_mar": null, "qtd_hora_dia_abr": 2.25, "qtd_dia_mes_abr": 30, "vlr_vazao_capt_lanc_abr": 1.8, "vlr_vazao_diluicao_abr": null, "qtd_hora_dia_mai": 2.25, "qtd_dia_mes_mai": 30, "vlr_vazao_capt_lanc_mai": 1.8, "vlr_vazao_diluicao_mai": null, "qtd_hora_dia_jun": 2.25, "qtd_dia_mes_jun": 30, "vlr_vazao_capt_lanc_jun": 1.8, "vlr_vazao_diluicao_jun": null, "qtd_hora_dia_jul": 2.25, "qtd_dia_mes_jul": 30, "vlr_vazao_capt_lanc_jul": 1.8, "vlr_vazao_diluicao_jul": null, "qtd_hora_dia_ago": 2.25, "qtd_dia_mes_ago": 30, "vlr_vazao_capt_lanc_ago": 1.8, "vlr_vazao_diluicao_ago": null, "qtd_hora_dia_set": 2.25, "qtd_dia_mes_set": 30, "vlr_vazao_capt_lanc_set": 1.8, "vlr_vazao_diluicao_set": null, "qtd_hora_dia_out": 2.25, "qtd_dia_mes_out": 30, "vlr_vazao_capt_lanc_out": 1.8, "vlr_vazao_diluicao_out": null, "qtd_hora_dia_nov": 2.25, "qtd_dia_mes_nov": 30, "vlr_vazao_capt_lanc_nov": 1.8, "vlr_vazao_diluicao_nov": null, "qtd_hora_dia_dez": 2.25, "qtd_dia_mes_dez": 30, "vlr_vazao_capt_lanc_dez": 1.8, "vlr_vazao_diluicao_dez": null, "dt_publicacao": 1730480395000, "dt_vencimento": 1825088395000, "crh": null, "vlr_vazao_consumida_jan": null, "vlr_vazao_consumida_fev": null, "vlr_vazao_consumida_mar": null, "vlr_vazao_consumida_abr": null, "vlr_vazao_consumida_mai": null, "vlr_vazao_consumida_jun": null, "vlr_vazao_consumida_jul": null, "vlr_vazao_consumida_ago": null, "vlr_vazao_consumida_set": null, "vlr_vazao_consumida_out": null, "vlr_vazao_consumida_nov": null, "vlr_vazao_consumida_dez": null, "qtd_hora_dia_fev": 2.25, "nr_e_protocolo": "229965417", "nm_tipo_corpo_hidrico": null, "desc_tipo_poco": "Poço Tubular", "nm_tipo_usuario": "Agropecuária", "nm_cnae": null, "cod_cnae": null, "desc_finalidades": "Sanitário (consumo humano + limpeza)", "nm_sistema_origem": "SIGARH", "cod_bueiro": null, "desc_poco": "PT01", "nm_aquifero": "Aquífero Serra Geral", "nm_corpo_hidrico_complemento": "Sem denominação na base", "nm_corpo_hidrico_popular": null, "pfd_poco": 170, "vlr_dbo_efluente": null, "vlr_dbo_mistura_abr": null, "vlr_dbo_mistura_ago": null, "vlr_dbo_mistura_dez": null, "vlr_dbo_mistura_fev": null, "vlr_dbo_mistura_jan": null, "vlr_dbo_mistura_jul": null, "vlr_dbo_mistura_jun": null, "vlr_dbo_mistura_mai": null, "vlr_dbo_mistura_mar": null, "vlr_dbo_mistura_nov": null, "vlr_dbo_mistura_out": null, "vlr_dbo_mistura_set": null, "vlr_od_efluente": null, "vlr_od_mistura_abr": null, "vlr_od_mistura_ago": null, "vlr_od_mistura_dez": null, "vlr_od_mistura_fev": null, "vlr_od_mistura_jan": null, "vlr_od_mistura_jul": null, "vlr_od_mistura_jun": null, "vlr_od_mistura_mai": null, "vlr_od_mistura_mar": null, "vlr_od_mistura_nov": null, "vlr_od_mistura_out": null, "vlr_od_mistura_set": null, "vlr_poco_nivel_dinamico": 45.7, "vlr_poco_nivel_estatico": 32.5, "nm_tipo_solicitacao": "Uso independente de outorga"}}, {"type": "Feature", "id": 32997, "geometry": {"type": "Point", "coordinates": [-50.651775999999984, -23.51437599930902]}, "properties": {"objectid": 32997, "coord_latitude": -23.514376, "coord_longitude": -50.651776, "nm_requerente": "MAURO KITANO MATSUNAGA", "nm_empreendimento": "MAURO KITANO MATSUNAGA", "cod_municipio_emp": "4124301", "nm_municipio_emp": "Santo Antônio do Paraíso", "cod_tipo_interferencia": "CSUP", "nm_tipo_interferencia": "Captação superficial", "nr_portaria": "10096/2026/REV-GOUT", "st_portaria": "DEFERIDA", "nm_tipo_documento": "Portaria de revogação", "cod_municipio": "4124301", "nm_municipio": "Santo Antônio do Paraíso", "nm_comite": "Tibagi", "nm_bacia_hidrografica": "Tibagi", "cod_otto": "864227567", "hr_inicio_bombeamento": null, "hr_termino_bombeamento": null, "qtd_hora_dia_jan": 24, "qtd_dia_mes_jan": 31, "vlr_vazao_capt_lanc_jan": 5, "vlr_vazao_diluicao_jan": null, "qtd_dia_mes_fev": 28, "vlr_vazao_capt_lanc_fev": 5, "vlr_vazao_diluicao_fev": null, "qtd_hora_dia_mar": 24, "qtd_dia_mes_mar": 31, "vlr_vazao_capt_lanc_mar": 5, "vlr_vazao_diluicao_mar": null, "qtd_hora_dia_abr": 24, "qtd_dia_mes_abr": 30, "vlr_vazao_capt_lanc_abr": 5, "vlr_vazao_diluicao_abr": null, "qtd_hora_dia_mai": 24, "qtd_dia_mes_mai": 31, "vlr_vazao_capt_lanc_mai": 5, "vlr_vazao_diluicao_mai": null, "qtd_hora_dia_jun": 24, "qtd_dia_mes_jun": 30, "vlr_vazao_capt_lanc_jun": 5, "vlr_vazao_diluicao_jun": null, "qtd_hora_dia_jul": 24, "qtd_dia_mes_jul": 31, "vlr_vazao_capt_lanc_jul": 5, "vlr_vazao_diluicao_jul": null, "qtd_hora_dia_ago": 24, "qtd_dia_mes_ago": 31, "vlr_vazao_capt_lanc_ago": 5, "vlr_vazao_diluicao_ago": null, "qtd_hora_dia_set": 24, "qtd_dia_mes_set": 30, "vlr_vazao_capt_lanc_set": 5, "vlr_vazao_diluicao_set": null, "qtd_hora_dia_out": 24, "qtd_dia_mes_out": 31, "vlr_vazao_capt_lanc_out": 5, "vlr_vazao_diluicao_out": null, "qtd_hora_dia_nov": 24, "qtd_dia_mes_nov": 30, "vlr_vazao_capt_lanc_nov": 5, "vlr_vazao_diluicao_nov": null, "qtd_hora_dia_dez": 24, "qtd_dia_mes_dez": 31, "vlr_vazao_capt_lanc_dez": 5, "vlr_vazao_diluicao_dez": null, "dt_publicacao": 1785801600000, "dt_vencimento": 2890486988000, "crh": null, "vlr_vazao_consumida_jan": null, "vlr_vazao_consumida_fev": null, "vlr_vazao_consumida_mar": null, "vlr_vazao_consumida_abr": null, "vlr_vazao_consumida_mai": null, "vlr_vazao_consumida_jun": null, "vlr_vazao_consumida_jul": null, "vlr_vazao_consumida_ago": null, "vlr_vazao_consumida_set": null, "vlr_vazao_consumida_out": null, "vlr_vazao_consumida_nov": null, "vlr_vazao_consumida_dez": null, "qtd_hora_dia_fev": 24, "nr_e_protocolo": "263403770", "nm_tipo_corpo_hidrico": "Mina/Nascente", "desc_tipo_poco": null, "nm_tipo_usuario": "Agropecuária", "nm_cnae": null, "cod_cnae": null, "desc_finalidades": "Irrigação", "nm_sistema_origem": "SIGARH", "cod_bueiro": null, "desc_poco": null, "nm_aquifero": "Aquífero Serra Geral", "nm_corpo_hidrico_complemento": "Sem denominação na base", "nm_corpo_hidrico_popular": null, "pfd_poco": null, "vlr_dbo_efluente": null, "vlr_dbo_mistura_abr": null, "vlr_dbo_mistura_ago": null, "vlr_dbo_mistura_dez": null, "vlr_dbo_mistura_fev": null, "vlr_dbo_mistura_jan": null, "vlr_dbo_mistura_jul": null, "vlr_dbo_mistura_jun": null, "vlr_dbo_mistura_mai": null, "vlr_dbo_mistura_mar": null, "vlr_dbo_mistura_nov": null, "vlr_dbo_mistura_out": null, "vlr_dbo_mistura_set": null, "vlr_od_efluente": null, "vlr_od_mistura_abr": null, "vlr_od_mistura_ago": null, "vlr_od_mistura_dez": null, "vlr_od_mistura_fev": null, "vlr_od_mistura_jan": null, "vlr_od_mistura_jul": null, "vlr_od_mistura_jun": null, "vlr_od_mistura_mai": null, "vlr_od_mistura_mar": null, "vlr_od_mistura_nov": null, "vlr_od_mistura_out": null, "vlr_od_mistura_set": null, "vlr_poco_nivel_dinamico": null, "vlr_poco_nivel_estatico": null, "nm_tipo_solicitacao": "Outorga prévia"}}, {"type": "Feature", "id": 45612, "geometry": {"type": "Point", "coordinates": [-50.68876199999995, -23.48580199930968]}, "properties": {"objectid": 45612, "coord_latitude": -23.485802, "coord_longitude": -50.688762, "nm_requerente": "INOVA AGROPECUARIA LTDA", "nm_empreendimento": "Represa Nova", "cod_municipio_emp": "4126009", "nm_municipio_emp": "São Sebastião da Amoreira", "cod_tipo_interferencia": "CSUP", "nm_tipo_interferencia": "Captação superficial", "nr_portaria": "11250/2021/OP-GOUT", "st_portaria": "EXTINTA", "nm_tipo_documento": "Portaria de outorga prévia", "cod_municipio": "4126009", "nm_municipio": "São Sebastião da Amoreira", "nm_comite": "Tibagi", "nm_bacia_hidrografica": "Tibagi", "cod_otto": "8642274291", "hr_inicio_bombeamento": null, "hr_termino_bombeamento": null, "qtd_hora_dia_jan": 24, "qtd_dia_mes_jan": 31, "vlr_vazao_capt_lanc_jan": 146.7, "vlr_vazao_diluicao_jan": 0, "qtd_dia_mes_fev": 28, "vlr_vazao_capt_lanc_fev": 146.7, "vlr_vazao_diluicao_fev": 0, "qtd_hora_dia_mar": 24, "qtd_dia_mes_mar": 31, "vlr_vazao_capt_lanc_mar": 146.7, "vlr_vazao_diluicao_mar": 0, "qtd_hora_dia_abr": 24, "qtd_dia_mes_abr": 30, "vlr_vazao_capt_lanc_abr": 146.7, "vlr_vazao_diluicao_abr": 0, "qtd_hora_dia_mai": 24, "qtd_dia_mes_mai": 31, "vlr_vazao_capt_lanc_mai": 146.7, "vlr_vazao_diluicao_mai": 0, "qtd_hora_dia_jun": 24, "qtd_dia_mes_jun": 30, "vlr_vazao_capt_lanc_jun": 146.7, "vlr_vazao_diluicao_jun": 0, "qtd_hora_dia_jul": 24, "qtd_dia_mes_jul": 31, "vlr_vazao_capt_lanc_jul": 146.7, "vlr_vazao_diluicao_jul": 0, "qtd_hora_dia_ago": 24, "qtd_dia_mes_ago": 31, "vlr_vazao_capt_lanc_ago": 146.7, "vlr_vazao_diluicao_ago": 0, "qtd_hora_dia_set": 24, "qtd_dia_mes_set": 30, "vlr_vazao_capt_lanc_set": 146.7, "vlr_vazao_diluicao_set": 0, "qtd_hora_dia_out": 24, "qtd_dia_mes_out": 31, "vlr_vazao_capt_lanc_out": 146.7, "vlr_vazao_diluicao_out": 0, "qtd_hora_dia_nov": 24, "qtd_dia_mes_nov": 30, "vlr_vazao_capt_lanc_nov": 146.7, "vlr_vazao_diluicao_nov": 0, "qtd_hora_dia_dez": 24, "qtd_dia_mes_dez": 31, "vlr_vazao_capt_lanc_dez": 146.7, "vlr_vazao_diluicao_dez": 0, "dt_publicacao": 1639353600000, "dt_vencimento": 1689811200000, "crh": null, "vlr_vazao_consumida_jan": 123.228, "vlr_vazao_consumida_fev": 123.228, "vlr_vazao_consumida_mar": 123.228, "vlr_vazao_consumida_abr": 123.228, "vlr_vazao_consumida_mai": 123.228, "vlr_vazao_consumida_jun": 123.228, "vlr_vazao_consumida_jul": 123.228, "vlr_vazao_consumida_ago": 123.228, "vlr_vazao_consumida_set": 123.228, "vlr_vazao_consumida_out": 123.228, "vlr_vazao_consumida_nov": 123.228, "vlr_vazao_consumida_dez": 123.228, "qtd_hora_dia_fev": 24, "nr_e_protocolo": "183265180", "nm_tipo_corpo_hidrico": "Mina/Nascente", "desc_tipo_poco": null, "nm_tipo_usuario": "Agropecuária", "nm_cnae": "Cultivo de soja", "cod_cnae": "0115-6/00", "desc_finalidades": "Abastecimento de pulverizadores,Irrigação", "nm_sistema_origem": "SIGARH", "cod_bueiro": null, "desc_poco": null, "nm_aquifero": "Aquífero Serra Geral", "nm_corpo_hidrico_complemento": "Sem denominação na base", "nm_corpo_hidrico_popular": null, "pfd_poco": null, "vlr_dbo_efluente": null, "vlr_dbo_mistura_abr": null, "vlr_dbo_mistura_ago": null, "vlr_dbo_mistura_dez": null, "vlr_dbo_mistura_fev": null, "vlr_dbo_mistura_jan": null, "vlr_dbo_mistura_jul": null, "vlr_dbo_mistura_jun": null, "vlr_dbo_mistura_mai": null, "vlr_dbo_mistura_mar": null, "vlr_dbo_mistura_nov": null, "vlr_dbo_mistura_out": null, "vlr_dbo_mistura_set": null, "vlr_od_efluente": null, "vlr_od_mistura_abr": null, "vlr_od_mistura_ago": null, "vlr_od_mistura_dez": null, "vlr_od_mistura_fev": null, "vlr_od_mistura_jan": null, "vlr_od_mistura_jul": null, "vlr_od_mistura_jun": null, "vlr_od_mistura_mai": null, "vlr_od_mistura_mar": null, "vlr_od_mistura_nov": null, "vlr_od_mistura_out": null, "vlr_od_mistura_set": null, "vlr_poco_nivel_dinamico": null, "vlr_poco_nivel_estatico": null, "nm_tipo_solicitacao": "Outorga prévia"}}, {"type": "Feature", "id": 52508, "geometry": {"type": "Point", "coordinates": [-50.68876199999995, -23.48580199930968]}, "properties": {"objectid": 52508, "coord_latitude": -23.485802, "coord_longitude": -50.688762, "nm_requerente": "INOVA AGROPECUARIA LTDA", "nm_empreendimento": "Represa Nova", "cod_municipio_emp": "4126009", "nm_municipio_emp": "São Sebastião da Amoreira", "cod_tipo_interferencia": "CSUP", "nm_tipo_interferencia": "Captação superficial", "nr_portaria": "10913/2025/OP-GOUT", "st_portaria": "DEFERIDA", "nm_tipo_documento": "Portaria de outorga prévia", "cod_municipio": "4126009", "nm_municipio": "São Sebastião da Amoreira", "nm_comite": "Tibagi", "nm_bacia_hidrografica": "Tibagi", "cod_otto": "8642274291", "hr_inicio_bombeamento": null, "hr_termino_bombeamento": null, "qtd_hora_dia_jan": 24, "qtd_dia_mes_jan": 31, "vlr_vazao_capt_lanc_jan": 146.7, "vlr_vazao_diluicao_jan": null, "qtd_dia_mes_fev": 28, "vlr_vazao_capt_lanc_fev": 146.7, "vlr_vazao_diluicao_fev": null, "qtd_hora_dia_mar": 24, "qtd_dia_mes_mar": 31, "vlr_vazao_capt_lanc_mar": 146.7, "vlr_vazao_diluicao_mar": null, "qtd_hora_dia_abr": 24, "qtd_dia_mes_abr": 30, "vlr_vazao_capt_lanc_abr": 146.7, "vlr_vazao_diluicao_abr": null, "qtd_hora_dia_mai": 24, "qtd_dia_mes_mai": 31, "vlr_vazao_capt_lanc_mai": 146.7, "vlr_vazao_diluicao_mai": null, "qtd_hora_dia_jun": 24, "qtd_dia_mes_jun": 30, "vlr_vazao_capt_lanc_jun": 146.7, "vlr_vazao_diluicao_jun": null, "qtd_hora_dia_jul": 24, "qtd_dia_mes_jul": 31, "vlr_vazao_capt_lanc_jul": 146.7, "vlr_vazao_diluicao_jul": null, "qtd_hora_dia_ago": 24, "qtd_dia_mes_ago": 31, "vlr_vazao_capt_lanc_ago": 146.7, "vlr_vazao_diluicao_ago": null, "qtd_hora_dia_set": 24, "qtd_dia_mes_set": 30, "vlr_vazao_capt_lanc_set": 146.7, "vlr_vazao_diluicao_set": null, "qtd_hora_dia_out": 24, "qtd_dia_mes_out": 31, "vlr_vazao_capt_lanc_out": 146.7, "vlr_vazao_diluicao_out": null, "qtd_hora_dia_nov": 24, "qtd_dia_mes_nov": 30, "vlr_vazao_capt_lanc_nov": 146.7, "vlr_vazao_diluicao_nov": null, "qtd_hora_dia_dez": 24, "qtd_dia_mes_dez": 31, "vlr_vazao_capt_lanc_dez": 146.7, "vlr_vazao_diluicao_dez": null, "dt_publicacao": 1746489600000, "dt_vencimento": 1809107328000, "crh": null, "vlr_vazao_consumida_jan": null, "vlr_vazao_consumida_fev": null, "vlr_vazao_consumida_mar": null, "vlr_vazao_consumida_abr": null, "vlr_vazao_consumida_mai": null, "vlr_vazao_consumida_jun": null, "vlr_vazao_consumida_jul": null, "vlr_vazao_consumida_ago": null, "vlr_vazao_consumida_set": null, "vlr_vazao_consumida_out": null, "vlr_vazao_consumida_nov": null, "vlr_vazao_consumida_dez": null, "qtd_hora_dia_fev": 24, "nr_e_protocolo": "228815357", "nm_tipo_corpo_hidrico": "Represa", "desc_tipo_poco": null, "nm_tipo_usuario": "Agropecuária", "nm_cnae": "Cultivo de soja", "cod_cnae": "0115-6/00", "desc_finalidades": "Abastecimento de pulverizadores,Irrigação", "nm_sistema_origem": "SIGARH", "cod_bueiro": null, "desc_poco": null, "nm_aquifero": "Aquífero Serra Geral", "nm_corpo_hidrico_complemento": "Sem denominação na base", "nm_corpo_hidrico_popular": "Barragem 26031/2023/OP-GOUT", "pfd_poco": null, "vlr_dbo_efluente": null, "vlr_dbo_mistura_abr": null, "vlr_dbo_mistura_ago": null, "vlr_dbo_mistura_dez": null, "vlr_dbo_mistura_fev": null, "vlr_dbo_mistura_jan": null, "vlr_dbo_mistura_jul": null, "vlr_dbo_mistura_jun": null, "vlr_dbo_mistura_mai": null, "vlr_dbo_mistura_mar": null, "vlr_dbo_mistura_nov": null, "vlr_dbo_mistura_out": null, "vlr_dbo_mistura_set": null, "vlr_od_efluente": null, "vlr_od_mistura_abr": null, "vlr_od_mistura_ago": null, "vlr_od_mistura_dez": null, "vlr_od_mistura_fev": null, "vlr_od_mistura_jan": null, "vlr_od_mistura_jul": null, "vlr_od_mistura_jun": null, "vlr_od_mistura_mai": null, "vlr_od_mistura_mar": null, "vlr_od_mistura_nov": null, "vlr_od_mistura_out": null, "vlr_od_mistura_set": null, "vlr_poco_nivel_dinamico": null, "vlr_poco_nivel_estatico": null, "nm_tipo_solicitacao": "Outorga prévia"}}, {"type": "Feature", "id": 63537, "geometry": {"type": "Point", "coordinates": [-50.68922019999996, -23.475268099309872]}, "properties": {"objectid": 63537, "coord_latitude": -23.4752681, "coord_longitude": -50.6892202, "nm_requerente": "INOVA AGROPECUARIA LTDA", "nm_empreendimento": "Represa Gema (Chapadão)", "cod_municipio_emp": "4126009", "nm_municipio_emp": "São Sebastião da Amoreira", "cod_tipo_interferencia": "CSUP", "nm_tipo_interferencia": "Captação superficial", "nr_portaria": "10428/2026/OP-GOUT", "st_portaria": "DEFERIDA", "nm_tipo_documento": "Portaria de outorga prévia", "cod_municipio": "4126009", "nm_municipio": "São Sebastião da Amoreira", "nm_comite": "Tibagi", "nm_bacia_hidrografica": "Tibagi", "cod_otto": "864227428", "hr_inicio_bombeamento": null, "hr_termino_bombeamento": null, "qtd_hora_dia_jan": 21, "qtd_dia_mes_jan": 31, "vlr_vazao_capt_lanc_jan": 179, "vlr_vazao_diluicao_jan": null, "qtd_dia_mes_fev": 28, "vlr_vazao_capt_lanc_fev": 179, "vlr_vazao_diluicao_fev": null, "qtd_hora_dia_mar": 21, "qtd_dia_mes_mar": 31, "vlr_vazao_capt_lanc_mar": 179, "vlr_vazao_diluicao_mar": null, "qtd_hora_dia_abr": 21, "qtd_dia_mes_abr": 30, "vlr_vazao_capt_lanc_abr": 179, "vlr_vazao_diluicao_abr": null, "qtd_hora_dia_mai": 21, "qtd_dia_mes_mai": 31, "vlr_vazao_capt_lanc_mai": 179, "vlr_vazao_diluicao_mai": null, "qtd_hora_dia_jun": 21, "qtd_dia_mes_jun": 30, "vlr_vazao_capt_lanc_jun": 179, "vlr_vazao_diluicao_jun": null, "qtd_hora_dia_jul": 21, "qtd_dia_mes_jul": 31, "vlr_vazao_capt_lanc_jul": 179, "vlr_vazao_diluicao_jul": null, "qtd_hora_dia_ago": 21, "qtd_dia_mes_ago": 31, "vlr_vazao_capt_lanc_ago": 179, "vlr_vazao_diluicao_ago": null, "qtd_hora_dia_set": 21, "qtd_dia_mes_set": 30, "vlr_vazao_capt_lanc_set": 179, "vlr_vazao_diluicao_set": null, "qtd_hora_dia_out": 21, "qtd_dia_mes_out": 31, "vlr_vazao_capt_lanc_out": 179, "vlr_vazao_diluicao_out": null, "qtd_hora_dia_nov": 21, "qtd_dia_mes_nov": 30, "vlr_vazao_capt_lanc_nov": 179, "vlr_vazao_diluicao_nov": null, "qtd_hora_dia_dez": 21, "qtd_dia_mes_dez": 31, "vlr_vazao_capt_lanc_dez": 179, "vlr_vazao_diluicao_dez": null, "dt_publicacao": 1772582400000, "dt_vencimento": 1835627834000, "crh": null, "vlr_vazao_consumida_jan": null, "vlr_vazao_consumida_fev": null, "vlr_vazao_consumida_mar": null, "vlr_vazao_consumida_abr": null, "vlr_vazao_consumida_mai": null, "vlr_vazao_consumida_jun": null, "vlr_vazao_consumida_jul": null, "vlr_vazao_consumida_ago": null, "vlr_vazao_consumida_set": null, "vlr_vazao_consumida_out": null, "vlr_vazao_consumida_nov": null, "vlr_vazao_consumida_dez": null, "qtd_hora_dia_fev": 21, "nr_e_protocolo": "246500142", "nm_tipo_corpo_hidrico": "Represa", "desc_tipo_poco": null, "nm_tipo_usuario": "Agropecuária", "nm_cnae": "Cultivo de soja", "cod_cnae": "0115-6/00", "desc_finalidades": "Irrigação", "nm_sistema_origem": "SIGARH", "cod_bueiro": null, "desc_poco": null, "nm_aquifero": "Aquífero Serra Geral", "nm_corpo_hidrico_complemento": "Sem denominação na base", "nm_corpo_hidrico_popular": "Represa Gema", "pfd_poco": null, "vlr_dbo_efluente": null, "vlr_dbo_mistura_abr": null, "vlr_dbo_mistura_ago": null, "vlr_dbo_mistura_dez": null, "vlr_dbo_mistura_fev": null, "vlr_dbo_mistura_jan": null, "vlr_dbo_mistura_jul": null, "vlr_dbo_mistura_jun": null, "vlr_dbo_mistura_mai": null, "vlr_dbo_mistura_mar": null, "vlr_dbo_mistura_nov": null, "vlr_dbo_mistura_out": null, "vlr_dbo_mistura_set": null, "vlr_od_efluente": null, "vlr_od_mistura_abr": null, "vlr_od_mistura_ago": null, "vlr_od_mistura_dez": null, "vlr_od_mistura_fev": null, "vlr_od_mistura_jan": null, "vlr_od_mistura_jul": null, "vlr_od_mistura_jun": null, "vlr_od_mistura_mai": null, "vlr_od_mistura_mar": null, "vlr_od_mistura_nov": null, "vlr_od_mistura_out": null, "vlr_od_mistura_set": null, "vlr_poco_nivel_dinamico": null, "vlr_poco_nivel_estatico": null, "nm_tipo_solicitacao": "Outorga prévia"}}, {"type": "Feature", "id": 69259, "geometry": {"type": "Point", "coordinates": [-50.64775669999995, -23.511953699309046]}, "properties": {"objectid": 69259, "coord_latitude": -23.5119537, "coord_longitude": -50.6477567, "nm_requerente": "Villa Puree - Fabricação e Comercialização de Alimentos Ltda.", "nm_empreendimento": "VILLA PUREE - FABRICAÇÃO E COMERCIALIZAÇÃO DE ALIMENTOS LTDA.", "cod_municipio_emp": "4124301", "nm_municipio_emp": "Santo Antônio do Paraíso", "cod_tipo_interferencia": "CSUB", "nm_tipo_interferencia": "Captação subterrânea (Poço tubular)", "nr_portaria": "11968/2026/OD-GOUT", "st_portaria": "DEFERIDA", "nm_tipo_documento": "Portaria de outorga de direito", "cod_municipio": "4124301", "nm_municipio": "Santo Antônio do Paraíso", "nm_comite": "Tibagi", "nm_bacia_hidrografica": "Tibagi", "cod_otto": "864227567", "hr_inicio_bombeamento": null, "hr_termino_bombeamento": null, "qtd_hora_dia_jan": 10, "qtd_dia_mes_jan": 30, "vlr_vazao_capt_lanc_jan": 6, "vlr_vazao_diluicao_jan": null, "qtd_dia_mes_fev": 28, "vlr_vazao_capt_lanc_fev": 6, "vlr_vazao_diluicao_fev": null, "qtd_hora_dia_mar": 10, "qtd_dia_mes_mar": 30, "vlr_vazao_capt_lanc_mar": 6, "vlr_vazao_diluicao_mar": null, "qtd_hora_dia_abr": 10, "qtd_dia_mes_abr": 30, "vlr_vazao_capt_lanc_abr": 6, "vlr_vazao_diluicao_abr": null, "qtd_hora_dia_mai": 10, "qtd_dia_mes_mai": 30, "vlr_vazao_capt_lanc_mai": 6, "vlr_vazao_diluicao_mai": null, "qtd_hora_dia_jun": 10, "qtd_dia_mes_jun": 30, "vlr_vazao_capt_lanc_jun": 6, "vlr_vazao_diluicao_jun": null, "qtd_hora_dia_jul": 10, "qtd_dia_mes_jul": 30, "vlr_vazao_capt_lanc_jul": 6, "vlr_vazao_diluicao_jul": null, "qtd_hora_dia_ago": 10, "qtd_dia_mes_ago": 30, "vlr_vazao_capt_lanc_ago": 6, "vlr_vazao_diluicao_ago": null, "qtd_hora_dia_set": 10, "qtd_dia_mes_set": 30, "vlr_vazao_capt_lanc_set": 6, "vlr_vazao_diluicao_set": null, "qtd_hora_dia_out": 10, "qtd_dia_mes_out": 30, "vlr_vazao_capt_lanc_out": 6, "vlr_vazao_diluicao_out": null, "qtd_hora_dia_nov": 10, "qtd_dia_mes_nov": 30, "vlr_vazao_capt_lanc_nov": 6, "vlr_vazao_diluicao_nov": null, "qtd_hora_dia_dez": 10, "qtd_dia_mes_dez": 30, "vlr_vazao_capt_lanc_dez": 6, "vlr_vazao_diluicao_dez": null, "dt_publicacao": 1787788800000, "dt_vencimento": 1977063592000, "crh": null, "vlr_vazao_consumida_jan": null, "vlr_vazao_consumida_fev": null, "vlr_vazao_consumida_mar": null, "vlr_vazao_consumida_abr": null, "vlr_vazao_consumida_mai": null, "vlr_vazao_consumida_jun": null, "vlr_vazao_consumida_jul": null, "vlr_vazao_consumida_ago": null, "vlr_vazao_consumida_set": null, "vlr_vazao_consumida_out": null, "vlr_vazao_consumida_nov": null, "vlr_vazao_consumida_dez": null, "qtd_hora_dia_fev": 10, "nr_e_protocolo": "214420635", "nm_tipo_corpo_hidrico": null, "desc_tipo_poco": "Poço Tubular", "nm_tipo_usuario": "Indústria", "nm_cnae": "Fabricação de conservas de frutas", "cod_cnae": "1031-7/00", "desc_finalidades": "Limpeza,Processo fabril,Sanitário (consumo humano + limpeza)", "nm_sistema_origem": "SIGARH", "cod_bueiro": null, "desc_poco": "Poço 01", "nm_aquifero": "Aquífero Serra Geral", "nm_corpo_hidrico_complemento": "Sem denominação na base", "nm_corpo_hidrico_popular": null, "pfd_poco": 380, "vlr_dbo_efluente": null, "vlr_dbo_mistura_abr": null, "vlr_dbo_mistura_ago": null, "vlr_dbo_mistura_dez": null, "vlr_dbo_mistura_fev": null, "vlr_dbo_mistura_jan": null, "vlr_dbo_mistura_jul": null, "vlr_dbo_mistura_jun": null, "vlr_dbo_mistura_mai": null, "vlr_dbo_mistura_mar": null, "vlr_dbo_mistura_nov": null, "vlr_dbo_mistura_out": null, "vlr_dbo_mistura_set": null, "vlr_od_efluente": null, "vlr_od_mistura_abr": null, "vlr_od_mistura_ago": null, "vlr_od_mistura_dez": null, "vlr_od_mistura_fev": null, "vlr_od_mistura_jan": null, "vlr_od_mistura_jul": null, "vlr_od_mistura_jun": null, "vlr_od_mistura_mai": null, "vlr_od_mistura_mar": null, "vlr_od_mistura_nov": null, "vlr_od_mistura_out": null, "vlr_od_mistura_set": null, "vlr_poco_nivel_dinamico": 252, "vlr_poco_nivel_estatico": 67, "nm_tipo_solicitacao": "Outorga de direito"}}, {"type": "Feature", "id": 72922, "geometry": {"type": "Point", "coordinates": [-50.64987029999998, -23.49387769930944]}, "properties": {"objectid": 72922, "coord_latitude": -23.4938777, "coord_longitude": -50.649870299999996, "nm_requerente": "ODELQLEBER APARECIDO DA SILVA", "nm_empreendimento": "CHACARA JOSÉ FIDELI", "cod_municipio_emp": "4124301", "nm_municipio_emp": "Santo Antônio do Paraíso", "cod_tipo_interferencia": "CSUP", "nm_tipo_interferencia": "Captação superficial", "nr_portaria": "12997/2022/DUIO-GOUT", "st_portaria": "EM REGULARIZAÇÃO", "nm_tipo_documento": "Declaração de uso independente de outorga", "cod_municipio": "4124301", "nm_municipio": "Santo Antônio do Paraíso", "nm_comite": "Tibagi", "nm_bacia_hidrografica": "Tibagi", "cod_otto": "864227441", "hr_inicio_bombeamento": null, "hr_termino_bombeamento": null, "qtd_hora_dia_jan": 24, "qtd_dia_mes_jan": 30, "vlr_vazao_capt_lanc_jan": 4, "vlr_vazao_diluicao_jan": 0, "qtd_dia_mes_fev": 28, "vlr_vazao_capt_lanc_fev": 4, "vlr_vazao_diluicao_fev": 0, "qtd_hora_dia_mar": 24, "qtd_dia_mes_mar": 30, "vlr_vazao_capt_lanc_mar": 4, "vlr_vazao_diluicao_mar": 0, "qtd_hora_dia_abr": 24, "qtd_dia_mes_abr": 30, "vlr_vazao_capt_lanc_abr": 4, "vlr_vazao_diluicao_abr": 0, "qtd_hora_dia_mai": 24, "qtd_dia_mes_mai": 30, "vlr_vazao_capt_lanc_mai": 4, "vlr_vazao_diluicao_mai": 0, "qtd_hora_dia_jun": 24, "qtd_dia_mes_jun": 30, "vlr_vazao_capt_lanc_jun": 4, "vlr_vazao_diluicao_jun": 0, "qtd_hora_dia_jul": 24, "qtd_dia_mes_jul": 30, "vlr_vazao_capt_lanc_jul": 4, "vlr_vazao_diluicao_jul": 0, "qtd_hora_dia_ago": 24, "qtd_dia_mes_ago": 30, "vlr_vazao_capt_lanc_ago": 4, "vlr_vazao_diluicao_ago": 0, "qtd_hora_dia_set": 24, "qtd_dia_mes_set": 30, "vlr_vazao_capt_lanc_set": 4, "vlr_vazao_diluicao_set": 0, "qtd_hora_dia_out": 24, "qtd_dia_mes_out": 30, "vlr_vazao_capt_lanc_out": 4, "vlr_vazao_diluicao_out": 0, "qtd_hora_dia_nov": 24, "qtd_dia_mes_nov": 30, "vlr_vazao_capt_lanc_nov": 4, "vlr_vazao_diluicao_nov": 0, "qtd_hora_dia_dez": 24, "qtd_dia_mes_dez": 30, "vlr_vazao_capt_lanc_dez": 4, "vlr_vazao_diluicao_dez": 0, "dt_publicacao": 1657702796000, "dt_vencimento": 1752397196000, "crh": null, "vlr_vazao_consumida_jan": 4, "vlr_vazao_consumida_fev": 4, "vlr_vazao_consumida_mar": 4, "vlr_vazao_consumida_abr": 4, "vlr_vazao_consumida_mai": 4, "vlr_vazao_consumida_jun": 4, "vlr_vazao_consumida_jul": 4, "vlr_vazao_consumida_ago": 4, "vlr_vazao_consumida_set": 4, "vlr_vazao_consumida_out": 4, "vlr_vazao_consumida_nov": 4, "vlr_vazao_consumida_dez": 4, "qtd_hora_dia_fev": 24, "nr_e_protocolo": "192120829", "nm_tipo_corpo_hidrico": "Córrego", "desc_tipo_poco": null, "nm_tipo_usuario": "Agropecuária", "nm_cnae": null, "cod_cnae": null, "desc_finalidades": "Aquicultura", "nm_sistema_origem": "SIGARH", "cod_bueiro": null, "desc_poco": null, "nm_aquifero": "Aquífero Serra Geral", "nm_corpo_hidrico_complemento": "Ribeirão do Dez", "nm_corpo_hidrico_popular": null, "pfd_poco": null, "vlr_dbo_efluente": null, "vlr_dbo_mistura_abr": null, "vlr_dbo_mistura_ago": null, "vlr_dbo_mistura_dez": null, "vlr_dbo_mistura_fev": null, "vlr_dbo_mistura_jan": null, "vlr_dbo_mistura_jul": null, "vlr_dbo_mistura_jun": null, "vlr_dbo_mistura_mai": null, "vlr_dbo_mistura_mar": null, "vlr_dbo_mistura_nov": null, "vlr_dbo_mistura_out": null, "vlr_dbo_mistura_set": null, "vlr_od_efluente": null, "vlr_od_mistura_abr": null, "vlr_od_mistura_ago": null, "vlr_od_mistura_dez": null, "vlr_od_mistura_fev": null, "vlr_od_mistura_jan": null, "vlr_od_mistura_jul": null, "vlr_od_mistura_jun": null, "vlr_od_mistura_mai": null, "vlr_od_mistura_mar": null, "vlr_od_mistura_nov": null, "vlr_od_mistura_out": null, "vlr_od_mistura_set": null, "vlr_poco_nivel_dinamico": null, "vlr_poco_nivel_estatico": null, "nm_tipo_solicitacao": "Uso independente de outorga"}}, {"type": "Feature", "id": 75173, "geometry": {"type": "Point", "coordinates": [-50.683532899999925, -23.481356699309725]}, "properties": {"objectid": 75173, "coord_latitude": -23.4813567, "coord_longitude": -50.6835329, "nm_requerente": "INOVA AGROPECUARIA LTDA", "nm_empreendimento": "Represa Nova", "cod_municipio_emp": "4126009", "nm_municipio_emp": "São Sebastião da Amoreira", "cod_tipo_interferencia": "BRRG", "nm_tipo_interferencia": "Barragem/soleira", "nr_portaria": "26031/2023/OP-GOUT", "st_portaria": "EM RENOVAÇÃO", "nm_tipo_documento": "Portaria de outorga prévia", "cod_municipio": "4126009", "nm_municipio": "São Sebastião da Amoreira", "nm_comite": "Tibagi", "nm_bacia_hidrografica": "Tibagi", "cod_otto": "8642274291", "hr_inicio_bombeamento": null, "hr_termino_bombeamento": null, "qtd_hora_dia_jan": null, "qtd_dia_mes_jan": null, "vlr_vazao_capt_lanc_jan": null, "vlr_vazao_diluicao_jan": null, "qtd_dia_mes_fev": null, "vlr_vazao_capt_lanc_fev": null, "vlr_vazao_diluicao_fev": null, "qtd_hora_dia_mar": null, "qtd_dia_mes_mar": null, "vlr_vazao_capt_lanc_mar": null, "vlr_vazao_diluicao_mar": null, "qtd_hora_dia_abr": null, "qtd_dia_mes_abr": null, "vlr_vazao_capt_lanc_abr": null, "vlr_vazao_diluicao_abr": null, "qtd_hora_dia_mai": null, "qtd_dia_mes_mai": null, "vlr_vazao_capt_lanc_mai": null, "vlr_vazao_diluicao_mai": null, "qtd_hora_dia_jun": null, "qtd_dia_mes_jun": null, "vlr_vazao_capt_lanc_jun": null, "vlr_vazao_diluicao_jun": null, "qtd_hora_dia_jul": null, "qtd_dia_mes_jul": null, "vlr_vazao_capt_lanc_jul": null, "vlr_vazao_diluicao_jul": null, "qtd_hora_dia_ago": null, "qtd_dia_mes_ago": null, "vlr_vazao_capt_lanc_ago": null, "vlr_vazao_diluicao_ago": null, "qtd_hora_dia_set": null, "qtd_dia_mes_set": null, "vlr_vazao_capt_lanc_set": null, "vlr_vazao_diluicao_set": null, "qtd_hora_dia_out": null, "qtd_dia_mes_out": null, "vlr_vazao_capt_lanc_out": null, "vlr_vazao_diluicao_out": null, "qtd_hora_dia_nov": null, "qtd_dia_mes_nov": null, "vlr_vazao_capt_lanc_nov": null, "vlr_vazao_diluicao_nov": null, "qtd_hora_dia_dez": null, "qtd_dia_mes_dez": null, "vlr_vazao_capt_lanc_dez": null, "vlr_vazao_diluicao_dez": null, "dt_publicacao": 1699401600000, "dt_vencimento": 1762450877000, "crh": null, "vlr_vazao_consumida_jan": null, "vlr_vazao_consumida_fev": null, "vlr_vazao_consumida_mar": null, "vlr_vazao_consumida_abr": null, "vlr_vazao_consumida_mai": null, "vlr_vazao_consumida_jun": null, "vlr_vazao_consumida_jul": null, "vlr_vazao_consumida_ago": null, "vlr_vazao_consumida_set": null, "vlr_vazao_consumida_out": null, "vlr_vazao_consumida_nov": null, "vlr_vazao_consumida_dez": null, "qtd_hora_dia_fev": null, "nr_e_protocolo": "199858416", "nm_tipo_corpo_hidrico": "Córrego", "desc_tipo_poco": null, "nm_tipo_usuario": "Agropecuária", "nm_cnae": "Cultivo de soja", "cod_cnae": "0115-6/00", "desc_finalidades": "Acumulação", "nm_sistema_origem": "SIGARH", "cod_bueiro": null, "desc_poco": null, "nm_aquifero": "Aquífero Serra Geral", "nm_corpo_hidrico_complemento": "Sem denominação na base", "nm_corpo_hidrico_popular": null, "pfd_poco": null, "vlr_dbo_efluente": null, "vlr_dbo_mistura_abr": null, "vlr_dbo_mistura_ago": null, "vlr_dbo_mistura_dez": null, "vlr_dbo_mistura_fev": null, "vlr_dbo_mistura_jan": null, "vlr_dbo_mistura_jul": null, "vlr_dbo_mistura_jun": null, "vlr_dbo_mistura_mai": null, "vlr_dbo_mistura_mar": null, "vlr_dbo_mistura_nov": null, "vlr_dbo_mistura_out": null, "vlr_dbo_mistura_set": null, "vlr_od_efluente": null, "vlr_od_mistura_abr": null, "vlr_od_mistura_ago": null, "vlr_od_mistura_dez": null, "vlr_od_mistura_fev": null, "vlr_od_mistura_jan": null, "vlr_od_mistura_jul": null, "vlr_od_mistura_jun": null, "vlr_od_mistura_mai": null, "vlr_od_mistura_mar": null, "vlr_od_mistura_nov": null, "vlr_od_mistura_out": null, "vlr_od_mistura_set": null, "vlr_poco_nivel_dinamico": null, "vlr_poco_nivel_estatico": null, "nm_tipo_solicitacao": "Outorga prévia"}}]}