{"type": "FeatureCollection", "features": [{"type": "Feature", "id": 34485, "geometry": {"type": "Point", "coordinates": [-50.628435599999925, -23.49051713630957]}, "properties": {"objectid": 34485, "usu_codigo": 40957, "codigo_ponto": 47037, "crh": 30712013, "condicao": "VIGENTE", "publicacao": 1406862000000, "vencimento": 1722481200000, "portaria": "707/2014", "protocolo": 120470361, "data_protocolo": "05/07/2013", "bac_codigo": 16, "bac_nome": "Tibagi", "bacs_subbacia": 5, "razaosocial": "PREFEITURA MUNICIPAL DE SANTO ANTONIO DO PARAÍSO", "usu_nome_fantasia": "PREF. MUN. SANTO ANTONIO DO PARAÍSO", "mun_ibge": 4124301, "municipio": "Santo Antonio do Paraíso", "uso": "Administração Pública", "usu_tipo_usuario": 5, "atv_codigo": 751, "atv_nome": "Administração de estado e da política econômica e social (incl. admin. pública m", "tipo_manancial": "POÇO", "rio_codigo": null, "rio_nome": null, "localidade": "Gleba Congonhas", "capp_complemento": "01", "capp_margem": null, "capp_latitude": -23.49051714, "capp_longitude": -50.628435599999996, "capp_latitude_sad69": -23.4900411, "capp_longitude_sad69": -50.6279456, "capp_localizacao": null, "capo_area_bacia__km2_": null, "capo_vazao_especifica__l_s_km2_": null, "capp_desativado": 0, "capo_bom_num_meses": 12, "parecer_codigo": 1, "parecer": "Positivo", "grupo_cobrança": "Aguardando enquadramento de cobrança", "capo_par_numero": null, "capo_par_emissao": null, "capo_par_publicacao": null, "capo_par_negativo": null, "modalidade": "Autorização", "capo_out_emissao": 1403838000000, "capo_out_validade_anos": 10, "capo_out_validade_meses": 0, "capo_out_cancelamento": null, "capo_out_e1_anos": 10, "capo_out_e1_meses": null, "capo_situacao": 7, "sitout_descricao": "Publicado", "capo_inf_area_lamina": null, "codigo": 1, "descricao": "Captação/Derivação", "cod_otto": 844227542, "finalidade_principal": "Abastecimento público", "aqu_codigo": 19, "aqu_descricao": "Serra Geral / Serra Geral", "aqu_codigo_sec": null, "poco_profundidade": 102, "poco_nivel_estatico": 748, "poco_fim_perfuracao": null, "capo_bom_horas_dia": 10, "capo_bom_dias_semana": 7, "total_captado_dias__m3_": 200, "total_captado_meses__m3_": 5600, "total_captado_ano__m3_": 67200, "vazao_outorgada__m3_h_": 20, "vazao_outorgada_1aetapa__m3_h_": 20, "vazao_solicitada__m3_h_": 25, "capo_inf_populacao_abast": 2000, "capo_inf_populacao_projeto": null, "capo_inf_consumo__l_d_": 200, "capo_inf_perdas____": 2, "capo_inf_dom_consumo___l_d_": 200, "capo_inf_ind_uso_consultivo____": null, "capo_inf_dom_populacao_atual": 2000, "capo_inf_dom_perdas____": 2, "cod_siagas_idt": null, "finalidades": "Abastecimento público", "field85": null}}, {"type": "Feature", "id": 37224, "geometry": {"type": "Point", "coordinates": [-50.66418022299995, -23.505748248309207]}, "properties": {"objectid": 37224, "usu_codigo": 53908, "codigo_ponto": 61476, "crh": 8302017, "condicao": "VIGENTE", "publicacao": 1545274800000, "vencimento": 1860894000000, "portaria": "2896/2018", "protocolo": 145798787, "data_protocolo": "15/09/2017", "bac_codigo": 16, "bac_nome": "Tibagi", "bacs_subbacia": null, "razaosocial": "INTEGRADA COOPERATIVA AGROINDUSTRIAL", "usu_nome_fantasia": "INTEGRADA COOPERATIVA AGROINDUSTRIAL", "mun_ibge": 4124301, "municipio": "Santo Antonio do Paraíso", "uso": "Indústria", "usu_tipo_usuario": 1, "atv_codigo": 155, "atv_nome": "Moagem, fabricação de produtos amiláceos e de rações balanceadas para animais (i", "tipo_manancial": "MINA", "rio_codigo": null, "rio_nome": null, "localidade": null, "capp_complemento": "01", "capp_margem": null, "capp_latitude": -23.50574825, "capp_longitude": -50.66418022, "capp_latitude_sad69": -23.50526841, "capp_longitude_sad69": -50.66370096, "capp_localizacao": null, "capo_area_bacia__km2_": null, "capo_vazao_especifica__l_s_km2_": null, "capp_desativado": 0, "capo_bom_num_meses": 12, "parecer_codigo": 1, "parecer": "Positivo", "grupo_cobrança": "Aguardando enquadramento de cobrança", "capo_par_numero": null, "capo_par_emissao": null, "capo_par_publicacao": null, "capo_par_negativo": null, "modalidade": "Autorização", "capo_out_emissao": 1543978800000, "capo_out_validade_anos": 10, "capo_out_validade_meses": 0, "capo_out_cancelamento": null, "capo_out_e1_anos": 10, "capo_out_e1_meses": null, "capo_situacao": 7, "sitout_descricao": "Publicado", "capo_inf_area_lamina": null, "codigo": 1, "descricao": "Captação/Derivação", "cod_otto": 844227445, "finalidade_principal": "Limpeza", "aqu_codigo": null, "aqu_descricao": null, "aqu_codigo_sec": null, "poco_profundidade": null, "poco_nivel_estatico": null, "poco_fim_perfuracao": null, "capo_bom_horas_dia": 3, "capo_bom_dias_semana": 7, "total_captado_dias__m3_": 6, "total_captado_meses__m3_": 168, "total_captado_ano__m3_": 2016, "vazao_outorgada__m3_h_": 2, "vazao_outorgada_1aetapa__m3_h_": 2, "vazao_solicitada__m3_h_": null, "capo_inf_populacao_abast": null, "capo_inf_populacao_projeto": null, "capo_inf_consumo__l_d_": null, "capo_inf_perdas____": null, "capo_inf_dom_consumo___l_d_": 120, "capo_inf_ind_uso_consultivo____": null, "capo_inf_dom_populacao_atual": 8, "capo_inf_dom_perdas____": 20, "cod_siagas_idt": null, "finalidades": "Lazer, Combate a incêndio, Consumo humano, Limpeza", "field85": null}}, {"type": "Feature", "id": 42084, "geometry": {"type": "Point", "coordinates": [-50.62324739499997, -23.489234923309567]}, "properties": {"objectid": 42084, "usu_codigo": 10543, "codigo_ponto": 58104, "crh": 30812015, "condicao": "VIGENTE", "publicacao": 1665457200000, "vencimento": 1760151600000, "portaria": "1323/2022", "protocolo": 138072541, "data_protocolo": "14/10/2015", "bac_codigo": 16, "bac_nome": "Tibagi", "bacs_subbacia": null, "razaosocial": "SERVIÇO AUTÔNOMO MUNICIPAL DE ÁGUA E ESGOTO", "usu_nome_fantasia": "SAMAE ", "mun_ibge": 4124301, "municipio": "Santo Antonio do Paraíso", "uso": "Saneamento", "usu_tipo_usuario": 6, "atv_codigo": 410, "atv_nome": "Captação, tratamento e distribuição de água", "tipo_manancial": "POÇO", "rio_codigo": null, "rio_nome": null, "localidade": "Santo Antônio do Paraíso", "capp_complemento": "01", "capp_margem": null, "capp_latitude": -23.48923492, "capp_longitude": -50.6232474, "capp_latitude_sad69": -23.48875503, "capp_longitude_sad69": -50.62276852, "capp_localizacao": null, "capo_area_bacia__km2_": null, "capo_vazao_especifica__l_s_km2_": null, "capp_desativado": 0, "capo_bom_num_meses": 12, "parecer_codigo": 1, "parecer": "Positivo", "grupo_cobrança": "Aguardando enquadramento de cobrança", "capo_par_numero": null, "capo_par_emissao": null, "capo_par_publicacao": null, "capo_par_negativo": null, "modalidade": "Autorização", "capo_out_emissao": 1663729200000, "capo_out_validade_anos": 3, "capo_out_validade_meses": 0, "capo_out_cancelamento": null, "capo_out_e1_anos": 3, "capo_out_e1_meses": null, "capo_situacao": 7, "sitout_descricao": "Publicado", "capo_inf_area_lamina": null, "codigo": 1, "descricao": "Captação/Derivação", "cod_otto": 844227541, "finalidade_principal": "Abastecimento público", "aqu_codigo": 6, "aqu_descricao": "Guarani / Botucatu", "aqu_codigo_sec": null, "poco_profundidade": null, "poco_nivel_estatico": 137, "poco_fim_perfuracao": null, "capo_bom_horas_dia": 20, "capo_bom_dias_semana": 7, "total_captado_dias__m3_": 800, "total_captado_meses__m3_": 22400, "total_captado_ano__m3_": 268800, "vazao_outorgada__m3_h_": 40, "vazao_outorgada_1aetapa__m3_h_": 40, "vazao_solicitada__m3_h_": 40, "capo_inf_populacao_abast": 3000, "capo_inf_populacao_projeto": 6000, "capo_inf_consumo__l_d_": 150, "capo_inf_perdas____": 10, "capo_inf_dom_consumo___l_d_": null, "capo_inf_ind_uso_consultivo____": null, "capo_inf_dom_populacao_atual": 399, "capo_inf_dom_perdas____": null, "cod_siagas_idt": null, "finalidades": "Abastecimento público", "field85": null}}, {"type": "Feature", "id": 42711, "geometry": {"type": "Point", "coordinates": [-50.62846876499998, -23.489633787309543]}, "properties": {"objectid": 42711, "usu_codigo": 34620, "codigo_ponto": 54220, "crh": 68842012, "condicao": "VIGENTE", "publicacao": 1456455600000, "vencimento": 1772074800000, "portaria": "127/2016", "protocolo": 79380458, "data_protocolo": "20/01/2012", "bac_codigo": 16, "bac_nome": "Tibagi", "bacs_subbacia": null, "razaosocial": "LUIZ ANTONIO POLICAN ", "usu_nome_fantasia": "LUIZ ANTONIO POLICAN ", "mun_ibge": 4124301, "municipio": "Santo Antonio do Paraíso", "uso": "Agropecuária", "usu_tipo_usuario": 4, "atv_codigo": 13, "atv_nome": "Produção de lavouras permanentes (frutas, café, erva-mate, chá) ", "tipo_manancial": "RIO", "rio_codigo": 1, "rio_nome": null, "localidade": "Congonhas", "capp_complemento": "Córrego S/Nome", "capp_margem": null, "capp_latitude": -23.48963379, "capp_longitude": -50.62846877, "capp_latitude_sad69": -23.48916527, "capp_longitude_sad69": -50.62804361, "capp_localizacao": null, "capo_area_bacia__km2_": 0.8, "capo_vazao_especifica__l_s_km2_": 4.23, "capp_desativado": 0, "capo_bom_num_meses": 11, "parecer_codigo": 1, "parecer": "Positivo", "grupo_cobrança": "Aguardando enquadramento de cobrança", "capo_par_numero": null, "capo_par_emissao": null, "capo_par_publicacao": null, "capo_par_negativo": null, "modalidade": "Autorização", "capo_out_emissao": 1453777200000, "capo_out_validade_anos": 10, "capo_out_validade_meses": 0, "capo_out_cancelamento": null, "capo_out_e1_anos": 10, "capo_out_e1_meses": null, "capo_situacao": 7, "sitout_descricao": "Publicado", "capo_inf_area_lamina": null, "codigo": 1, "descricao": "Captação/Derivação", "cod_otto": 844227542, "finalidade_principal": "Irrigação", "aqu_codigo": null, "aqu_descricao": null, "aqu_codigo_sec": null, "poco_profundidade": null, "poco_nivel_estatico": null, "poco_fim_perfuracao": null, "capo_bom_horas_dia": 8, "capo_bom_dias_semana": 7, "total_captado_dias__m3_": 120, "total_captado_meses__m3_": 3360, "total_captado_ano__m3_": 36960, "vazao_outorgada__m3_h_": 15, "vazao_outorgada_1aetapa__m3_h_": 15, "vazao_solicitada__m3_h_": 15, "capo_inf_populacao_abast": null, "capo_inf_populacao_projeto": null, "capo_inf_consumo__l_d_": null, "capo_inf_perdas____": null, "capo_inf_dom_consumo___l_d_": null, "capo_inf_ind_uso_consultivo____": null, "capo_inf_dom_populacao_atual": 399, "capo_inf_dom_perdas____": null, "cod_siagas_idt": null, "finalidades": "Irrigação", "field85": null}}]}