{"type": "FeatureCollection", "features": [{"type": "Feature", "id": 10072190, "geometry": {"type": "Polygon", "coordinates": [[[-50.64519772999994, -23.50795197530915], [-50.646655762999956, -23.50810451030914], [-50.64727423199997, -23.50817605730914], [-50.64727420699995, -23.508181803309135], [-50.647271572999955, -23.50819474530915], [-50.64726646499997, -23.508206925309146], [-50.647259077999934, -23.508217874309143], [-50.64724969799994, -23.50822717230915], [-50.64723868399994, -23.508234461309154], [-50.64722645899996, -23.508239461309145], [-50.64721349399997, -23.508241980309155], [-50.647200286999976, -23.508241922309153], [-50.64518589399995, -23.508034514309156], [-50.645192738999974, -23.50798673930917], [-50.64519772999994, -23.50795197530915]]]}, "properties": {"objectid": 10072190, "cod_tema": "AREA_INFRAESTRUTURA_PUBLICA", "nom_tema": "Infraestrutura Publica", "cod_imovel": "PR-4124301-69DCC8561B96458AB6411F7D6FC1BC22", "num_area": 0.1893, "ind_status": "AT", "des_condic": "Analisado, em conformidade com a Lei n 12.651/2012", "Shape__Area": 1.6750404183987004e-07, "Shape__Length": 0.004308416171074261}}, {"type": "Feature", "id": 10072191, "geometry": {"type": "Polygon", "coordinates": [[[-50.64519772999994, -23.50795197530915], [-50.646655762999956, -23.50810451030914], [-50.64727423199997, -23.50817605730914], [-50.64727420699995, -23.508181803309135], [-50.647271572999955, -23.50819474530915], [-50.64726646499997, -23.508206925309146], [-50.647259077999934, -23.508217874309143], [-50.64724969799994, -23.50822717230915], [-50.64723868399994, -23.508234461309154], [-50.64722645899996, -23.508239461309145], [-50.64721349399997, -23.508241980309155], [-50.647200286999976, -23.508241922309153], [-50.64518589399995, -23.508034514309156], [-50.645192738999974, -23.50798673930917], [-50.64519772999994, -23.50795197530915]]]}, "properties": {"objectid": 10072191, "cod_tema": "AREA_SERVIDAO_ADMINISTRATIVA_TOTAL", "nom_tema": "Area de Servidao Administrativa Total", "cod_imovel": "PR-4124301-69DCC8561B96458AB6411F7D6FC1BC22", "num_area": 0.1893, "ind_status": "AT", "des_condic": "Analisado, em conformidade com a Lei n 12.651/2012", "Shape__Area": 1.6750404183987004e-07, "Shape__Length": 0.004308416171074261}}, {"type": "Feature", "id": 10105068, "geometry": {"type": "Polygon", "coordinates": [[[-50.630685856999946, -23.490166249309556], [-50.630902025999944, -23.490109521309552], [-50.63224737099995, -23.48985858730955], [-50.63356107399994, -23.489563649309588], [-50.63415211999995, -23.489437496309595], [-50.63438959599995, -23.489405298309556], [-50.634511678999964, -23.489408507309562], [-50.63467410299995, -23.489415259309535], [-50.63507521199995, -23.489674541309547], [-50.63470084499994, -23.489642418309554], [-50.63450267899998, -23.489634181309587], [-50.634404021999956, -23.489631587309553], [-50.63419759899995, -23.48965957530956], [-50.63361762899996, -23.489783363309545], [-50.63230060999996, -23.49007904730953], [-50.63095987899993, -23.490329120309543], [-50.630831949999966, -23.490362691309542], [-50.630701156999976, -23.490186291309573], [-50.63070007399995, -23.49018483030955], [-50.63070006499998, -23.490184819309565], [-50.630685856999946, -23.490166249309556]]]}, "properties": {"objectid": 10105068, "cod_tema": "AREA_UTILIDADE_PUBLICA", "nom_tema": "Utilidade Publica", "cod_imovel": "PR-4124301-958F6FEC6F9940389520FA03A7522DAF", "num_area": 1.0735000000000001, "ind_status": "AT", "des_condic": "Aguardando analise", "Shape__Area": 9.496336992774213e-07, "Shape__Length": 0.009109598285541906}}, {"type": "Feature", "id": 10105069, "geometry": {"type": "Polygon", "coordinates": [[[-50.630685856999946, -23.490166249309556], [-50.630902025999944, -23.490109521309552], [-50.63224737099995, -23.48985858730955], [-50.63356107399994, -23.489563649309588], [-50.63415211999995, -23.489437496309595], [-50.63438959599995, -23.489405298309556], [-50.634511678999964, -23.489408507309562], [-50.63467410299995, -23.489415259309535], [-50.63507521199995, -23.489674541309547], [-50.63470084499994, -23.489642418309554], [-50.63450267899998, -23.489634181309587], [-50.634404021999956, -23.489631587309553], [-50.63419759899995, -23.48965957530956], [-50.63361762899996, -23.489783363309545], [-50.63230060999996, -23.49007904730953], [-50.63095987899993, -23.490329120309543], [-50.630831949999966, -23.490362691309542], [-50.630701156999976, -23.490186291309573], [-50.63070007399995, -23.49018483030955], [-50.63070006499998, -23.490184819309565], [-50.630685856999946, -23.490166249309556]]]}, "properties": {"objectid": 10105069, "cod_tema": "AREA_SERVIDAO_ADMINISTRATIVA_TOTAL", "nom_tema": "Area de Servidao Administrativa Total", "cod_imovel": "PR-4124301-958F6FEC6F9940389520FA03A7522DAF", "num_area": 1.0735000000000001, "ind_status": "AT", "des_condic": "Aguardando analise", "Shape__Area": 9.496336992774213e-07, "Shape__Length": 0.009109598285541906}}, {"type": "Feature", "id": 10118707, "geometry": {"type": "Polygon", "coordinates": [[[-50.62917619199993, -23.49110336630951], [-50.62793779799995, -23.491663606309526], [-50.62735675099998, -23.491906283309543], [-50.62732132899999, -23.491676847309503], [-50.62746526799997, -23.49162562430955], [-50.62782887399993, -23.4914614643095], [-50.62895737599996, -23.490938900309516], [-50.62903062899994, -23.490993958309552], [-50.62917619199993, -23.49110336630951]]]}, "properties": {"objectid": 10118707, "cod_tema": "AREA_UTILIDADE_PUBLICA", "nom_tema": "Utilidade Publica", "cod_imovel": "PR-4124301-6839C7E64D8F4B41B6587312F222933C", "num_area": 0.49410000000000004, "ind_status": "AT", "des_condic": "Analisado, aguardando regularizacao ambiental (Lei n 12.651/2012)", "Shape__Area": 4.371311799168409e-07, "Shape__Length": 0.004290146136635297}}, {"type": "Feature", "id": 10118708, "geometry": {"type": "Polygon", "coordinates": [[[-50.62917619199993, -23.49110336630951], [-50.62793779799995, -23.491663606309526], [-50.62735675099998, -23.491906283309543], [-50.62732132899999, -23.491676847309503], [-50.62746526799997, -23.49162562430955], [-50.62782887399993, -23.4914614643095], [-50.62895737599996, -23.490938900309516], [-50.62903062899994, -23.490993958309552], [-50.62917619199993, -23.49110336630951]]]}, "properties": {"objectid": 10118708, "cod_tema": "AREA_SERVIDAO_ADMINISTRATIVA_TOTAL", "nom_tema": "Area de Servidao Administrativa Total", "cod_imovel": "PR-4124301-6839C7E64D8F4B41B6587312F222933C", "num_area": 0.49410000000000004, "ind_status": "AT", "des_condic": "Analisado, aguardando regularizacao ambiental (Lei n 12.651/2012)", "Shape__Area": 4.371311799168409e-07, "Shape__Length": 0.004290146136635297}}, {"type": "Feature", "id": 10121788, "geometry": {"type": "Polygon", "coordinates": [[[-50.65308315799996, -23.520569504308888], [-50.64191881899995, -23.51542165830899], [-50.641914483999976, -23.515419146308954], [-50.64191068799993, -23.51541587530898], [-50.64190756399995, -23.515411958308974], [-50.64190521899996, -23.51540753130901], [-50.64190373399998, -23.515402746308965], [-50.64190315999997, -23.51539776830898], [-50.641903517999936, -23.515392771308953], [-50.642681607999975, -23.510706910309082], [-50.64273424299994, -23.51071896930911], [-50.64196005599996, -23.515381320308972], [-50.65309582899994, -23.520515994308894], [-50.65308315799996, -23.520569504308888]]]}, "properties": {"objectid": 10121788, "cod_tema": "AREA_UTILIDADE_PUBLICA", "nom_tema": "Utilidade Publica", "cod_imovel": "PR-4124301-15295495A08648F89C0B3A0FA3088F00", "num_area": 1.0378, "ind_status": "AT", "des_condic": "Aguardando analise", "Shape__Area": 9.181863167146001e-07, "Shape__Length": 0.034176846149480536}}, {"type": "Feature", "id": 10121789, "geometry": {"type": "Polygon", "coordinates": [[[-50.65308315799996, -23.520569504308888], [-50.64191881899995, -23.51542165830899], [-50.641914483999976, -23.515419146308954], [-50.64191068799993, -23.51541587530898], [-50.64190756399995, -23.515411958308974], [-50.64190521899996, -23.51540753130901], [-50.64190373399998, -23.515402746308965], [-50.64190315999997, -23.51539776830898], [-50.641903517999936, -23.515392771308953], [-50.642681607999975, -23.510706910309082], [-50.64273424299994, -23.51071896930911], [-50.64196005599996, -23.515381320308972], [-50.65309582899994, -23.520515994308894], [-50.65308315799996, -23.520569504308888]]]}, "properties": {"objectid": 10121789, "cod_tema": "AREA_SERVIDAO_ADMINISTRATIVA_TOTAL", "nom_tema": "Area de Servidao Administrativa Total", "cod_imovel": "PR-4124301-15295495A08648F89C0B3A0FA3088F00", "num_area": 1.0378, "ind_status": "AT", "des_condic": "Aguardando analise", "Shape__Area": 9.181863167146001e-07, "Shape__Length": 0.034176846149480536}}, {"type": "Feature", "id": 10202024, "geometry": {"type": "Polygon", "coordinates": [[[-50.64349379799995, -23.503831126309247], [-50.64349019399998, -23.50383327430926], [-50.64348023699995, -23.503836809309227], [-50.643469781999954, -23.503838334309236], [-50.643459229999955, -23.50383778930927], [-50.63990827699997, -23.503302146309245], [-50.63705542099996, -23.502889566309264], [-50.637045161999936, -23.502887036309243], [-50.63703559399994, -23.502882553309245], [-50.63702708499995, -23.502876290309263], [-50.637019960999964, -23.50286848730924], [-50.63701449599995, -23.502859444309273], [-50.63701089999995, -23.502849508309232], [-50.637009310999986, -23.50283906230926], [-50.637009476999935, -23.502835425309243], [-50.637015007999935, -23.502812515309262], [-50.637016803999984, -23.502808681309276], [-50.63702306799996, -23.50280017130929], [-50.63703087099998, -23.50279304730925], [-50.637039913999956, -23.502787582309235], [-50.63704984899994, -23.50278398630924], [-50.63706029499996, -23.50278239830927], [-50.63707084999998, -23.50278287830925], [-50.63992386799998, -23.503195482309266], [-50.639924192999956, -23.50319553030927], [-50.64115961799996, -23.50338188730928], [-50.641299557999965, -23.502599841309248], [-50.641425627999986, -23.501773403309276], [-50.63948527899999, -23.501473762309324], [-50.637478294999944, -23.501178170309277], [-50.63746804299995, -23.501175613309318], [-50.63745848699994, -23.501171106309293], [-50.637449993999944, -23.501164820309324], [-50.63744288999993, -23.501156999309323], [-50.63743744899995, -23.501147942309323], [-50.63743577899998, -23.501143290309297], [-50.63745109399997, -23.50108422430929], [-50.637453996999966, -23.50108158830931], [-50.63746305399997, -23.501076146309284], [-50.637472998999954, -23.50107257630929], [-50.63748344899994, -23.50107101530932], [-50.63749400199998, -23.501071523309285], [-50.63950117199994, -23.501367142309327], [-50.639501543999984, -23.501367198309293], [-50.641495249999934, -23.501675079309265], [-50.64150547199995, -23.50167770330931], [-50.64151498699994, -23.501682269309285], [-50.64152342999995, -23.501688601309286], [-50.641530476999954, -23.501696457309304], [-50.64153585799994, -23.5017055363093], [-50.64153936699995, -23.50171549030931], [-50.64154086899998, -23.501725936309278], [-50.641540306999964, -23.501736475309293], [-50.64140601799994, -23.502616782309275], [-50.641405791999944, -23.502618148309256], [-50.641266249999944, -23.503397972309234], [-50.64347530899994, -23.503731197309264], [-50.64348555199996, -23.503733790309226], [-50.64349509199997, -23.50373833130924], [-50.64350356399996, -23.50374464630925], [-50.64350766399996, -23.503749193309257], [-50.64349379799995, -23.503831126309247]]]}, "properties": {"objectid": 10202024, "cod_tema": "AREA_INFRAESTRUTURA_PUBLICA", "nom_tema": "Infraestrutura Publica", "cod_imovel": "PR-4124301-7D8C0B0361B74FCB9002E0C70E82B0BB", "num_area": 1.5, "ind_status": "AT", "des_condic": "Aguardando analise", "Shape__Area": 1.3269967233664445e-06, "Shape__Length": 0.024768233379034266}}, {"type": "Feature", "id": 10202025, "geometry": {"type": "Polygon", "coordinates": [[[-50.63743894899994, -23.501131066309302], [-50.637948268999935, -23.5002859963093], [-50.63813265299996, -23.500314309309335], [-50.63813262099996, -23.50031492430931], [-50.63812830099994, -23.5003319963093], [-50.63812073299994, -23.500347897309343], [-50.63758788199993, -23.501232008309326], [-50.63757735699994, -23.501246127309283], [-50.63756427999994, -23.501257922309318], [-50.63754915299995, -23.501266938309286], [-50.637532557999975, -23.50127283030928], [-50.637515132999965, -23.501275372309284], [-50.63749754599996, -23.50127446530926], [-50.63748047399997, -23.50127014430932], [-50.63746457299994, -23.50126257630933], [-50.63745045399998, -23.501252051309272], [-50.637438659999994, -23.501238974309327], [-50.63742964299997, -23.501223848309277], [-50.63742375099998, -23.5012072533093], [-50.63742211099997, -23.501196004309286], [-50.63743894899994, -23.501131066309302]]]}, "properties": {"objectid": 10202025, "cod_tema": "AREA_UTILIDADE_PUBLICA", "nom_tema": "Utilidade Publica", "cod_imovel": "PR-4124301-7D8C0B0361B74FCB9002E0C70E82B0BB", "num_area": 0.22360000000000002, "ind_status": "AT", "des_condic": "Aguardando analise", "Shape__Area": 1.978458786031074e-07, "Shape__Length": 0.0025311123956328068}}, {"type": "Feature", "id": 10202026, "geometry": {"type": "Polygon", "coordinates": [[[-50.63743894899994, -23.501131066309302], [-50.63745109399997, -23.50108422430929], [-50.637453996999966, -23.50108158830931], [-50.63746305399997, -23.501076146309284], [-50.637472998999954, -23.50107257630929], [-50.63747431899998, -23.501072379309335], [-50.637948268999935, -23.5002859963093], [-50.63813265299996, -23.500314309309335], [-50.63813262099996, -23.50031492430931], [-50.63812830099994, -23.5003319963093], [-50.63812073299994, -23.500347897309343], [-50.637669065999944, -23.501097307309294], [-50.63950117199994, -23.501367142309327], [-50.639501543999984, -23.501367198309293], [-50.641495249999934, -23.501675079309265], [-50.64150547199995, -23.50167770330931], [-50.64151498699994, -23.501682269309285], [-50.64152342999995, -23.501688601309286], [-50.641530476999954, -23.501696457309304], [-50.64153585799994, -23.5017055363093], [-50.64153936699995, -23.50171549030931], [-50.64154086899998, -23.501725936309278], [-50.641540306999964, -23.501736475309293], [-50.64140601799994, -23.502616782309275], [-50.641405791999944, -23.502618148309256], [-50.641266249999944, -23.503397972309234], [-50.64347530899994, -23.503731197309264], [-50.64348555199996, -23.503733790309226], [-50.64349509199997, -23.50373833130924], [-50.64350356399996, -23.50374464630925], [-50.64350766399996, -23.503749193309257], [-50.64349379799995, -23.503831126309247], [-50.64349019399998, -23.50383327430926], [-50.64348023699995, -23.503836809309227], [-50.643469781999954, -23.503838334309236], [-50.643459229999955, -23.50383778930927], [-50.63990827699997, -23.503302146309245], [-50.63705542099996, -23.502889566309264], [-50.637045161999936, -23.502887036309243], [-50.63703559399994, -23.502882553309245], [-50.63702708499995, -23.502876290309263], [-50.637019960999964, -23.50286848730924], [-50.63701449599995, -23.502859444309273], [-50.63701089999995, -23.502849508309232], [-50.637009310999986, -23.50283906230926], [-50.637009476999935, -23.502835425309243], [-50.637015007999935, -23.502812515309262], [-50.637016803999984, -23.502808681309276], [-50.63702306799996, -23.50280017130929], [-50.63703087099998, -23.50279304730925], [-50.637039913999956, -23.502787582309235], [-50.63704984899994, -23.50278398630924], [-50.63706029499996, -23.50278239830927], [-50.63707084999998, -23.50278287830925], [-50.63992386799998, -23.503195482309266], [-50.639924192999956, -23.50319553030927], [-50.64115961799996, -23.50338188730928], [-50.641299557999965, -23.502599841309248], [-50.641425627999986, -23.501773403309276], [-50.63948527899999, -23.501473762309324], [-50.63760874999997, -23.501197384309307], [-50.63758788199993, -23.501232008309326], [-50.63757735699994, -23.501246127309283], [-50.63756427999994, -23.501257922309318], [-50.63754915299995, -23.501266938309286], [-50.637532557999975, -23.50127283030928], [-50.637515132999965, -23.501275372309284], [-50.63749754599996, -23.50127446530926], [-50.63748047399997, -23.50127014430932], [-50.63746457299994, -23.50126257630933], [-50.63745045399998, -23.501252051309272], [-50.637438659999994, -23.501238974309327], [-50.63742964299997, -23.501223848309277], [-50.63742375099998, -23.5012072533093], [-50.63742211099997, -23.501196004309286], [-50.63743894899994, -23.501131066309302]]]}, "properties": {"objectid": 10202026, "cod_tema": "AREA_SERVIDAO_ADMINISTRATIVA_TOTAL", "nom_tema": "Area de Servidao Administrativa Total", "cod_imovel": "PR-4124301-7D8C0B0361B74FCB9002E0C70E82B0BB", "num_area": 1.7006999999999999, "ind_status": "AT", "des_condic": "Aguardando analise", "Shape__Area": 1.5045641408992827e-06, "Shape__Length": 0.026714964618448914}}, {"type": "Feature", "id": 10333621, "geometry": {"type": "Polygon", "coordinates": [[[-50.669852830999965, -23.50346696530925], [-50.66984964699998, -23.50346736830926], [-50.66982768899993, -23.50346581830923], [-50.669806454999964, -23.50346001530926], [-50.667747058999964, -23.502673120309243], [-50.665516002999944, -23.501846859309282], [-50.66551578699995, -23.50184677930926], [-50.665348525999946, -23.501784444309276], [-50.66595340199996, -23.501791904309286], [-50.66086825499997, -23.49996121530935], [-50.66087214599997, -23.49987928630932], [-50.66087370299993, -23.49987938330932], [-50.66089498399998, -23.499885011309313], [-50.66559410599995, -23.501636299309308], [-50.66782559599995, -23.50246272030929], [-50.66782667799998, -23.502463128309298], [-50.66984580899998, -23.50323463730928], [-50.669852830999965, -23.50346696530925]]]}, "properties": {"objectid": 10333621, "cod_tema": "AREA_INFRAESTRUTURA_PUBLICA", "nom_tema": "Infraestrutura Publica", "cod_imovel": "PR-4124301-10323F7CA01C4D8BB4027DA137FA814F", "num_area": 1.4408, "ind_status": "AT", "des_condic": "Aguardando analise", "Shape__Area": 1.274694105149143e-06, "Shape__Length": 0.020714432317647545}}, {"type": "Feature", "id": 10333622, "geometry": {"type": "Polygon", "coordinates": [[[-50.669852830999965, -23.50346696530925], [-50.66984964699998, -23.50346736830926], [-50.66982768899993, -23.50346581830923], [-50.669806454999964, -23.50346001530926], [-50.667747058999964, -23.502673120309243], [-50.665516002999944, -23.501846859309282], [-50.66551578699995, -23.50184677930926], [-50.665348525999946, -23.501784444309276], [-50.66595340199996, -23.501791904309286], [-50.66086825499997, -23.49996121530935], [-50.66087214599997, -23.49987928630932], [-50.66087370299993, -23.49987938330932], [-50.66089498399998, -23.499885011309313], [-50.66559410599995, -23.501636299309308], [-50.66782559599995, -23.50246272030929], [-50.66782667799998, -23.502463128309298], [-50.66984580899998, -23.50323463730928], [-50.669852830999965, -23.50346696530925]]]}, "properties": {"objectid": 10333622, "cod_tema": "AREA_SERVIDAO_ADMINISTRATIVA_TOTAL", "nom_tema": "Area de Servidao Administrativa Total", "cod_imovel": "PR-4124301-10323F7CA01C4D8BB4027DA137FA814F", "num_area": 1.4408, "ind_status": "AT", "des_condic": "Aguardando analise", "Shape__Area": 1.274694105149143e-06, "Shape__Length": 0.020714432317647545}}]}