{"type": "FeatureCollection", "features": [{"type": "Feature", "id": 36171, "geometry": {"type": "Polygon", "coordinates": [[[-50.710110057999934, -23.51837180630889], [-50.710143743999936, -23.518429863308885], [-50.71015859899995, -23.518452509308926], [-50.71016908899998, -23.518496970308895], [-50.71027953299995, -23.518469025308885], [-50.71028689899998, -23.51836990230891], [-50.71030821599993, -23.518362709308928], [-50.710438060999934, -23.518412001308892], [-50.71056782299996, -23.518396112308906], [-50.71063764499996, -23.518433447308905], [-50.71077316499998, -23.51840588630894], [-50.71091479799997, -23.518371929308902], [-50.710945065999965, -23.51840486030893], [-50.71098208199993, -23.518415990308945], [-50.711046747999944, -23.5183470963089], [-50.71102824199994, -23.518316844308913], [-50.71114370599997, -23.518296726308915], [-50.71127045499998, -23.518361328308913], [-50.71154575799994, -23.51837622930891], [-50.711691610999935, -23.51836832530893], [-50.71189404699993, -23.51844249430889], [-50.712062713999956, -23.51840965930893], [-50.71231051799998, -23.51843929230893], [-50.71242021599994, -23.51847297130889], [-50.71255852999997, -23.518503387308893], [-50.71268575499993, -23.51853825930891], [-50.712744715999975, -23.51848353430893], [-50.71277821499995, -23.518450956308932], [-50.71289689499998, -23.51848475430893], [-50.712976945999976, -23.518460080308902], [-50.712998077999934, -23.51840822530892], [-50.713059113999975, -23.518398540308908], [-50.713203464999935, -23.518416870308897], [-50.71327845899997, -23.51840851530892], [-50.71335692599996, -23.518360611308943], [-50.713410160999956, -23.518333515308896], [-50.71353272199997, -23.518322069308915], [-50.71363856099998, -23.5182877573089], [-50.71373435299995, -23.51832447130892], [-50.713802218999945, -23.51832148330892], [-50.71386484999993, -23.5183719513089], [-50.714330164999986, -23.51851356230891], [-50.71445078399996, -23.51861922930891], [-50.71454245199993, -23.518702957308896], [-50.714601811999955, -23.518782635308913], [-50.714735650999955, -23.518806236308926], [-50.71478801799998, -23.518827310308883], [-50.714887431999955, -23.518856372308896], [-50.71496409699994, -23.518938123308878], [-50.71506148299994, -23.518990976308885], [-50.71512907799996, -23.51904569030892], [-50.71520723999998, -23.519044907308903], [-50.715321019999976, -23.519104494308912], [-50.715476917999986, -23.519251759308915], [-50.71575665299997, -23.519288630308875], [-50.71603116599994, -23.519275445308885], [-50.71655245999995, -23.5192624893089], [-50.71668531499996, -23.519311251308913], [-50.71670440799994, -23.519374390308865], [-50.71697442099997, -23.51957346030887], [-50.71723649699993, -23.51943387730892], [-50.71721502499997, -23.519564975308903], [-50.71728983999998, -23.519578333308893], [-50.71740209799998, -23.519671841308906], [-50.717466098999985, -23.519724552308876], [-50.71769939899997, -23.519803234308913], [-50.717858193999966, -23.519897659308896], [-50.71795424099997, -23.519987887308876], [-50.718202024999975, -23.520178141308893], [-50.71824624299996, -23.520264532308836], [-50.718300770999974, -23.520280062308892], [-50.71836428199998, -23.520285445308875], [-50.71847508699994, -23.52029844330886], [-50.71839142999993, -23.520364957308878], [-50.718357854999965, -23.52046754630887], [-50.718307883999955, -23.52048790930884], [-50.71818034399996, -23.520547161308862], [-50.718079530999944, -23.520661299308877], [-50.718018014999984, -23.520792169308848], [-50.71788424599998, -23.52091687930886], [-50.71783612799994, -23.520993568308832], [-50.71777281699997, -23.52103043030884], [-50.71757282599998, -23.521299182308834], [-50.71728483499999, -23.521867593308837], [-50.717201166999985, -23.522039682308826], [-50.71718138799998, -23.522175766308838], [-50.71705646799995, -23.522334755308833], [-50.716971821999955, -23.522456072308806], [-50.71686745799997, -23.522605602308797], [-50.71681081299994, -23.522731747308825], [-50.71673314199995, -23.522822096308833], [-50.716595789999985, -23.522991840308823], [-50.71651772399997, -23.52313102830882], [-50.716433877999975, -23.52328631830882], [-50.71625687599994, -23.523475109308777], [-50.716179591999946, -23.523613762308813], [-50.71612176699995, -23.523673973308806], [-50.715911619999986, -23.52350078030879], [-50.71391940699993, -23.521750743308854], [-50.71161164899996, -23.52407372330879], [-50.70996985199997, -23.525757965308753], [-50.709587289999945, -23.526100561308745], [-50.71023324299994, -23.526692467308745], [-50.71182570799993, -23.52818646930872], [-50.711756856999955, -23.528245685308686], [-50.711709867999964, -23.528351056308694], [-50.71154744099993, -23.528537623308704], [-50.71147585799997, -23.52862930330867], [-50.711486498999925, -23.528652066308666], [-50.711456872999975, -23.52865866230867], [-50.71133826499993, -23.528721555308675], [-50.71124640899995, -23.528810952308675], [-50.71106594499998, -23.5288694783087], [-50.71099463999997, -23.528854210308676], [-50.71098983599995, -23.52891398030868], [-50.710969329999955, -23.528956449308673], [-50.71096111899993, -23.529021243308705], [-50.71095349999997, -23.529054936308672], [-50.710899353999935, -23.529089680308683], [-50.71086598599993, -23.52911856330865], [-50.71080144499996, -23.52912784930867], [-50.710785304999945, -23.529086577308693], [-50.70979699099996, -23.52884849730868], [-50.70965265499996, -23.529043148308684], [-50.709654383999975, -23.529157333308646], [-50.70949164499996, -23.529208727308678], [-50.709361754999975, -23.529340595308653], [-50.709259962999965, -23.529469478308652], [-50.70910299099995, -23.52961604230869], [-50.709034790999965, -23.52971565530866], [-50.708902971999976, -23.52976293930867], [-50.70869240899999, -23.52986582830866], [-50.70854954999998, -23.529964305308663], [-50.70851535099995, -23.530084474308673], [-50.70841132999993, -23.53014506030862], [-50.70835774699998, -23.530213373308655], [-50.70822883599993, -23.53031922130864], [-50.708150854999985, -23.53028855730863], [-50.708069567999985, -23.530302083308662], [-50.70803442299996, -23.530330848308633], [-50.707798990999954, -23.53047865430866], [-50.70774445199998, -23.530517943308627], [-50.707547731999966, -23.530667061308655], [-50.70771253999994, -23.530771572308666], [-50.706123266999946, -23.5330119373086], [-50.70509032599995, -23.534511289308554], [-50.705057360999945, -23.534558030308563], [-50.70557697099997, -23.53484132130857], [-50.706387577999976, -23.53533682230855], [-50.70335284599997, -23.536769692308486], [-50.70161613699997, -23.535561291308525], [-50.70043802699996, -23.534754885308562], [-50.699452047999955, -23.534045781308578], [-50.69950675399997, -23.533965818308555], [-50.69958209799995, -23.533896156308572], [-50.69968396399997, -23.53384260230861], [-50.699757258999966, -23.533819996308583], [-50.699842630999974, -23.533772384308588], [-50.69989364099996, -23.53377574130855], [-50.69995514799996, -23.533724078308587], [-50.700015021999945, -23.53364605030856], [-50.70012781099996, -23.533616480308584], [-50.700214805999956, -23.533629346308548], [-50.700284800999945, -23.53360034230855], [-50.70036673999993, -23.5336019073086], [-50.70047578799995, -23.53352633630857], [-50.70057211699998, -23.533462524308568], [-50.70068046399995, -23.53338386630857], [-50.70075317699997, -23.533330631308566], [-50.70073456599994, -23.53330898530858], [-50.70051295499996, -23.533024416308617], [-50.699205923999955, -23.531532921308603], [-50.699161259999975, -23.531485002308614], [-50.69742652899999, -23.52949663230867], [-50.69692701499997, -23.530734452308668], [-50.69671002399997, -23.531205097308604], [-50.690975149999986, -23.528937213308666], [-50.69115221699997, -23.52786601030871], [-50.68815038099996, -23.527105628308714], [-50.68624362299994, -23.526620831308712], [-50.686013213999956, -23.526562992308747], [-50.68684969699996, -23.520209447308865], [-50.68588968199998, -23.519861717308885], [-50.68654382699998, -23.51700534930896], [-50.68815793899995, -23.51800518530895], [-50.688196293999965, -23.518051524308937], [-50.688267672999984, -23.518031250308933], [-50.68827387299996, -23.517886239308904], [-50.68826085099994, -23.51781818430892], [-50.68829797999996, -23.517760633308928], [-50.688341933999936, -23.51772839530892], [-50.688332856999985, -23.517673505308906], [-50.688303840999936, -23.517641051308903], [-50.68830867499997, -23.517548282308915], [-50.68836484499997, -23.517462680308906], [-50.68844151099995, -23.51740435230894], [-50.68843604999995, -23.517369239308923], [-50.68850518199997, -23.51735335130891], [-50.68854051699997, -23.51724559830896], [-50.68857900399996, -23.517203084308942], [-50.68865528799995, -23.51715481030894], [-50.68865452099994, -23.517096973308963], [-50.68866656199998, -23.517010113308956], [-50.688590989999966, -23.516927400308973], [-50.688476728999944, -23.516635077308983], [-50.68846558599995, -23.516495059308962], [-50.68843368299997, -23.516188281308988], [-50.688415848999966, -23.51611007530897], [-50.68835304299994, -23.515974332308986], [-50.688299625999946, -23.515734403308958], [-50.68831939599994, -23.51568375730899], [-50.68835815299997, -23.51568154430897], [-50.68840203899998, -23.51560752230899], [-50.68839399299997, -23.515541581308995], [-50.68836705699994, -23.515424242308953], [-50.68829757999998, -23.515302689308974], [-50.68816229699996, -23.515262894309007], [-50.688050118999975, -23.51515591230898], [-50.68803988999997, -23.515128902308984], [-50.68806662099996, -23.515097037309], [-50.68807130199997, -23.514967699308983], [-50.68808717699994, -23.514852897308995], [-50.68806200999995, -23.514661728309], [-50.68806978499998, -23.514503007309013], [-50.68808517399998, -23.514432553308993], [-50.68808603499997, -23.514357697309023], [-50.68825447399997, -23.514107692309018], [-50.688345234999986, -23.51384844430901], [-50.68834994599996, -23.51371100130905], [-50.68836252499994, -23.513502446309026], [-50.68833587999996, -23.513038534309043], [-50.68823182699998, -23.512612905309044], [-50.68834847799997, -23.512364867309056], [-50.68860696999997, -23.512023426309078], [-50.68869865999995, -23.511302785309056], [-50.68855771999995, -23.51126483930909], [-50.688071570999966, -23.511095885309096], [-50.68777884699995, -23.510936247309075], [-50.68754763399994, -23.51048882830907], [-50.687324624999974, -23.51041891130912], [-50.68701119899998, -23.510422407309093], [-50.68623395599997, -23.510132764309127], [-50.68626609499995, -23.509867342309093], [-50.68620009799998, -23.509446152309106], [-50.68620329399994, -23.50905509630911], [-50.68602349299994, -23.508765112309156], [-50.685604705999936, -23.508888230309143], [-50.685310254999926, -23.508531552309144], [-50.684757428999944, -23.508467570309172], [-50.684294535999975, -23.508365123309154], [-50.68399693199996, -23.508246431309153], [-50.68369700299996, -23.508010071309126], [-50.68310252599997, -23.50773640630918], [-50.68281234699999, -23.507597408309174], [-50.68246672999993, -23.507447162309145], [-50.68212409799998, -23.50723298130915], [-50.68174774999995, -23.5071409463092], [-50.68148458099994, -23.50638679130918], [-50.68324210599997, -23.505562975309214], [-50.68374259299998, -23.50535231330918], [-50.68416539099996, -23.50519964130924], [-50.68460038599994, -23.50506859730924], [-50.685035424999974, -23.50496204430922], [-50.685457483999976, -23.50488354930919], [-50.68593853799996, -23.504817896309227], [-50.68939732299999, -23.50445891230923], [-50.69247591799995, -23.504139514309248], [-50.692864278999934, -23.507663867309148], [-50.693439127999966, -23.512735638309064], [-50.69405753799998, -23.51812184530889], [-50.70194900199994, -23.51747024830891], [-50.70204285199998, -23.51852005130889], [-50.70218848199994, -23.520091005308903], [-50.702199270999984, -23.520159794308857], [-50.702305782999986, -23.520082849308864], [-50.702448105999956, -23.52005815630886], [-50.70251287299993, -23.52000664630887], [-50.702768240999944, -23.519962224308905], [-50.702902463999976, -23.51987303130889], [-50.70305269499994, -23.519862399308888], [-50.70324836999999, -23.519886051308866], [-50.70333666499994, -23.519850327308887], [-50.703396888999976, -23.519829603308867], [-50.70355713299995, -23.519874588308905], [-50.70359734499994, -23.51989961730888], [-50.70361193499997, -23.519961818308868], [-50.70370709299994, -23.520005023308865], [-50.70383892799998, -23.52009928630886], [-50.70394305199995, -23.520267598308884], [-50.70415138599998, -23.520457054308864], [-50.704295299999956, -23.520513522308892], [-50.70439328699996, -23.520469492308866], [-50.70455243299995, -23.520468397308843], [-50.704711920999955, -23.52039810130887], [-50.70478899799997, -23.520348414308856], [-50.70491102799997, -23.5203030613089], [-50.70505214499996, -23.520271843308908], [-50.705202576999966, -23.52018255030887], [-50.70535788999996, -23.52013469730886], [-50.705468640999975, -23.520118435308888], [-50.70555191599993, -23.520083616308874], [-50.705676051999944, -23.520101070308876], [-50.705695677999984, -23.520058488308873], [-50.70571108099995, -23.519977026308904], [-50.705801478999945, -23.519946333308866], [-50.70598494799998, -23.51989533330889], [-50.70609712099997, -23.51980581030889], [-50.706197919999966, -23.519750929308856], [-50.70625067299995, -23.519785224308908], [-50.70627352799994, -23.51980798230889], [-50.70635285099996, -23.51970638730891], [-50.70643004599998, -23.51967565130886], [-50.706515268999965, -23.519690487308914], [-50.70659866599993, -23.5196504393089], [-50.70661254399994, -23.519557268308898], [-50.70666180899997, -23.519527434308873], [-50.70669142099996, -23.51954253730887], [-50.70680084299994, -23.519501331308877], [-50.70694135499997, -23.519418051308868], [-50.70711658099997, -23.519356462308888], [-50.707229505999976, -23.519329281308895], [-50.70731287199993, -23.519241695308878], [-50.70745178899994, -23.51921711530888], [-50.707521439999944, -23.519243589308914], [-50.70762762799996, -23.51917702230888], [-50.707722762999936, -23.51916478130891], [-50.707823324999936, -23.519171295308904], [-50.70783717599994, -23.519130710308897], [-50.70779797899996, -23.519067159308907], [-50.70778473399997, -23.5189886793089], [-50.70784442299998, -23.51896920230893], [-50.70790873399994, -23.518917167308913], [-50.70800460299995, -23.51892547530888], [-50.70802238799997, -23.518860690308877], [-50.708018340999956, -23.51882376030892], [-50.70810718399997, -23.5188238803089], [-50.70817972899994, -23.518787250308886], [-50.708275337999964, -23.51873113530889], [-50.708368595999964, -23.5186863753089], [-50.708456627999965, -23.518655393308915], [-50.708506925999984, -23.518623316308894], [-50.70853228499993, -23.518593160308907], [-50.70860005999998, -23.51857034230892], [-50.70870570499994, -23.518536609308917], [-50.70874814499996, -23.518551735308908], [-50.708851237999966, -23.51850672630889], [-50.708961744999954, -23.518420392308887], [-50.70904456499994, -23.518378260308914], [-50.70917260399994, -23.51837384030894], [-50.70921405799999, -23.518372721308943], [-50.70926354699998, -23.51838126230895], [-50.70934854999996, -23.518365236308927], [-50.70937621499996, -23.518406930308924], [-50.70945296199994, -23.518384246308923], [-50.709531868999925, -23.518410987308936], [-50.709581386999965, -23.518434431308894], [-50.70961853599994, -23.518365705308906], [-50.70966973599997, -23.5183771003089], [-50.70966707399998, -23.5184103133089], [-50.70964205799999, -23.518487221308934], [-50.70971918899994, -23.518488172308942], [-50.709752642999945, -23.51843995330893], [-50.70975361199999, -23.51839985130891], [-50.70978334399996, -23.51840685930892], [-50.70992068999993, -23.518462805308907], [-50.70998710099997, -23.5184459493089], [-50.71001669899993, -23.518369111308917], [-50.71007833199996, -23.51833814330895], [-50.710110057999934, -23.51837180630889]]]}, "properties": {"objectid": 36171, "num_proces": "54200.003805/2012-20", "sr": "09", "num_certif": "091308000017-69", "data_certi": 1375747200000, "qtd_area_p": "486.0826", "cod_profis": "B9V", "cod_imovel": "7121910033600", "nome_imove": "FAZENDA SANTA AMÁLIA", "uf_municip": "PR", "globalid": "{0D0B4F08-0CC9-4158-9EF3-492EC74445EB}", "Shape__Area": 0.0004300998347974227, "Shape__Length": 0.1425867810372745}}, {"type": "Feature", "id": 37029, "geometry": {"type": "MultiPolygon", "coordinates": [[[[-50.634632342999964, -23.489388331309588], [-50.627902683999935, -23.48613578230965], [-50.62101590599997, -23.482746591309724], [-50.620837517999966, -23.482658794309724], [-50.62061893599997, -23.4825614333097], [-50.620073124999976, -23.48288846530972], [-50.619587164999984, -23.483384955309702], [-50.618961947999935, -23.483531327309716], [-50.618460822999964, -23.483410200309713], [-50.61794908099995, -23.483181813309734], [-50.617490823999965, -23.48294864730969], [-50.616916929999945, -23.482461438309727], [-50.61690410899997, -23.481588523309746], [-50.616853529999965, -23.481247824309765], [-50.61677237499998, -23.480822016309784], [-50.61675519799997, -23.480287638309797], [-50.61650976999994, -23.479152246309784], [-50.61602483599995, -23.47850832930981], [-50.61534167399998, -23.47800727530984], [-50.61446678999994, -23.477997240309833], [-50.614178946999964, -23.47830150830982], [-50.614028935999954, -23.478368924309788], [-50.61385967099994, -23.47824668530984], [-50.612500580999956, -23.477435876309823], [-50.611296462999974, -23.477254051309863], [-50.61010298699994, -23.477301147309866], [-50.60937474199994, -23.477368157309815], [-50.608717182999946, -23.477364476309862], [-50.60799628199993, -23.477356407309827], [-50.60761276299996, -23.477109110309836], [-50.607596470999965, -23.476912286309837], [-50.607572242999936, -23.476587608309874], [-50.60807563799994, -23.476068368309864], [-50.60963441599995, -23.475189079309878], [-50.610789971999964, -23.47447784430991], [-50.611210662999945, -23.474038196309923], [-50.61152671899998, -23.473678775309896], [-50.61186518799997, -23.47284888330996], [-50.61184873399998, -23.471743310309964], [-50.61148394199995, -23.471023649309977], [-50.61040697499994, -23.469816863309998], [-50.61012283099996, -23.469457419310032], [-50.60999170699995, -23.469235938309993], [-50.61151438099995, -23.469950042310032], [-50.62820839699998, -23.477777734309836], [-50.62835340699996, -23.477815107309834], [-50.63057534299997, -23.4783190213098], [-50.631999923999956, -23.478677394309834], [-50.635648378999974, -23.47957482830978], [-50.63575201699996, -23.4796715173098], [-50.635754764999945, -23.47979108430977], [-50.63462488099998, -23.48370073630968], [-50.63433569599993, -23.484526563309686], [-50.63431897899995, -23.484735339309648], [-50.634418785999976, -23.484914025309674], [-50.634572662999965, -23.484986235309652], [-50.636229379999975, -23.485159361309638], [-50.63682291599997, -23.485241396309696], [-50.637316692999946, -23.48527569330964], [-50.63752830499994, -23.485302245309658], [-50.63765075699996, -23.485387146309684], [-50.637707863999935, -23.48553948030964], [-50.637843576999956, -23.488374665309607], [-50.63792124299994, -23.490275327309533], [-50.63783852999996, -23.490771181309526], [-50.63561131399996, -23.489685093309575], [-50.635289661999934, -23.48954349930958], [-50.635024589999944, -23.48945533130959], [-50.63479506999994, -23.4894067403096], [-50.634632342999964, -23.489388331309588]]], [[[-50.635839199999964, -23.468700576310017], [-50.64007094899995, -23.45857266031026], [-50.64374752799995, -23.49076578530952], [-50.63790842999998, -23.488404793309584], [-50.63777593899994, -23.48552758530964], [-50.63770869699994, -23.485348217309664], [-50.637555229999975, -23.48524181230967], [-50.63732389299997, -23.48521278430964], [-50.63683057999998, -23.48517852030967], [-50.636238320999944, -23.485096662309683], [-50.634592698999946, -23.484924695309665], [-50.63446959199995, -23.48486692530965], [-50.63438876699997, -23.48472222330965], [-50.63440345499998, -23.48453878230968], [-50.63469066099998, -23.483718609309726], [-50.63582350399998, -23.47979870830978], [-50.63581997099993, -23.47964498330978], [-50.63568403299996, -23.47951815930978], [-50.63201777299997, -23.478616346309813], [-50.63062150999997, -23.478265097309816], [-50.63064849899995, -23.478058320309795], [-50.630987907999945, -23.47682259830984], [-50.63238714999994, -23.471455184309974], [-50.633275424999965, -23.468192300310015], [-50.633332404999976, -23.468094711310066], [-50.63337057599995, -23.46806377431005], [-50.633398184999976, -23.46804878531003], [-50.635839199999964, -23.468700576310017]]]]}, "properties": {"objectid": 37029, "num_proces": "54200.001442/2012-98", "sr": "09", "num_certif": "091311000058-67", "data_certi": 1385337600000, "qtd_area_p": "481.1625", "cod_profis": "AZ7", "cod_imovel": "7121912991897", "nome_imove": "FAZENDA MONTE BELO\n", "uf_municip": "PR", "globalid": "{015E63DC-7A89-40BF-B9CC-728F7A41E67A}", "Shape__Area": 0.0004256127469950825, "Shape__Length": 0.16939848884886483}}, {"type": "Feature", "id": 37056, "geometry": {"type": "Polygon", "coordinates": [[[-50.65638433799995, -23.531756970308606], [-50.65598317599995, -23.53345685630861], [-50.65462235199993, -23.539101709308454], [-50.654007811999975, -23.53925319130843], [-50.65350528899995, -23.541614319308398], [-50.64907170899994, -23.539593755308417], [-50.64711981899995, -23.53859387130849], [-50.64527030099998, -23.537720044308486], [-50.64647641399995, -23.53139854330863], [-50.64681815599994, -23.528932702308676], [-50.64686911599995, -23.528868304308673], [-50.64777871099994, -23.524759790308764], [-50.64886887199999, -23.51881561530893], [-50.65177487299996, -23.520136958308882], [-50.65237861799995, -23.520413901308892], [-50.653011464999956, -23.52066971030889], [-50.653270135999946, -23.52069265130889], [-50.65495096099994, -23.520416239308886], [-50.65890558299998, -23.519850769308885], [-50.659154152999974, -23.51982527230891], [-50.65837331199998, -23.523750304308813], [-50.65765689799997, -23.527504272308732], [-50.657315567999945, -23.529110515308655], [-50.657062545999956, -23.529831005308637], [-50.65664384099995, -23.530717805308612], [-50.65645647299993, -23.531461677308645], [-50.65638433799995, -23.531756970308606]]]}, "properties": {"objectid": 37056, "num_proces": "54200.002248/2013-19", "sr": "09", "num_certif": "091405000005-27", "data_certi": 1399420800000, "qtd_area_p": "225.0302", "cod_profis": "B9V", "cod_imovel": "7121910014061", "nome_imove": "FAZENDA BOA VIDA", "uf_municip": "PR", "globalid": "{3AE396C0-0065-42C2-A9B1-4F904A164E56}", "Shape__Area": 0.00019912352064394237, "Shape__Length": 0.061997512606992114}}, {"type": "Feature", "id": 37342, "geometry": {"type": "Polygon", "coordinates": [[[-50.66697684399998, -23.476636509309834], [-50.666700952999975, -23.48349842730971], [-50.66634531299996, -23.4919467823095], [-50.666195913999964, -23.4958845903094], [-50.668439414999966, -23.496172703309412], [-50.66891574999993, -23.495939197309443], [-50.66984533899995, -23.503219069309246], [-50.66985290999997, -23.503469602309224], [-50.67342328099994, -23.50478352630924], [-50.67547752399997, -23.5055515063092], [-50.675803511999966, -23.505670580309193], [-50.67583490699997, -23.50576330030919], [-50.675834643999956, -23.50598607530918], [-50.675810180999974, -23.50674773730916], [-50.67573222799996, -23.508770172309145], [-50.67566057999994, -23.510768678309095], [-50.67566186199997, -23.511196655309103], [-50.675682708999936, -23.511425895309042], [-50.67572004799996, -23.511622438309068], [-50.67577832599994, -23.51194342830904], [-50.675546761999954, -23.512424450309055], [-50.67393050499994, -23.514576291308998], [-50.673316145999934, -23.515595668308958], [-50.66932556399996, -23.514062734309036], [-50.66651993399995, -23.51318531530905], [-50.66321053399998, -23.51193824630904], [-50.66394403799996, -23.50813634930916], [-50.665009672999986, -23.50298961330925], [-50.66526387399995, -23.50178340030929], [-50.66595340199996, -23.501791904309286], [-50.66086825499997, -23.49996121530935], [-50.66141203999995, -23.486668839309615], [-50.66178632699996, -23.478084710309812], [-50.66197515099998, -23.475827267309853], [-50.66207517299995, -23.475908856309896], [-50.66217669599996, -23.475890523309882], [-50.662597894999976, -23.475829414309878], [-50.66262173999997, -23.47610122830986], [-50.662439682999945, -23.47632879930988], [-50.66233803399996, -23.47651018030989], [-50.66234831299994, -23.476583123309837], [-50.662513529999956, -23.47678378530984], [-50.662791324999944, -23.47700746630986], [-50.66309026999994, -23.477143953309817], [-50.66320620799996, -23.477172176309832], [-50.66358029099996, -23.477282871309818], [-50.66389106899994, -23.47724077730984], [-50.66418393799995, -23.47728198530986], [-50.66450312799997, -23.477309629309868], [-50.664937373999976, -23.477271208309865], [-50.66530611399998, -23.47727789630985], [-50.66530896599994, -23.477164559309834], [-50.665341680999965, -23.477174013309845], [-50.665440424999986, -23.477061462309827], [-50.665886823999976, -23.477023456309865], [-50.66611855499997, -23.477080024309846], [-50.666475910999964, -23.477071312309846], [-50.66680937699994, -23.47682979430986], [-50.66697684399998, -23.476636509309834]]]}, "properties": {"objectid": 37342, "num_proces": "54200.002861/2010-85", "sr": "09", "num_certif": "091410000023-91", "data_certi": 1413158400000, "qtd_area_p": "299.4809", "cod_profis": "B9V", "cod_imovel": "7121910031403", "nome_imove": "FAZENDA SANTANA E FAZENDA SANTA ROSA", "uf_municip": "PR", "globalid": "{DAE2F47D-42B9-42C1-B223-9839E208B264}", "Shape__Area": 0.0002649430441463773, "Shape__Length": 0.10476534822483778}}, {"type": "Feature", "id": 37590, "geometry": {"type": "Polygon", "coordinates": [[[-50.68654382699998, -23.51700534930896], [-50.68588968199998, -23.519861717308885], [-50.68684969699996, -23.520209447308865], [-50.686013213999956, -23.526562992308747], [-50.68581533199995, -23.526358734308754], [-50.68429349999997, -23.52534176030874], [-50.68401586299995, -23.525227508308742], [-50.68379115899996, -23.525180608308773], [-50.681560899999965, -23.525007358308784], [-50.68020911699995, -23.524846511308773], [-50.67994472899995, -23.524747183308786], [-50.680687488999986, -23.521634225308837], [-50.680635294999945, -23.521050392308844], [-50.68061085099998, -23.520767629308875], [-50.68057207099997, -23.520483274308862], [-50.68051093599996, -23.52043672530887], [-50.67949076499997, -23.520571752308864], [-50.67567628599994, -23.521086203308872], [-50.67514359699993, -23.52115908930886], [-50.67498634799995, -23.521181641308836], [-50.674734884999964, -23.521181084308864], [-50.674926066999944, -23.520392328308866], [-50.67499668399995, -23.520389495308862], [-50.67500548299995, -23.520246931308886], [-50.67576123599997, -23.51690306030892], [-50.675759331999984, -23.51679315430895], [-50.67591101299996, -23.516496170308972], [-50.675984719999974, -23.51651772530897], [-50.681531150999945, -23.51839512430888], [-50.68239457999994, -23.51511932030897], [-50.68654382699998, -23.51700534930896]]]}, "properties": {"objectid": 37590, "num_proces": "54200.003808/2012-63", "sr": "09", "num_certif": "091308000021-45", "data_certi": 1375833600000, "qtd_area_p": "80.4196", "cod_profis": "B9V", "cod_imovel": "9500921242900", "nome_imove": "FAZENDA SANTA AMÁLIA", "uf_municip": "PR", "globalid": "{41CF5EEA-9A6E-441C-B6BD-8760374D9845}", "Shape__Area": 7.131405163106257e-05, "Shape__Length": 0.04591972032191023}}]}