{"type": "FeatureCollection", "features": [{"type": "Feature", "id": 332164, "geometry": {"type": "LineString", "coordinates": [[-50.681774099999984, -23.522725899308877], [-50.68220719999999, -23.5220306993089], [-50.682948899999985, -23.521088899308896], [-50.683480299999985, -23.52037619930891], [-50.684229699999996, -23.519375799308904], [-50.6849507, -23.518851299308945], [-50.6856985, -23.51852709930893], [-50.68636429999998, -23.51839069930895], [-50.6872201, -23.518354899308974], [-50.68753650000002, -23.518292999308994], [-50.6877465, -23.518219499308945], [-50.68806799999998, -23.517963999308975], [-50.68834659999999, -23.51757759930896], [-50.68846450000001, -23.517304699308994], [-50.68847190000002, -23.516781199309023], [-50.688410799999986, -23.516541999309013], [-50.68811010000001, -23.51582429930904], [-50.68793899999997, -23.515106999309037], [-50.68780509999999, -23.514309999309077], [-50.687672899999995, -23.51277319930911], [-50.68755140000002, -23.511976299309108], [-50.687435100000016, -23.511577699309086], [-50.6871468, -23.511031799309137], [-50.687054100000005, -23.510916699309124], [-50.68688200000003, -23.51059769930914], [-50.6864819, -23.510135899309166], [-50.684702200000004, -23.5085957993092], [-50.68435099999999, -23.508367399309176], [-50.68405510000003, -23.508218899309156], [-50.68218089999999, -23.5074923993092], [-50.68190980000003, -23.507349499309182], [-50.6816981, -23.507142299309216], [-50.681362200000024, -23.506648399309245], [-50.6808585, -23.50569129930926], [-50.68032340000002, -23.504973199309262], [-50.67981320000001, -23.50417539930929], [-50.67967820000001, -23.503856399309306], [-50.67953210000002, -23.503002499309286], [-50.679404999999974, -23.502727299309313], [-50.679243299999996, -23.502518199309318], [-50.67870129999999, -23.50208449930936], [-50.678153399999985, -23.501565599309334], [-50.67721199999999, -23.500963699309352], [-50.67624080000002, -23.50046529930933], [-50.67592480000002, -23.499746499309396], [-50.67581369999999, -23.499643799309386], [-50.67566, -23.499518099309366], [-50.675515399999995, -23.49939249930939], [-50.67524359999998, -23.499366799309417], [-50.67489949999998, -23.499299299309406], [-50.67472750000002, -23.499232099309356], [-50.67455569999998, -23.49912309930942], [-50.67444740000001, -23.49895569930941], [-50.67436620000001, -23.49880519930939], [-50.67433030000001, -23.49867139930938], [-50.6742762, -23.49855429930943], [-50.67414960000002, -23.498453799309402], [-50.67403200000001, -23.498386699309442], [-50.67387819999999, -23.49828609930939], [-50.67374649999999, -23.498147699309413], [-50.673697600000025, -23.498111499309402], [-50.6727884, -23.49744569930945], [-50.67274200000003, -23.49740939930941], [-50.67255799999998, -23.497279999309427], [-50.67238129999999, -23.49706719930944], [-50.672204599999986, -23.49686249930946], [-50.6719395, -23.496592299309427], [-50.671877600000016, -23.49655129930947], [-50.67166529999997, -23.496411999309476], [-50.67139100000003, -23.49626429930946], [-50.67084219999998, -23.496075199309473], [-50.67037299999998, -23.49593529930945], [-50.669939, -23.495844499309438], [-50.6695317, -23.495753799309448], [-50.66920399999998, -23.495728599309484], [-50.66894660000002, -23.495748399309498], [-50.66844680000002, -23.495900899309454], [-50.66806050000002, -23.495954899309485], [-50.667590899999986, -23.49597839930948], [-50.66719219999999, -23.496002099309464], [-50.66676690000003, -23.49601749930946], [-50.666066899999976, -23.496032399309453], [-50.665446799999984, -23.496006499309487], [-50.66477370000001, -23.495923399309447], [-50.66418909999999, -23.495873099309453], [-50.663746300000014, -23.49579859930947], [-50.66331229999997, -23.495748599309483], [-50.662975700000004, -23.495698899309453], [-50.66277200000002, -23.495694299309488], [-50.6625416, -23.495693799309496], [-50.66227570000001, -23.49574229930948], [-50.66213379999999, -23.49579099930947], [-50.6619867, -23.495832799309483], [-50.66165419999999, -23.495868199309474], [-50.66115610000003, -23.495794899309484], [-50.66041999999999, -23.495716499309488], [-50.659726700000014, -23.495882099309483], [-50.65920629999999, -23.495880999309463], [-50.65864349999998, -23.495766799309482], [-50.658521199999996, -23.49571689930946], [-50.65833759999998, -23.49559979930945], [-50.65808290000001, -23.495470899309456], [-50.65787449999999, -23.495347499309457], [-50.65772980000003, -23.495282999309456], [-50.657567700000016, -23.49518639930951], [-50.65748669999999, -23.495132799309513], [-50.65735360000002, -23.49505229930948], [-50.65722040000003, -23.4950305993095], [-50.65704640000002, -23.495046299309486], [-50.65689559999999, -23.49507799930947], [-50.65669860000003, -23.495072299309477], [-50.65649000000002, -23.495045099309515], [-50.65634990000001, -23.495025599309507], [-50.65580060000002, -23.494654099309486], [-50.655339700000006, -23.49418329930948], [-50.65487890000003, -23.493875199309507], [-50.654254200000025, -23.49377899930953], [-50.653623700000026, -23.49359239930953], [-50.653204200000005, -23.49343789930952], [-50.65287940000002, -23.493084899309515], [-50.652708700000005, -23.49285869930952], [-50.65213970000002, -23.49227029930951], [-50.65102660000002, -23.49193809930958], [-50.6504832, -23.491869199309555], [-50.649859100000015, -23.491560699309538], [-50.64933459999997, -23.491062699309563]]}, "properties": {"NUCOMPTREC": 6.52502742, "NUDISTBACT": 2808.32592149, "NUDISTCDAG": 6.34068942, "NUAREACONT": 13.08813706, "NUAREAMONT": 13.08813706, "NUDISTBACC": 2801.98523207, "NUAREABACC": 45.11048044, "NUCOMPCDA": 12.86571684, "Shape__Length": 0, "OBJECTID": 332164, "ID": 331215, "COTRECHO": 331215, "COCURSODAG": "8642274", "COBACIA": "86422745", "NOGENERICO": "Ribeirão", "NOLIGACAO": "do", "NOESPECIF": "Salto", "NORIOCOMP": "Ribeirão do Salto", "NOORIGINAL": "Ribeirão do Salto", "COCDADESAG": "86422", "NUTRJUS": 243038, "NUORDEMCDA": 6, "NUNIVOTTO": 8, "NUNIVOTCDA": 7, "NUSTRAHLER": 1, "DEDOMINIAL": "Estadual", "DSVERSAO": "BHO bho_2017_v_01_05_5k de 2018-06-20", "TNACIONAL": 1}}, {"type": "Feature", "id": 399536, "geometry": {"type": "LineString", "coordinates": [[-50.69686680000001, -23.48762599930962], [-50.695782800000025, -23.487628399309656], [-50.69499029999997, -23.487550099309676], [-50.69423440000003, -23.48726409930967], [-50.69329499999998, -23.487062899309674], [-50.69207999999997, -23.486817599309664], [-50.6914524, -23.486629499309664], [-50.6908449, -23.48647879930966], [-50.690440000000024, -23.48636589930969], [-50.689772300000016, -23.485990799309704], [-50.68916539999998, -23.485597199309677], [-50.68839650000001, -23.485203199309712], [-50.68750610000001, -23.484752999309727], [-50.686980300000016, -23.484359499309708], [-50.686515299999996, -23.48394749930974], [-50.68615190000003, -23.483423499309758], [-50.68592990000001, -23.48304929930975], [-50.68562709999998, -23.48261889930974], [-50.6853643, -23.482338099309757], [-50.68491940000001, -23.482038199309766], [-50.684474099999996, -23.481831699309772], [-50.68394810000001, -23.481550399309782], [-50.683535300000024, -23.4811521993098], [-50.682969000000014, -23.480928599309834], [-50.68276350000002, -23.48089019930978], [-50.6824752, -23.480890499309787], [-50.682108099999994, -23.480927299309815], [-50.68162339999998, -23.480870399309826], [-50.681199400000025, -23.480729799309817], [-50.6807, -23.48049109930981], [-50.68021590000001, -23.48014069930982], [-50.67988329999997, -23.47981859930982], [-50.67952070000002, -23.479384499309816], [-50.6791885, -23.47890859930985], [-50.6789622, -23.47851679930988], [-50.678660200000024, -23.478054999309855], [-50.6784189, -23.477607199309904], [-50.67831330000001, -23.477411299309914], [-50.67795000000001, -23.477256799309902], [-50.67755629999999, -23.47713019930986], [-50.67722329999999, -23.477003699309908], [-50.676875199999984, -23.476835299309897], [-50.676572599999986, -23.47665289930988], [-50.67623980000001, -23.476414599309898], [-50.67592209999997, -23.476218299309938], [-50.67563469999999, -23.47600799930989], [-50.67549860000003, -23.47589589930993], [-50.675330299999985, -23.47579039930991], [-50.674791200000016, -23.47574859930989], [-50.6741126, -23.475701999309933], [-50.67302280000001, -23.475866799309923], [-50.67218100000002, -23.475959899309938], [-50.67144969999998, -23.475931299309934], [-50.6706087, -23.475717199309933], [-50.66984789999998, -23.475738199309937], [-50.668842600000005, -23.47589869930993], [-50.668054299999994, -23.476158899309876], [-50.6674286, -23.47646019930992], [-50.66704820000001, -23.476603899309882], [-50.666558200000004, -23.476977699309913], [-50.666096400000015, -23.477116699309903], [-50.66545409999998, -23.477196699309857], [-50.664623199999994, -23.4769057993099], [-50.663546, -23.476903499309888], [-50.66310019999997, -23.4767308993099], [-50.66289010000003, -23.476576899309897], [-50.66175349999997, -23.47542279930991], [-50.66095790000003, -23.474915199309926], [-50.66050030000002, -23.474607099309967], [-50.66013600000002, -23.474407599309956], [-50.659651800000006, -23.47420779930994], [-50.659120299999984, -23.473849899309965], [-50.65889779999998, -23.473777099309967], [-50.6581913, -23.473843299309955], [-50.657696499999986, -23.473724799309977], [-50.656475, -23.472963299309985], [-50.65591089999998, -23.47221239930999], [-50.65569520000003, -23.47180089931002], [-50.65552889999998, -23.47128569931003], [-50.655326100000025, -23.47094199931001], [-50.65425679999998, -23.470027299310082], [-50.65411560000001, -23.469715399310036], [-50.65396270000002, -23.46899689931005], [-50.653629799999976, -23.468278099310112], [-50.6533895, -23.467920699310078], [-50.65292640000001, -23.46744999931009], [-50.65280660000001, -23.467142599310105], [-50.6528725, -23.466731799310114], [-50.65374179999998, -23.46567239931016], [-50.65394149999997, -23.465157899310164], [-50.6538693, -23.464439699310187], [-50.653545399999985, -23.46378859931018], [-50.652806699999985, -23.46336239931019], [-50.65216470000002, -23.46265189931024], [-50.65111330000002, -23.462202399310247], [-50.650172399999974, -23.462091899310252], [-50.649727299999995, -23.46195539931025], [-50.64912129999999, -23.461547599310258], [-50.648917400000016, -23.46134389931022], [-50.64864019999999, -23.46090969931025], [-50.64833090000002, -23.460737399310286], [-50.647804199999996, -23.460907799310224], [-50.64695449999999, -23.46123559931026], [-50.646220400000004, -23.46163589931022], [-50.64556750000002, -23.462076999310256], [-50.64523109999998, -23.462460099310203], [-50.64483150000001, -23.46292439931023], [-50.644631100000026, -23.463000699310214], [-50.6443496, -23.462801399310194]]}, "properties": {"NUCOMPTREC": 7.1443824, "NUDISTBACT": 2804.11674107, "NUDISTCDAG": 0, "NUAREACONT": 17.58162614, "NUAREAMONT": 17.58162614, "NUDISTBACC": 2804.11674107, "NUAREABACC": 17.58162614, "NUCOMPCDA": 7.1443824, "Shape__Length": 0, "OBJECTID": 399536, "ID": 392892, "COTRECHO": 392892, "COCURSODAG": "86422742", "COBACIA": "86422742", "NOGENERICO": "Água", "NOLIGACAO": "do", "NOESPECIF": "Chapadão ou Água da Marreca", "NORIOCOMP": "Água do Chapadão ou Água da Marreca", "NOORIGINAL": "Água do Chapadão ou Água da Marreca", "COCDADESAG": "8642274", "NUTRJUS": 191978, "NUORDEMCDA": 7, "NUNIVOTTO": 8, "NUNIVOTCDA": 8, "NUSTRAHLER": 1, "DEDOMINIAL": "Estadual", "DSVERSAO": "BHO bho_2017_v_01_05_5k de 2018-06-20", "TNACIONAL": 1}}, {"type": "Feature", "id": 337930, "geometry": {"type": "LineString", "coordinates": [[-50.70143150000001, -23.473566299309987], [-50.7014403, -23.47239649931], [-50.701385500000015, -23.471994499309996], [-50.701243499999975, -23.47167799931], [-50.70074410000001, -23.470909299310048], [-50.70001610000003, -23.46967489931002], [-50.69998129999999, -23.469399299310087], [-50.7001715, -23.469164899310066], [-50.70055259999998, -23.468975899310053], [-50.700929299999984, -23.46829469931009], [-50.700991699999975, -23.468019299310075], [-50.70094979999998, -23.467287499310107], [-50.70109389999998, -23.46665099931014], [-50.70185839999999, -23.465518799310136], [-50.70220669999998, -23.464688499310196], [-50.702281500000026, -23.464056299310172], [-50.70225240000001, -23.463645299310183], [-50.701947099999984, -23.461738799310215], [-50.7019818, -23.46124199931028], [-50.70183209999998, -23.46061399931028], [-50.70164410000001, -23.458757399310326], [-50.70148460000002, -23.458070599310304], [-50.701186699999994, -23.457238999310345], [-50.7008942, -23.45642549931037], [-50.700081099999984, -23.45446829931037], [-50.699683300000004, -23.453636499310427], [-50.69964370000003, -23.45355509931044], [-50.69944609999998, -23.453279199310423], [-50.698970599999996, -23.45273639931042], [-50.6984726, -23.452437299310436], [-50.698246200000035, -23.452423299310468], [-50.69767109999998, -23.452381599310463], [-50.69744850000001, -23.452317899310472], [-50.69694220000002, -23.45189239931048], [-50.696521700000005, -23.45168829931046], [-50.69622450000003, -23.451651599310456], [-50.69553100000002, -23.451699899310455], [-50.69505529999998, -23.451536399310477], [-50.69483869999999, -23.45125599931047], [-50.69415470000001, -23.44989069931053], [-50.693247499999984, -23.44842559931054], [-50.693119000000024, -23.447910499310524], [-50.69305939999998, -23.44698449931055], [-50.69295490000002, -23.446654599310566], [-50.69263319999999, -23.446297099310566], [-50.69218799999999, -23.446187899310566], [-50.69176729999998, -23.44605609931061], [-50.69144970000002, -23.445797999310617], [-50.69097749999998, -23.444979599310617], [-50.69080480000002, -23.44475789931063], [-50.69040910000001, -23.444431999310623], [-50.690050299999996, -23.444277699310614], [-50.68904800000001, -23.444022799310655], [-50.68851000000001, -23.443795899310636], [-50.68795039999998, -23.443185099310643], [-50.68770119999999, -23.443017499310645], [-50.68695960000003, -23.442763099310632], [-50.68673589999998, -23.442609099310694], [-50.68652009999999, -23.44230149931066], [-50.68640820000002, -23.44200769931065], [-50.68642319999998, -23.44189929931066], [-50.6864855, -23.441429799310672], [-50.686300700000004, -23.44088289931073], [-50.6863828, -23.44033209931069], [-50.68637100000001, -23.439875899310728], [-50.68627300000003, -23.439419499310723], [-50.68600240000001, -23.438687299310775], [-50.68600309999999, -23.438416299310724], [-50.68612839999997, -23.43795589931078], [-50.68637039999999, -23.43753189931079], [-50.68635239999998, -23.437369199310755], [-50.68631529999999, -23.437283299310778], [-50.685914000000025, -23.437020599310774], [-50.685907499999985, -23.436894099310805], [-50.68608710000001, -23.436487999310796], [-50.686071500000025, -23.43639309931078], [-50.686033500000015, -23.436162699310824], [-50.685224000000005, -23.435420399310825], [-50.685107000000016, -23.43521239931084], [-50.68500260000002, -23.43480119931082], [-50.68465789999999, -23.434150099310866], [-50.684738900000006, -23.43382959931089], [-50.68465020000002, -23.433048099310884], [-50.6847201, -23.432944399310877], [-50.68494609999999, -23.43261059931087], [-50.684978, -23.432298999310902], [-50.68478099999999, -23.43178379931092], [-50.684268799999984, -23.431041999310906], [-50.68404120000003, -23.430585399310917], [-50.683955200000014, -23.430160699310935], [-50.68385919999997, -23.428904899310997], [-50.6838108, -23.428389999310955], [-50.6838323, -23.427328699310987], [-50.68387000000001, -23.426917699311005], [-50.68404129999999, -23.425066399311053], [-50.684135000000026, -23.424795599311047], [-50.684309299999995, -23.42429009931108], [-50.684553600000015, -23.423942799311106], [-50.685011599999996, -23.423288799311123], [-50.685096199999975, -23.422927699311103], [-50.685142600000006, -23.42272909931114], [-50.68502560000002, -23.42252559931108], [-50.684617800000005, -23.422176999311098], [-50.68446990000001, -23.421833499311116], [-50.68437249999999, -23.421377099311115], [-50.684045500000025, -23.42074869931115], [-50.68393509999999, -23.420364499311166], [-50.683536000000004, -23.419934699311167], [-50.68328709999997, -23.419663199311184], [-50.682891900000016, -23.41912939931117], [-50.68211320000001, -23.418360099311176], [-50.68202769999999, -23.418278599311222], [-50.68173719999999, -23.4179798993112], [-50.68162030000002, -23.41777189931121], [-50.68144940000002, -23.41682759931122], [-50.6811882, -23.41628969931125], [-50.681176300000004, -23.416181199311236], [-50.68112280000002, -23.415720399311265], [-50.681099500000016, -23.415517199311285], [-50.68084670000002, -23.4150785993113], [-50.68087850000001, -23.414825699311276], [-50.68115169999999, -23.414437799311273], [-50.681207900000004, -23.414221199311285], [-50.68113440000002, -23.413986199311314], [-50.68073279999999, -23.413601399311325], [-50.68069009999999, -23.413294199311323], [-50.68074410000003, -23.41272079931133], [-50.68056660000003, -23.41249909931133], [-50.68044520000001, -23.412349799311354], [-50.680166499999984, -23.41226339931132], [-50.679442499999986, -23.41236129931134], [-50.67877320000002, -23.412657999311357], [-50.67840180000002, -23.412729499311354], [-50.67800560000001, -23.412638399311334], [-50.677870299999995, -23.412421299311355], [-50.677866600000016, -23.411910899311362], [-50.67758279999998, -23.410876099311373], [-50.677410800000025, -23.4104195993114], [-50.67739310000002, -23.41016659931142], [-50.677605599999985, -23.40929089931139], [-50.677507400000025, -23.408911299311423], [-50.6771842, -23.408273799311452], [-50.67719460000001, -23.408016399311446], [-50.677560099999994, -23.40759709931142], [-50.67804990000002, -23.407187099311454], [-50.67817409999998, -23.406961599311458], [-50.67811310000002, -23.40664079931146], [-50.6778539, -23.406260799311468], [-50.67778659999999, -23.406012299311474], [-50.6778488, -23.405885999311494], [-50.6782389, -23.405701599311477], [-50.67840749999999, -23.40526379931151], [-50.67860530000002, -23.4051919993115], [-50.6794362, -23.405085299311512], [-50.67958640000001, -23.404972699311486], [-50.67968589999999, -23.4047876993115], [-50.67943730000002, -23.404127799311556], [-50.67894990000002, -23.403566799311573], [-50.678255099999994, -23.402522099311557], [-50.67789549999998, -23.401979299311574], [-50.677864899999975, -23.401735399311587], [-50.67825590000001, -23.401456199311575], [-50.678249300000004, -23.401374899311598], [-50.67794099999997, -23.401125799311586], [-50.67786669999998, -23.400994699311614], [-50.67789210000001, -23.400895399311633], [-50.67822080000002, -23.400530199311607], [-50.678308200000004, -23.400313599311616], [-50.67809940000001, -23.399635699311613], [-50.67768619999998, -23.399020599311623], [-50.677507299999995, -23.398609299311623], [-50.67733590000001, -23.397886299311658], [-50.67728740000002, -23.397466199311673], [-50.677325499999995, -23.39715459931172], [-50.677592600000025, -23.39672159931167], [-50.67788630000001, -23.396460199311687], [-50.67843549999998, -23.39596909931172], [-50.679552300000005, -23.394973199311718], [-50.680097699999976, -23.39456789931177], [-50.681039699999985, -23.394023299311776], [-50.68124449999999, -23.393815999311766], [-50.68136240000001, -23.3936309993118], [-50.681350699999996, -23.39338259931177], [-50.681202600000006, -23.39316999931177], [-50.680721000000005, -23.39277609931177], [-50.680585300000025, -23.39246869931179], [-50.68054510000002, -23.392143499311786], [-50.6806014, -23.39187709931179], [-50.6807493, -23.391177299311796], [-50.680904199999986, -23.39110539931184], [-50.681238800000024, -23.391097099311846], [-50.68181370000003, -23.391351099311827], [-50.682046000000014, -23.39141479931182], [-50.68254680000002, -23.39147459931179], [-50.68349039999998, -23.391250699311822], [-50.68365829999999, -23.39115159931182], [-50.683961099999976, -23.39084969931182]]}, "properties": {"NUCOMPTREC": 11.5456495, "NUDISTBACT": 2779.95603773, "NUDISTCDAG": 12.26705628, "NUAREACONT": 30.1863895, "NUAREAMONT": 30.1863895, "NUDISTBACC": 2767.68898146, "NUAREABACC": 100.26211771, "NUCOMPCDA": 23.81270578, "Shape__Length": 0, "OBJECTID": 337930, "ID": 336980, "COTRECHO": 336980, "COCURSODAG": "864226", "COBACIA": "8642265", "NOGENERICO": "Ribeirão", "NOLIGACAO": "da", "NOESPECIF": "Porteira", "NORIOCOMP": "Ribeirão da Porteira", "NOORIGINAL": "Ribeirão da Porteira", "COCDADESAG": "86422", "NUTRJUS": 336981, "NUORDEMCDA": 6, "NUNIVOTTO": 7, "NUNIVOTCDA": 6, "NUSTRAHLER": 1, "DEDOMINIAL": "Estadual", "DSVERSAO": "BHO bho_2017_v_01_05_5k de 2018-06-20", "TNACIONAL": 1}}, {"type": "Feature", "id": 94094, "geometry": {"type": "LineString", "coordinates": [[-50.66326129999999, -23.514822599309042], [-50.66332990000001, -23.51485779930906], [-50.66357720000002, -23.51490109930901], [-50.663894099999986, -23.514923199309052], [-50.66421889999998, -23.51490959930904], [-50.6644895, -23.51489599930907], [-50.66468279999998, -23.514910599309047], [-50.66505380000001, -23.514947099309012], [-50.665448000000026, -23.51499069930903], [-50.665765000000015, -23.514984299309024], [-50.666020100000026, -23.51494209930902], [-50.66689250000002, -23.514549899309063], [-50.66750300000001, -23.514406499309057], [-50.668008799999996, -23.514343199309028], [-50.66816610000001, -23.514198899309047], [-50.66825369999998, -23.514038299309043], [-50.668126099999995, -23.513540199309098], [-50.668077400000016, -23.51301929930908], [-50.667637300000024, -23.51230679930908], [-50.66751010000002, -23.512007699309137], [-50.667400199999975, -23.51161469930911], [-50.66735039999997, -23.511341499309133], [-50.66728499999999, -23.51114999930911], [-50.66628680000002, -23.509241799309155], [-50.66621270000002, -23.50909789930915], [-50.665668100000005, -23.507252899309247], [-50.66541649999999, -23.50670599930923], [-50.66510920000002, -23.5062272993092], [-50.66448810000003, -23.505383799309254], [-50.66395249999999, -23.504881899309257], [-50.66330570000002, -23.50441369930926], [-50.662640200000006, -23.504070899309262], [-50.660938999999985, -23.50329319930928], [-50.6608281, -23.503224699309282], [-50.66007159999998, -23.50258999930932], [-50.6597936, -23.502283999309302], [-50.659375899999986, -23.502009799309324], [-50.65859219999999, -23.501702599309326], [-50.65772149999998, -23.501379199309323], [-50.65748489999998, -23.501142999309362], [-50.65719469999999, -23.50074539930938], [-50.65705070000001, -23.500469399309353], [-50.656786000000004, -23.50014819930938], [-50.656038099999996, -23.499595499309393], [-50.655595800000015, -23.49925579930941], [-50.655421100000005, -23.499151499309374], [-50.65502550000002, -23.498951899309404], [-50.654185100000014, -23.498688099309394], [-50.65150460000001, -23.497069799309454], [-50.6510285, -23.49677069930946], [-50.65058959999998, -23.496313499309448], [-50.650100399999985, -23.49541369930945], [-50.64954050000001, -23.49282899930951], [-50.64949990000002, -23.491717899309588], [-50.64933459999997, -23.491062699309563]]}, "properties": {"NUCOMPTREC": 3.95678444, "NUDISTBACT": 2808.32592149, "NUDISTCDAG": 0, "NUAREACONT": 6.11746974, "NUAREAMONT": 6.11746974, "NUDISTBACC": 2808.32592149, "NUAREABACC": 6.11746974, "NUCOMPCDA": 3.95678444, "Shape__Length": 0, "OBJECTID": 94094, "ID": 67379, "COTRECHO": 67379, "COCURSODAG": "86422744", "COBACIA": "86422744", "NOGENERICO": "Ribeirão", "NOLIGACAO": "do", "NOESPECIF": "Dez", "NORIOCOMP": "Ribeirão do Dez", "NOORIGINAL": "Ribeirão do Dez", "COCDADESAG": "8642274", "NUTRJUS": 243038, "NUORDEMCDA": 7, "NUNIVOTTO": 8, "NUNIVOTCDA": 8, "NUSTRAHLER": 1, "DEDOMINIAL": "Estadual", "DSVERSAO": "BHO bho_2017_v_01_05_5k de 2018-06-20", "TNACIONAL": 1}}, {"type": "Feature", "id": 240437, "geometry": {"type": "LineString", "coordinates": [[-50.65305380000001, -23.51468599930903], [-50.65211019999999, -23.514496099309014], [-50.651924699999995, -23.51444689930905], [-50.65117809999998, -23.514361599309026], [-50.65028719999998, -23.514348099309057], [-50.649697600000025, -23.514254199309036], [-50.649321600000015, -23.514091399309034], [-50.6485821, -23.513765599309053], [-50.648218499999984, -23.513649099309067], [-50.64779199999998, -23.513590299309055], [-50.64669889999999, -23.513567999309085], [-50.646620299999995, -23.513561799309066], [-50.64536129999999, -23.513547599309057], [-50.644769, -23.51350639930905], [-50.64454699999998, -23.51347169930909], [-50.644251, -23.51337429930908], [-50.64402910000002, -23.51327139930908], [-50.643499299999974, -23.51295149930907], [-50.6430742, -23.512654599309105], [-50.64272340000002, -23.51231239930909], [-50.642163100000005, -23.511844399309087], [-50.640534100000025, -23.510657499309108], [-50.639455899999966, -23.51028469930914], [-50.63900439999998, -23.51019099930917], [-50.63861520000001, -23.51023649930915], [-50.638338799999985, -23.510386199309178], [-50.63821309999997, -23.510478499309123], [-50.638050899999996, -23.510538599309154], [-50.63760989999997, -23.51075759930911], [-50.63726059999999, -23.51061719930915], [-50.6366008, -23.51026749930914], [-50.63612669999997, -23.50993249930914], [-50.635733200000004, -23.509479199309148], [-50.6354743, -23.50933069930918], [-50.63512909999998, -23.509210299309167], [-50.6338255, -23.508859699309195], [-50.63342449999999, -23.50865049930917], [-50.63304890000001, -23.508360299309178], [-50.632836399999974, -23.50807049930916], [-50.63253759999997, -23.507178799309234], [-50.632400700000005, -23.506796499309228], [-50.63227569999998, -23.506599499309218], [-50.63205019999998, -23.506460099309255], [-50.63172429999997, -23.506320399309224], [-50.630946900000026, -23.506133499309218], [-50.6303823, -23.50609739930922], [-50.629779799999994, -23.50617699930921], [-50.62936569999999, -23.506175999309214], [-50.628989499999996, -23.506082499309233], [-50.628613900000005, -23.505780799309274], [-50.628138999999976, -23.505108399309243], [-50.627803099999994, -23.50459689930929], [-50.62743549999999, -23.50424669930928], [-50.62686930000001, -23.503727499309313], [-50.62644430000001, -23.503458999309316], [-50.62601269999999, -23.50331569930928], [-50.62532190000001, -23.503177499309295], [-50.6241139, -23.50270229930933], [-50.62376879999999, -23.502547799309323], [-50.62352850000002, -23.502404899309305], [-50.623091699999975, -23.501942899309345], [-50.622931600000015, -23.50182869930931], [-50.62267259999999, -23.501754099309363], [-50.622326999999984, -23.501770299309314], [-50.621981600000026, -23.501723899309333], [-50.62097110000002, -23.501209299309377], [-50.620706299999995, -23.50104929930932], [-50.620564800000004, -23.500900999309355], [-50.620521800000006, -23.500838299309354], [-50.62042530000002, -23.500474799309366], [-50.62028309999999, -23.499955099309393], [-50.619912899999974, -23.499439299309394], [-50.61997009999999, -23.4989290993094], [-50.61992140000001, -23.498617299309377], [-50.619662000000005, -23.498359299309413], [-50.619507899999974, -23.49811049930941], [-50.619118300000025, -23.496492699309417], [-50.61890260000001, -23.49592759930948], [-50.618523400000015, -23.49496469930951], [-50.61828100000002, -23.49477439930947], [-50.618064499999996, -23.494471299309485], [-50.61803859999997, -23.494114399309503], [-50.6180655, -23.49372159930953], [-50.618047100000005, -23.493305999309545], [-50.618220599999965, -23.492972199309538], [-50.61831610000001, -23.492588599309517], [-50.61812859999998, -23.49221779930954], [-50.618059500000015, -23.49177049930953], [-50.61786489999997, -23.491327399309565], [-50.61775749999998, -23.49080779930961], [-50.6176509, -23.490175199309604], [-50.61769989999999, -23.489326299309635], [-50.617478199999994, -23.488914699309635], [-50.61707280000002, -23.48856599930962], [-50.61704659999998, -23.488335599309675], [-50.6171865, -23.488006199309613], [-50.61732660000001, -23.487816899309628], [-50.617414, -23.48767259930965], [-50.61766030000001, -23.487569299309676]]}, "properties": {"NUCOMPTREC": 5.52095945, "NUDISTBACT": 2813.25767893, "NUDISTCDAG": 0, "NUAREACONT": 6.02306293, "NUAREAMONT": 6.02306293, "NUDISTBACC": 2813.25767893, "NUAREABACC": 6.02306293, "NUCOMPCDA": 5.52095945, "Shape__Length": 0, "OBJECTID": 240437, "ID": 233905, "COTRECHO": 233905, "COCURSODAG": "86422754", "COBACIA": "86422754", "NOGENERICO": null, "NOLIGACAO": null, "NOESPECIF": null, "NORIOCOMP": null, "NOORIGINAL": null, "COCDADESAG": "86422", "NUTRJUS": 357193, "NUORDEMCDA": 6, "NUNIVOTTO": 8, "NUNIVOTCDA": 8, "NUSTRAHLER": 1, "DEDOMINIAL": "Estadual", "DSVERSAO": "BHO bho_2017_v_01_05_5k de 2018-06-20", "TNACIONAL": 1}}, {"type": "Feature", "id": 244403, "geometry": {"type": "LineString", "coordinates": [[-50.64933459999997, -23.491062699309563], [-50.64857940000002, -23.4907763993096], [-50.647201499999994, -23.489653299309595], [-50.64641089999998, -23.488883699309596], [-50.64613910000003, -23.488675299309637], [-50.6458738, -23.488295299309634], [-50.645831799999996, -23.48778039930966], [-50.64593789999998, -23.487473499309672], [-50.64608099999998, -23.487266099309664], [-50.64687600000002, -23.486423299309685], [-50.64697589999997, -23.486116399309704], [-50.64693319999998, -23.4858091993097], [-50.64666840000001, -23.48529379930973], [-50.64594570000003, -23.48456949930974], [-50.64557070000001, -23.48354339930972], [-50.645305800000024, -23.48304149930977], [-50.644633699999986, -23.481946999309773], [-50.64434, -23.481661799309773], [-50.644065300000015, -23.481399199309788], [-50.64389929999999, -23.480978799309803], [-50.643957, -23.480260799309814], [-50.64415639999998, -23.479854799309823], [-50.64448540000001, -23.47949429930983], [-50.644702300000006, -23.47938639930985], [-50.64519810000002, -23.47938749930981], [-50.645643500000006, -23.479469799309836], [-50.6461071, -23.479768899309843], [-50.64629919999998, -23.479832599309844], [-50.64663350000001, -23.479770099309825], [-50.64690639999998, -23.479594599309813], [-50.64706810000001, -23.479274299309825], [-50.64713080000001, -23.478967299309865], [-50.647093600000005, -23.478660099309867], [-50.64706799999999, -23.47845229930988], [-50.646996100000024, -23.47786049930989], [-50.64697330000001, -23.47767529930986], [-50.646758799999986, -23.47687539930988], [-50.64637019999998, -23.476364199309884], [-50.64585099999999, -23.47601979930992], [-50.64454940000002, -23.47548839930995], [-50.64454949999998, -23.475461199309905], [-50.64421190000002, -23.475336499309957], [-50.64395580000002, -23.475166799309946], [-50.6437363, -23.475019799309923], [-50.64351670000002, -23.47489539930992], [-50.643297000000025, -23.474838499309907], [-50.6429794, -23.47480399930994], [-50.64271059999999, -23.474803399309923], [-50.642454199999975, -23.474757699309933], [-50.642197899999985, -23.474666999309957], [-50.6419904, -23.47457629930997], [-50.64204089999998, -23.47399039930994], [-50.6420784, -23.473663699309935], [-50.64209160000001, -23.47331439930997], [-50.64209269999997, -23.472919899310007], [-50.64205720000001, -23.472491599310004], [-50.64200890000001, -23.472254799309972], [-50.64194839999999, -23.472051899309996], [-50.6419123, -23.47184889931001], [-50.64192509999998, -23.471634799310017], [-50.641950099999974, -23.471431999310003], [-50.64197919999999, -23.47128229930999], [-50.64190860000003, -23.470712999310017], [-50.641681199999994, -23.470134399310048], [-50.64170439999998, -23.46990409931006], [-50.6417189, -23.469764199310035], [-50.64222910000001, -23.468902699310078], [-50.642329200000006, -23.46859129931009], [-50.6421221, -23.467312699310092], [-50.642197399999986, -23.466856699310117], [-50.64236540000002, -23.4665137993101], [-50.64297490000001, -23.46563449931017], [-50.6434701, -23.465351099310176], [-50.64436389999997, -23.464982799310132], [-50.64459340000002, -23.464784599310143], [-50.64480400000002, -23.464274799310175], [-50.644737500000026, -23.463985599310185], [-50.64463369999999, -23.46318139931021], [-50.6443496, -23.462801399310194]]}, "properties": {"NUCOMPTREC": 4.20918042, "NUDISTBACT": 2804.11674107, "NUDISTCDAG": 2.131509, "NUAREACONT": 5.5451838, "NUAREAMONT": 24.75079059, "NUDISTBACC": 2801.98523207, "NUAREABACC": 45.11048044, "NUCOMPCDA": 12.86571684, "Shape__Length": 0, "OBJECTID": 244403, "ID": 243038, "COTRECHO": 243038, "COCURSODAG": "8642274", "COBACIA": "86422743", "NOGENERICO": "Ribeirão", "NOLIGACAO": "do", "NOESPECIF": "Salto", "NORIOCOMP": "Ribeirão do Salto", "NOORIGINAL": "Ribeirão do Salto", "COCDADESAG": "86422", "NUTRJUS": 191978, "NUORDEMCDA": 6, "NUNIVOTTO": 8, "NUNIVOTCDA": 7, "NUSTRAHLER": 2, "DEDOMINIAL": "Estadual", "DSVERSAO": "BHO bho_2017_v_01_05_5k de 2018-06-20", "TNACIONAL": 1}}, {"type": "Feature", "id": 193718, "geometry": {"type": "LineString", "coordinates": [[-50.6443496, -23.462801399310194], [-50.64417830000002, -23.462570699310223], [-50.64388880000001, -23.461878999310247], [-50.642833800000005, -23.46048999931025], [-50.64251280000003, -23.460182199310285], [-50.641752800000006, -23.459498499310282], [-50.64124709999999, -23.458869499310296], [-50.64095179999998, -23.458101099310333], [-50.6408639, -23.457549899310333], [-50.64097600000002, -23.45683649931036], [-50.64092290000002, -23.45634409931038], [-50.6404083, -23.455873199310346], [-50.6394861, -23.45542399931037], [-50.63869949999997, -23.455092499310354], [-50.6381293, -23.455045999310368], [-50.637043000000006, -23.45506599931037], [-50.636499000000015, -23.455299599310365], [-50.63581879999998, -23.455862599310358], [-50.63497610000002, -23.456140599310388], [-50.634588099999974, -23.45613969931035], [-50.63424300000002, -23.45613889931034], [-50.63342899999998, -23.45594729931035], [-50.6323428, -23.455736999310364], [-50.631121399999984, -23.455521899310376], [-50.62957380000001, -23.45556339931039], [-50.62907439999998, -23.455778999310375]]}, "properties": {"NUCOMPTREC": 2.131509, "NUDISTBACT": 2801.98523207, "NUDISTCDAG": 0, "NUAREACONT": 2.77806371, "NUAREAMONT": 45.11048044, "NUDISTBACC": 2801.98523207, "NUAREABACC": 45.11048044, "NUCOMPCDA": 12.86571684, "Shape__Length": 0, "OBJECTID": 193718, "ID": 191978, "COTRECHO": 191978, "COCURSODAG": "8642274", "COBACIA": "86422741", "NOGENERICO": "Ribeirão", "NOLIGACAO": "do", "NOESPECIF": "Salto", "NORIOCOMP": "Ribeirão do Salto", "NOORIGINAL": "Ribeirão do Salto", "COCDADESAG": "86422", "NUTRJUS": 357205, "NUORDEMCDA": 6, "NUNIVOTTO": 8, "NUNIVOTCDA": 7, "NUSTRAHLER": 2, "DEDOMINIAL": "Estadual", "DSVERSAO": "BHO bho_2017_v_01_05_5k de 2018-06-20", "TNACIONAL": 1}}, {"type": "Feature", "id": 358150, "geometry": {"type": "LineString", "coordinates": [[-50.62907439999998, -23.455778999310375], [-50.6296231, -23.454967299310407], [-50.629810299999974, -23.45475999931042], [-50.62999810000002, -23.454137199310395], [-50.63003650000002, -23.453726299310443], [-50.629746599999976, -23.45328749931041], [-50.629285700000025, -23.453096699310425], [-50.6284445, -23.45279659931044], [-50.627563399999985, -23.45254609931044], [-50.62727260000003, -23.452409899310467], [-50.62695170000001, -23.452038799310465], [-50.62655139999998, -23.45120229931045], [-50.62626820000003, -23.450759099310506], [-50.625211999999976, -23.449898399310502], [-50.62498299999999, -23.449712699310528], [-50.62488560000003, -23.449314999310523], [-50.625048100000015, -23.448768899310526], [-50.62506109999998, -23.448493499310512], [-50.624925500000025, -23.448208599310526], [-50.62454279999997, -23.447850899310534], [-50.62446399999999, -23.447611299310562], [-50.624479199999996, -23.447403599310526], [-50.62453210000002, -23.447308899310556], [-50.62458939999999, -23.447200599310538], [-50.6249307, -23.447025299310575], [-50.62644920000003, -23.446396699310565], [-50.627291500000005, -23.44586119931061], [-50.628352500000005, -23.445231499310587], [-50.628733899999986, -23.444902699310603], [-50.62903299999999, -23.444740799310594], [-50.62931040000001, -23.444434299310643], [-50.6297654, -23.444110199310646], [-50.63017960000002, -23.44369119931063], [-50.630424000000005, -23.443371099310628], [-50.63057010000001, -23.442951399310683], [-50.63071639999999, -23.44250919931068], [-50.63076760000001, -23.442355699310674], [-50.631034899999975, -23.441945399310683], [-50.63128970000002, -23.441647899310713], [-50.632160100000014, -23.4408640993107], [-50.63227599999999, -23.440760499310713], [-50.6327728, -23.440323599310723], [-50.633004000000035, -23.439899599310724], [-50.63301910000001, -23.439538299310705], [-50.63288469999998, -23.43903209931076], [-50.63276000000002, -23.438525999310784], [-50.63279829999999, -23.438151199310756], [-50.6329829, -23.437785799310745], [-50.63343680000003, -23.437366899310742], [-50.633854199999966, -23.436473599310805], [-50.634065299999975, -23.43624379931081], [-50.634220299999974, -23.436171899310786], [-50.63466570000003, -23.436172899310783], [-50.635192200000006, -23.43649479931079], [-50.63641150000001, -23.436768599310785], [-50.63756489999997, -23.4369248993108], [-50.637835699999975, -23.437029399310767], [-50.63803849999999, -23.437160799310806], [-50.638187200000004, -23.437382499310793], [-50.63845670000001, -23.438408299310755], [-50.63912140000002, -23.43966539931075], [-50.63986870000003, -23.44072399931069], [-50.64084750000001, -23.441692699310657], [-50.641423799999984, -23.442371499310656], [-50.641816000000006, -23.44262989931065], [-50.64250279999999, -23.442775999310644], [-50.642573200000015, -23.44273549931069], [-50.64302099999997, -23.442546799310676], [-50.6433738, -23.4424075993107], [-50.64369970000001, -23.44224579931069], [-50.64399880000002, -23.442070299310686], [-50.644474, -23.441696499310662], [-50.6446785, -23.4414124993107], [-50.64476020000001, -23.44106039931073], [-50.64477499999998, -23.440793899310716], [-50.644666900000004, -23.440486599310695], [-50.64451370000001, -23.440319099310727], [-50.643567099999984, -23.440384699310695], [-50.64280819999999, -23.440242999310726], [-50.6421861, -23.43992539931072], [-50.64198229999999, -23.4397442993107], [-50.64168840000002, -23.43935969931075], [-50.641231000000005, -23.4378456993108], [-50.64047249999999, -23.436226999310787], [-50.6400473, -23.435747299310822], [-50.639820799999995, -23.435575199310847], [-50.6391481, -23.43546519931084], [-50.63878870000002, -23.435112099310867], [-50.63859459999998, -23.43472319931085], [-50.63814079999998, -23.433936299310883], [-50.63785789999997, -23.43339369931088], [-50.63742989999997, -23.43284619931086], [-50.63702769999998, -23.432682699310877], [-50.63645789999998, -23.432735599310888], [-50.635751500000026, -23.433090699310853], [-50.63549710000001, -23.433315999310864], [-50.635056200000015, -23.43389299931086], [-50.63444609999999, -23.434555499310832], [-50.6338247, -23.43475279931086], [-50.63340790000001, -23.434557599310853], [-50.63320490000001, -23.434299699310852], [-50.63303009999999, -23.43377089931088], [-50.63273889999999, -23.43242429931088], [-50.632702300000005, -23.432175799310883], [-50.6326449, -23.43100589931093], [-50.63304269999997, -23.429213799310972], [-50.633271400000005, -23.42860009931096], [-50.633573199999994, -23.428316299310985], [-50.63377680000002, -23.428149699310985], [-50.63415770000001, -23.427766699311], [-50.635110899999965, -23.427321799311024], [-50.63571860000002, -23.427020599310996], [-50.63613620000002, -23.426678299311018], [-50.636167500000006, -23.426443499311034], [-50.636005599999976, -23.42611349931103], [-50.63583060000002, -23.425656899311026], [-50.635764100000024, -23.42512829931104], [-50.635766100000005, -23.42441469931108], [-50.63593059999999, -23.423782799311116], [-50.63622970000001, -23.423133199311103], [-50.63639380000001, -23.422650299311105], [-50.63670639999998, -23.422194899311144], [-50.6369924, -23.42187939931115], [-50.637345599999996, -23.421573099311132], [-50.63764439999999, -23.421212499311178], [-50.63769980000001, -23.42090549931115], [-50.63774219999999, -23.420368099311176], [-50.6375951, -23.419568399311185], [-50.63748570000001, -23.419080299311215]]}, "properties": {"NUCOMPTREC": 8.25740992, "NUDISTBACT": 2793.72782215, "NUDISTCDAG": 122.03311816, "NUAREACONT": 12.02405381, "NUAREAMONT": 414.29613757, "NUDISTBACC": 2671.694704, "NUAREABACC": 1482.68216243, "NUCOMPCDA": 197.50350687, "Shape__Length": 0, "OBJECTID": 358150, "ID": 357205, "COTRECHO": 357205, "COCURSODAG": "86422", "COBACIA": "86422739", "NOGENERICO": "Rio", "NOLIGACAO": " ", "NOESPECIF": "Congonhas", "NORIOCOMP": "Rio Congonhas", "NOORIGINAL": "Rio Congonhas", "COCDADESAG": "8642", "NUTRJUS": 357235, "NUORDEMCDA": 5, "NUNIVOTTO": 8, "NUNIVOTCDA": 5, "NUSTRAHLER": 3, "DEDOMINIAL": "Estadual", "DSVERSAO": "BHO bho_2017_v_01_05_5k de 2018-06-20", "TNACIONAL": 1}}, {"type": "Feature", "id": 358138, "geometry": {"type": "LineString", "coordinates": [[-50.61766030000001, -23.487569299309676], [-50.617772, -23.487890199309632], [-50.61803149999998, -23.48808959930967], [-50.618303000000026, -23.48816249930963], [-50.61852040000002, -23.488162999309626], [-50.61881929999999, -23.488091499309633], [-50.61920049999998, -23.48792989930963], [-50.619525899999985, -23.487953199309636], [-50.61974249999997, -23.488233799309622], [-50.6196334, -23.488495499309636], [-50.6194155, -23.488680099309633], [-50.6190828, -23.488814799309626], [-50.61898630000001, -23.48894999930961], [-50.61906620000002, -23.489054099309595], [-50.61963159999999, -23.48910519930961], [-50.620310700000005, -23.488989399309602], [-50.62096489999999, -23.488625199309634], [-50.62156399999998, -23.488039499309657], [-50.62156440000001, -23.487696199309667], [-50.62161909999998, -23.487393799309668], [-50.621565799999985, -23.487203999309674], [-50.621241, -23.486688299309698], [-50.620781799999975, -23.48586519930966], [-50.620539199999996, -23.485110399309708], [-50.620432100000016, -23.484667499309708], [-50.62056860000001, -23.484243299309735], [-50.62067939999997, -23.48358419930974], [-50.62084340000001, -23.48318719930973], [-50.62084429999999, -23.482857499309777], [-50.62070879999999, -23.482739699309786], [-50.620519100000024, -23.48269409930977], [-50.620274, -23.482810899309765], [-50.620110599999975, -23.48299569930976], [-50.619947000000025, -23.483302399309768], [-50.61978310000001, -23.483441999309765], [-50.61959289999999, -23.483631199309727], [-50.619239600000014, -23.483652999309744], [-50.61899540000002, -23.483674899309726], [-50.61869610000002, -23.48365159930971], [-50.618316400000026, -23.48353329930973], [-50.61793669999997, -23.483392299309738], [-50.6174752, -23.48317889930974], [-50.617041400000005, -23.482942999309728], [-50.61677040000001, -23.482684899309746], [-50.61674429999999, -23.48237769930975], [-50.616636700000015, -23.481885199309804], [-50.61661170000002, -23.481225699309775], [-50.61650550000002, -23.480520899309795], [-50.61647979999998, -23.47986149930985], [-50.616399699999995, -23.479441199309832], [-50.61629190000002, -23.479038999309843], [-50.61607049999998, -23.478749399309873], [-50.61594430000002, -23.478581999309878], [-50.61540209999998, -23.478133599309842], [-50.61469629999999, -23.477969199309886], [-50.614397, -23.47818079930988], [-50.61412469999999, -23.47838779930987], [-50.613853399999975, -23.478436799309854], [-50.61355520000001, -23.478083799309832], [-50.6131211, -23.4778930993099], [-50.61260600000002, -23.477634299309848], [-50.61217199999999, -23.477420999309874], [-50.61176449999999, -23.477397399309858], [-50.610515599999985, -23.47734909930991], [-50.6094559, -23.477414199309884], [-50.60866820000002, -23.477434799309908], [-50.60845819999997, -23.477429799309856], [-50.6078536, -23.47741019930989], [-50.60752819999998, -23.477151899309916], [-50.607393100000024, -23.47689419930989], [-50.607339799999984, -23.476492099309866], [-50.607558100000006, -23.47614039930993], [-50.60851059999999, -23.475627899309924], [-50.609544400000004, -23.47501619930997], [-50.61033359999999, -23.474503399309956], [-50.61123229999998, -23.473751399309993], [-50.611533200000004, -23.47300239930997], [-50.61158990000001, -23.472225699310016], [-50.611457099999996, -23.47119109931002], [-50.610888699999975, -23.470507699310023], [-50.6102626, -23.46989199931006], [-50.609940300000005, -23.46960209931003], [-50.609372000000015, -23.46889609931006], [-50.6091017, -23.468403199310092], [-50.608941000000016, -23.467720799310094], [-50.609023900000004, -23.467206099310108], [-50.609378400000026, -23.46673729931009], [-50.61008579999998, -23.466337099310106], [-50.610738000000026, -23.466198699310144], [-50.61138979999998, -23.466155199310133], [-50.6119061, -23.466039099310123], [-50.612314000000026, -23.465895599310148], [-50.6134275, -23.465807999310115], [-50.6142145, -23.46601769931015], [-50.61505540000002, -23.466421699310136], [-50.61565650000001, -23.46680709931011], [-50.616113600000006, -23.46684439931014], [-50.616358100000014, -23.46672749931011], [-50.616686000000016, -23.466118599310143], [-50.61688140000001, -23.465617799310166], [-50.61679859999999, -23.46528339931013], [-50.61669010000003, -23.46511599931018], [-50.61609349999998, -23.464879699310142], [-50.615849000000026, -23.464784199310163], [-50.615550799999994, -23.46462089931017], [-50.615388999999986, -23.464290799310188], [-50.61547070000001, -23.464173599310158], [-50.615742599999976, -23.46412909931016], [-50.6157963, -23.464174399310174], [-50.6159864, -23.464269699310165], [-50.616231200000016, -23.46427029931019], [-50.616502500000024, -23.464198699310177], [-50.61655760000002, -23.463963999310153], [-50.616531599999966, -23.4636612993102], [-50.61623370000001, -23.463398699310222], [-50.61539269999997, -23.463021699310218], [-50.615148499999975, -23.462808899310243], [-50.6150156, -23.46203619931023], [-50.61496290000002, -23.461376699310257], [-50.61469290000002, -23.460811499310235], [-50.6143682, -23.460318399310278], [-50.61439719999998, -23.459776499310255], [-50.61434450000002, -23.459189199310323], [-50.613775499999974, -23.4587180993103], [-50.61331519999998, -23.458342099310293], [-50.61296249999998, -23.4582237993103], [-50.61271779999998, -23.45817349931029], [-50.61258270000001, -23.4579383993103], [-50.61269249999998, -23.457635999310302], [-50.612992099999985, -23.457284499310358], [-50.612993200000005, -23.456905099310323], [-50.61258629999998, -23.45671889931035], [-50.61193489999999, -23.45657729931034], [-50.61152759999999, -23.45650399931035], [-50.610984299999984, -23.456665299310334], [-50.610603700000006, -23.456876599310323], [-50.61076559999997, -23.457206699310312], [-50.610927000000004, -23.457654199310305], [-50.61125160000001, -23.458169899310274], [-50.61176649999999, -23.458523499310317], [-50.61222679999997, -23.458903999310316], [-50.612307799999996, -23.459229399310317], [-50.611954000000026, -23.459490399310276], [-50.61143800000002, -23.45932199931028], [-50.61081530000001, -23.4588055993103], [-50.61051720000001, -23.458429999310333], [-50.61043719999998, -23.457932999310344], [-50.61030219999998, -23.4576751993103], [-50.609978399999996, -23.457489299310346]]}, "properties": {"NUCOMPTREC": 7.90291084, "NUDISTBACT": 2805.35476809, "NUDISTCDAG": 133.66006409, "NUAREACONT": 10.55059495, "NUAREAMONT": 340.16444762, "NUDISTBACC": 2671.694704, "NUAREABACC": 1482.68216243, "NUCOMPCDA": 197.50350687, "Shape__Length": 0, "OBJECTID": 358138, "ID": 357193, "COTRECHO": 357193, "COCURSODAG": "86422", "COBACIA": "86422753", "NOGENERICO": "Rio", "NOLIGACAO": " ", "NOESPECIF": "Congonhas", "NORIOCOMP": "Rio Congonhas", "NOORIGINAL": "Rio Congonhas", "COCDADESAG": "8642", "NUTRJUS": 169146, "NUORDEMCDA": 5, "NUNIVOTTO": 8, "NUNIVOTCDA": 5, "NUSTRAHLER": 3, "DEDOMINIAL": "Estadual", "DSVERSAO": "BHO bho_2017_v_01_05_5k de 2018-06-20", "TNACIONAL": 1}}, {"type": "Feature", "id": 172066, "geometry": {"type": "LineString", "coordinates": [[-50.609978399999996, -23.457489299310346], [-50.6094339, -23.457460799310308], [-50.608973100000014, -23.457224799310335], [-50.608566999999994, -23.45675409931036], [-50.60827019999999, -23.456143599310376], [-50.608120799999995, -23.45533479931038], [-50.6083127, -23.455190799310408], [-50.60876239999998, -23.455015799310388], [-50.60906110000002, -23.4549712993104], [-50.61056730000001, -23.455124099310357], [-50.611669199999994, -23.455181099310387], [-50.612263600000006, -23.45509679931037], [-50.61271640000002, -23.454899199310386], [-50.61295919999997, -23.45431259931038], [-50.613176099999976, -23.454240899310406], [-50.61348400000003, -23.454399699310404], [-50.6141624, -23.454469199310402], [-50.61475960000001, -23.454493199310395], [-50.615059599999995, -23.45421399931038], [-50.615772400000026, -23.45362409931043], [-50.6175159, -23.45229599931044], [-50.61804269999999, -23.45209859931045], [-50.61846370000001, -23.452081499310474], [-50.61889000000002, -23.452371599310435], [-50.61900620000001, -23.45284159931043], [-50.6189804, -23.453275099310407], [-50.618347400000005, -23.45550919931037], [-50.61842730000001, -23.456028799310374], [-50.61861670000002, -23.45635889931036], [-50.618963099999974, -23.456567499310356], [-50.619285699999985, -23.456721899310338], [-50.61963889999999, -23.456700199310347], [-50.61991310000002, -23.45666469931032], [-50.62080120000002, -23.45726749931033], [-50.621049400000004, -23.45753009931032], [-50.6214023, -23.457169599310316], [-50.62173790000003, -23.456691699310355], [-50.622749899999974, -23.455637299310343], [-50.62322740000001, -23.455340399310394], [-50.62358069999999, -23.455287099310393], [-50.624026500000014, -23.455373899310363], [-50.62525040000003, -23.456022699310374], [-50.626525000000015, -23.456676099310325], [-50.626967400000005, -23.456677199310345], [-50.62752790000002, -23.45670559931037], [-50.62811290000002, -23.456485699310317], [-50.62907439999998, -23.455778999310375]]}, "properties": {"NUCOMPTREC": 3.36953602, "NUDISTBACT": 2801.98523207, "NUDISTCDAG": 130.29052807, "NUAREACONT": 4.67197274, "NUAREAMONT": 357.16160332, "NUDISTBACC": 2671.694704, "NUAREABACC": 1482.68216243, "NUCOMPCDA": 197.50350687, "Shape__Length": 0, "OBJECTID": 172066, "ID": 169146, "COTRECHO": 169146, "COCURSODAG": "86422", "COBACIA": "86422751", "NOGENERICO": "Rio", "NOLIGACAO": " ", "NOESPECIF": "Congonhas", "NORIOCOMP": "Rio Congonhas", "NOORIGINAL": "Rio Congonhas", "COCDADESAG": "8642", "NUTRJUS": 357205, "NUORDEMCDA": 5, "NUNIVOTTO": 8, "NUNIVOTCDA": 5, "NUSTRAHLER": 3, "DEDOMINIAL": "Estadual", "DSVERSAO": "BHO bho_2017_v_01_05_5k de 2018-06-20", "TNACIONAL": 1}}]}