{"type": "FeatureCollection", "features": [{"type": "Feature", "id": 53245, "geometry": {"type": "LineString", "coordinates": [[-50.60374080000002, -23.522577699308872], [-50.60350319999998, -23.522370999308883], [-50.60339010000001, -23.522187199308885], [-50.603405099999975, -23.521924999308894], [-50.603634, -23.521466699308913], [-50.60387650000001, -23.52119199930888], [-50.60431790000001, -23.520970199308934], [-50.60532840000002, -23.52067129930891], [-50.60659470000002, -23.520346699308927], [-50.607349, -23.520125699308917], [-50.6079613, -23.51983879930894], [-50.608075400000025, -23.51970789930894], [-50.608161199999984, -23.519524599308944], [-50.60821839999999, -23.519331499308954], [-50.60822489999999, -23.519217699308953], [-50.60817040000001, -23.51887619930897], [-50.60802330000001, -23.518534299308953], [-50.6078574, -23.51828349930896], [-50.607328499999994, -23.51765619930895], [-50.60652870000001, -23.516823299309], [-50.606215299999974, -23.51636729930902], [-50.6060731, -23.51602569930902], [-50.605929, -23.51472029930905], [-50.60584449999999, -23.514444699309074], [-50.605646200000024, -23.51419519930907], [-50.60534610000002, -23.51400339930904], [-50.60468070000002, -23.51377319930906], [-50.60422640000002, -23.513549099309046], [-50.6038148, -23.51328579930908], [-50.603446200000015, -23.512970199309066], [-50.6033329, -23.512799499309104], [-50.60340500000001, -23.512445599309068], [-50.60363330000001, -23.5121708993091], [-50.60493029999998, -23.51112529930912], [-50.60528679999999, -23.510772199309155], [-50.60545860000002, -23.51036619930917], [-50.605459800000006, -23.50995979930914], [-50.605375200000026, -23.509723599309126], [-50.60482239999999, -23.50915839930916], [-50.60432609999998, -23.508737499309177], [-50.60399990000003, -23.508461399309166], [-50.60338949999999, -23.50815829930918], [-50.60324739999999, -23.50811859930917], [-50.6031337, -23.508118299309167], [-50.602920100000006, -23.508222599309203], [-50.6027209, -23.50828769930917], [-50.601938200000006, -23.5085085993092], [-50.601340300000004, -23.508769299309158], [-50.600728000000004, -23.50906919930917], [-50.60057169999998, -23.5090687993092], [-50.600074800000016, -23.508805299309177], [-50.5995641, -23.508476299309166], [-50.59906790000002, -23.508016099309216], [-50.59828820000001, -23.50724049930923], [-50.59824630000003, -23.5070175993092], [-50.598289299999976, -23.506873399309242], [-50.5985465, -23.506480699309225], [-50.5992167, -23.505800799309217], [-50.59963019999998, -23.505421499309254], [-50.599958399999984, -23.504989699309267], [-50.601169500000026, -23.504114399309273], [-50.60286480000002, -23.502938699309325], [-50.60354840000002, -23.50254709930933], [-50.60403229999998, -23.502364799309323], [-50.6047006, -23.502340199309312], [-50.60678960000001, -23.502620799309305], [-50.607528300000006, -23.502806299309288], [-50.6084662, -23.50296599930932], [-50.609660099999985, -23.50307389930931], [-50.610938799999985, -23.5033261993093], [-50.61176269999998, -23.503551099309284], [-50.61228799999998, -23.50380159930926], [-50.61257169999999, -23.504038299309272], [-50.61299639999998, -23.504616199309254], [-50.6131092, -23.504944299309244], [-50.613036799999975, -23.505402999309254], [-50.61302119999999, -23.505887999309266], [-50.613134, -23.50621609930925], [-50.61331840000002, -23.506347599309255], [-50.613829099999975, -23.506702999309233], [-50.61425459999999, -23.50708419930922], [-50.61442440000002, -23.507346899309233], [-50.61456629999998, -23.507425899309194], [-50.61475139999999, -23.507334599309186], [-50.61537909999998, -23.506601899309246], [-50.61559369999998, -23.50614349930925], [-50.615765899999985, -23.505606399309226], [-50.61605420000001, -23.504243599309277], [-50.61628330000003, -23.503640999309308], [-50.61645470000002, -23.50339229930927], [-50.61672549999997, -23.50315699930929], [-50.617166999999995, -23.502895799309286], [-50.61735229999999, -23.502725799309314], [-50.61739540000002, -23.50255549930934], [-50.61728240000002, -23.502319299309324], [-50.61667319999998, -23.501557299309344], [-50.615325600000006, -23.50054439930939], [-50.6149987, -23.500543599309374], [-50.61462870000002, -23.500647499309377], [-50.61395970000002, -23.500908099309356], [-50.61323429999999, -23.501050599309334], [-50.61166960000002, -23.501374499309346], [-50.611186299999986, -23.50136019930936], [-50.61066060000002, -23.50121459930937], [-50.60919639999997, -23.500465099309356], [-50.60911820000001, -23.500392599309365], [-50.608521999999994, -23.49999369930938], [-50.607169899999974, -23.499344499309398], [-50.60622779999999, -23.4987278993094], [-50.60581509999997, -23.49857329930938], [-50.605175700000025, -23.498485799309428], [-50.60470509999999, -23.49842589930938], [-50.60396220000001, -23.49815759930943], [-50.60274370000002, -23.497689299309418], [-50.60213110000001, -23.49741669930941], [-50.60189789999998, -23.496598699309438], [-50.60137059999999, -23.495874699309464], [-50.600780300000004, -23.495344799309475], [-50.600309299999985, -23.495013899309487], [-50.5998707, -23.494741799309473], [-50.59965460000001, -23.494533499309487], [-50.599489800000015, -23.493950399309533], [-50.59930129999998, -23.49356159930954], [-50.59873390000001, -23.492932299309537], [-50.597939999999994, -23.491331499309574], [-50.597756100000026, -23.49082069930955], [-50.59766250000001, -23.490400399309582], [-50.59794019999998, -23.488860999309615], [-50.598282100000006, -23.488509599309626], [-50.59857720000002, -23.48829359930966], [-50.59987969999997, -23.488513699309628], [-50.60032610000002, -23.488424599309607], [-50.603763300000026, -23.486242899309662], [-50.604235000000024, -23.485909899309718], [-50.60522659999998, -23.4854832993097], [-50.60626769999998, -23.485300799309716], [-50.60745689999999, -23.485330899309712], [-50.60834790000001, -23.485567999309698], [-50.60929779999998, -23.48641949930969], [-50.61035609999999, -23.486824099309658], [-50.61097969999997, -23.487272699309663], [-50.611474999999984, -23.48767139930966], [-50.611683299999974, -23.48800159930966], [-50.61219890000001, -23.48833259930961], [-50.612741899999996, -23.48831139930963], [-50.61310759999998, -23.487806499309627], [-50.613443099999984, -23.487328599309674], [-50.6135071, -23.486809299309677], [-50.6137794, -23.4866202993097], [-50.614077699999996, -23.486761099309696], [-50.614340700000014, -23.487046299309647], [-50.614666, -23.487119299309686], [-50.6148023, -23.487002199309675], [-50.61496549999998, -23.48686259930966], [-50.61510249999998, -23.486483599309658], [-50.615347799999995, -23.48629899930965], [-50.61619000000002, -23.486111399309717], [-50.61648919999999, -23.486134699309673], [-50.61684100000002, -23.486397499309685], [-50.6170851, -23.48665559930968], [-50.6174001, -23.486940899309648], [-50.6175619, -23.487293599309638], [-50.61766030000001, -23.487569299309676], [-50.617772, -23.487890199309632], [-50.61803149999998, -23.48808959930967], [-50.618303000000026, -23.48816249930963], [-50.61852040000002, -23.488162999309626], [-50.61881929999999, -23.488091499309633], [-50.61920049999998, -23.48792989930963], [-50.619525899999985, -23.487953199309636], [-50.61974249999997, -23.488233799309622], [-50.6196334, -23.488495499309636], [-50.6194155, -23.488680099309633], [-50.6190828, -23.488814799309626], [-50.61898630000001, -23.48894999930961], [-50.61906620000002, -23.489054099309595], [-50.61963159999999, -23.48910519930961], [-50.620310700000005, -23.488989399309602], [-50.62096489999999, -23.488625199309634], [-50.62156399999998, -23.488039499309657], [-50.62156440000001, -23.487696199309667], [-50.62161909999998, -23.487393799309668], [-50.621565799999985, -23.487203999309674], [-50.621241, -23.486688299309698], [-50.620781799999975, -23.48586519930966], [-50.620539199999996, -23.485110399309708], [-50.620432100000016, -23.484667499309708], [-50.62056860000001, -23.484243299309735], [-50.62067939999997, -23.48358419930974], [-50.62084340000001, -23.48318719930973], [-50.62084429999999, -23.482857499309777], [-50.62070879999999, -23.482739699309786], [-50.620519100000024, -23.48269409930977], [-50.620274, -23.482810899309765], [-50.620110599999975, -23.48299569930976], [-50.619947000000025, -23.483302399309768], [-50.61978310000001, -23.483441999309765], [-50.61959289999999, -23.483631199309727], [-50.619239600000014, -23.483652999309744], [-50.61899540000002, -23.483674899309726], [-50.61869610000002, -23.48365159930971], [-50.618316400000026, -23.48353329930973], [-50.61793669999997, -23.483392299309738], [-50.6174752, -23.48317889930974], [-50.617041400000005, -23.482942999309728], [-50.61677040000001, -23.482684899309746], [-50.61674429999999, -23.48237769930975], [-50.616636700000015, -23.481885199309804], [-50.61661170000002, -23.481225699309775], [-50.61650550000002, -23.480520899309795], [-50.61647979999998, -23.47986149930985], [-50.616399699999995, -23.479441199309832], [-50.61629190000002, -23.479038999309843], [-50.61607049999998, -23.478749399309873], [-50.61594430000002, -23.478581999309878], [-50.61540209999998, -23.478133599309842], [-50.61469629999999, -23.477969199309886], [-50.614397, -23.47818079930988], [-50.61412469999999, -23.47838779930987], [-50.613853399999975, -23.478436799309854], [-50.61355520000001, -23.478083799309832], [-50.6131211, -23.4778930993099], [-50.61260600000002, -23.477634299309848], [-50.61217199999999, -23.477420999309874], [-50.61176449999999, -23.477397399309858], [-50.610515599999985, -23.47734909930991], [-50.6094559, -23.477414199309884], [-50.60866820000002, -23.477434799309908], [-50.60845819999997, -23.477429799309856], [-50.6078536, -23.47741019930989], [-50.60752819999998, -23.477151899309916], [-50.607393100000024, -23.47689419930989], [-50.607339799999984, -23.476492099309866], [-50.607558100000006, -23.47614039930993], [-50.60851059999999, -23.475627899309924], [-50.609544400000004, -23.47501619930997], [-50.61033359999999, -23.474503399309956], [-50.61123229999998, -23.473751399309993], [-50.611533200000004, -23.47300239930997], [-50.61158990000001, -23.472225699310016], [-50.611457099999996, -23.47119109931002], [-50.610888699999975, -23.470507699310023], [-50.6102626, -23.46989199931006], [-50.609940300000005, -23.46960209931003], [-50.609372000000015, -23.46889609931006], [-50.6091017, -23.468403199310092], [-50.608941000000016, -23.467720799310094], [-50.609023900000004, -23.467206099310108], [-50.609378400000026, -23.46673729931009], [-50.61008579999998, -23.466337099310106], [-50.610738000000026, -23.466198699310144], [-50.61138979999998, -23.466155199310133], [-50.6119061, -23.466039099310123], [-50.612314000000026, -23.465895599310148], [-50.6134275, -23.465807999310115], [-50.6142145, -23.46601769931015], [-50.61505540000002, -23.466421699310136], [-50.61565650000001, -23.46680709931011], [-50.616113600000006, -23.46684439931014], [-50.616358100000014, -23.46672749931011], [-50.616686000000016, -23.466118599310143], [-50.61688140000001, -23.465617799310166], [-50.61679859999999, -23.46528339931013], [-50.61669010000003, -23.46511599931018], [-50.61609349999998, -23.464879699310142], [-50.615849000000026, -23.464784199310163], [-50.615550799999994, -23.46462089931017], [-50.615388999999986, -23.464290799310188], [-50.61547070000001, -23.464173599310158], [-50.615742599999976, -23.46412909931016], [-50.6157963, -23.464174399310174], [-50.6159864, -23.464269699310165], [-50.616231200000016, -23.46427029931019], [-50.616502500000024, -23.464198699310177], [-50.61655760000002, -23.463963999310153], [-50.616531599999966, -23.4636612993102], [-50.61623370000001, -23.463398699310222], [-50.61539269999997, -23.463021699310218], [-50.615148499999975, -23.462808899310243], [-50.6150156, -23.46203619931023], [-50.61496290000002, -23.461376699310257], [-50.61469290000002, -23.460811499310235], [-50.6143682, -23.460318399310278], [-50.61439719999998, -23.459776499310255], [-50.61434450000002, -23.459189199310323], [-50.613775499999974, -23.4587180993103], [-50.61331519999998, -23.458342099310293], [-50.61296249999998, -23.4582237993103], [-50.61271779999998, -23.45817349931029], [-50.61258270000001, -23.4579383993103], [-50.61269249999998, -23.457635999310302], [-50.612992099999985, -23.457284499310358], [-50.612993200000005, -23.456905099310323], [-50.61258629999998, -23.45671889931035], [-50.61193489999999, -23.45657729931034], [-50.61152759999999, -23.45650399931035], [-50.610984299999984, -23.456665299310334], [-50.610603700000006, -23.456876599310323], [-50.61076559999997, -23.457206699310312], [-50.610927000000004, -23.457654199310305], [-50.61125160000001, -23.458169899310274], [-50.61176649999999, -23.458523499310317], [-50.61222679999997, -23.458903999310316], [-50.612307799999996, -23.459229399310317], [-50.611954000000026, -23.459490399310276], [-50.61143800000002, -23.45932199931028], [-50.61081530000001, -23.4588055993103], [-50.61051720000001, -23.458429999310333], [-50.61043719999998, -23.457932999310344], [-50.61030219999998, -23.4576751993103], [-50.609978399999996, -23.457489299310346], [-50.6094339, -23.457460799310308], [-50.608973100000014, -23.457224799310335], [-50.608566999999994, -23.45675409931036], [-50.60827019999999, -23.456143599310376], [-50.608120799999995, -23.45533479931038], [-50.6083127, -23.455190799310408], [-50.60876239999998, -23.455015799310388], [-50.60906110000002, -23.4549712993104], [-50.61056730000001, -23.455124099310357], [-50.611669199999994, -23.455181099310387], [-50.612263600000006, -23.45509679931037], [-50.61271640000002, -23.454899199310386], [-50.61295919999997, -23.45431259931038], [-50.613176099999976, -23.454240899310406], [-50.61348400000003, -23.454399699310404], [-50.6141624, -23.454469199310402], [-50.61475960000001, -23.454493199310395], [-50.615059599999995, -23.45421399931038], [-50.615772400000026, -23.45362409931043], [-50.6175159, -23.45229599931044], [-50.61804269999999, -23.45209859931045], [-50.61846370000001, -23.452081499310474], [-50.61889000000002, -23.452371599310435], [-50.61900620000001, -23.45284159931043], [-50.6189804, -23.453275099310407], [-50.618347400000005, -23.45550919931037], [-50.61842730000001, -23.456028799310374], [-50.61861670000002, -23.45635889931036], [-50.618963099999974, -23.456567499310356], [-50.619285699999985, -23.456721899310338], [-50.61963889999999, -23.456700199310347], [-50.61991310000002, -23.45666469931032], [-50.62080120000002, -23.45726749931033], [-50.621049400000004, -23.45753009931032], [-50.6214023, -23.457169599310316], [-50.62173790000003, -23.456691699310355], [-50.622749899999974, -23.455637299310343], [-50.62322740000001, -23.455340399310394], [-50.62358069999999, -23.455287099310393], [-50.624026500000014, -23.455373899310363], [-50.62525040000003, -23.456022699310374], [-50.626525000000015, -23.456676099310325], [-50.626967400000005, -23.456677199310345], [-50.62752790000002, -23.45670559931037], [-50.62811290000002, -23.456485699310317], [-50.62907439999998, -23.455778999310375], [-50.6296231, -23.454967299310407], [-50.629810299999974, -23.45475999931042], [-50.62999810000002, -23.454137199310395], [-50.63003650000002, -23.453726299310443], [-50.629746599999976, -23.45328749931041], [-50.629285700000025, -23.453096699310425], [-50.6284445, -23.45279659931044], [-50.627563399999985, -23.45254609931044], [-50.62727260000003, -23.452409899310467], [-50.62695170000001, -23.452038799310465], [-50.62655139999998, -23.45120229931045], [-50.62626820000003, -23.450759099310506], [-50.625211999999976, -23.449898399310502], [-50.62498299999999, -23.449712699310528], [-50.62488560000003, -23.449314999310523], [-50.625048100000015, -23.448768899310526], [-50.62506109999998, -23.448493499310512], [-50.624925500000025, -23.448208599310526], [-50.62454279999997, -23.447850899310534], [-50.62446399999999, -23.447611299310562], [-50.624479199999996, -23.447403599310526], [-50.62453210000002, -23.447308899310556], [-50.62458939999999, -23.447200599310538], [-50.6249307, -23.447025299310575], [-50.62644920000003, -23.446396699310565], [-50.627291500000005, -23.44586119931061], [-50.628352500000005, -23.445231499310587], [-50.628733899999986, -23.444902699310603], [-50.62903299999999, -23.444740799310594], [-50.62931040000001, -23.444434299310643], [-50.6297654, -23.444110199310646], [-50.63017960000002, -23.44369119931063], [-50.630424000000005, -23.443371099310628], [-50.63057010000001, -23.442951399310683], [-50.63071639999999, -23.44250919931068], [-50.63076760000001, -23.442355699310674], [-50.631034899999975, -23.441945399310683], [-50.63128970000002, -23.441647899310713], [-50.632160100000014, -23.4408640993107], [-50.63227599999999, -23.440760499310713], [-50.6327728, -23.440323599310723], [-50.633004000000035, -23.439899599310724], [-50.63301910000001, -23.439538299310705], [-50.63288469999998, -23.43903209931076], [-50.63276000000002, -23.438525999310784], [-50.63279829999999, -23.438151199310756], [-50.6329829, -23.437785799310745], [-50.63343680000003, -23.437366899310742], [-50.633854199999966, -23.436473599310805], [-50.634065299999975, -23.43624379931081], [-50.634220299999974, -23.436171899310786], [-50.63466570000003, -23.436172899310783], [-50.635192200000006, -23.43649479931079], [-50.63641150000001, -23.436768599310785], [-50.63756489999997, -23.4369248993108], [-50.637835699999975, -23.437029399310767], [-50.63803849999999, -23.437160799310806], [-50.638187200000004, -23.437382499310793], [-50.63845670000001, -23.438408299310755], [-50.63912140000002, -23.43966539931075], [-50.63986870000003, -23.44072399931069], [-50.64084750000001, -23.441692699310657], [-50.641423799999984, -23.442371499310656], [-50.641816000000006, -23.44262989931065], [-50.64250279999999, -23.442775999310644], [-50.642573200000015, -23.44273549931069], [-50.64302099999997, -23.442546799310676], [-50.6433738, -23.4424075993107], [-50.64369970000001, -23.44224579931069], [-50.64399880000002, -23.442070299310686], [-50.644474, -23.441696499310662], [-50.6446785, -23.4414124993107], [-50.64476020000001, -23.44106039931073], [-50.64477499999998, -23.440793899310716], [-50.644666900000004, -23.440486599310695], [-50.64451370000001, -23.440319099310727], [-50.643567099999984, -23.440384699310695], [-50.64280819999999, -23.440242999310726], [-50.6421861, -23.43992539931072], [-50.64198229999999, -23.4397442993107], [-50.64168840000002, -23.43935969931075], [-50.641231000000005, -23.4378456993108], [-50.64047249999999, -23.436226999310787], [-50.6400473, -23.435747299310822], [-50.639820799999995, -23.435575199310847], [-50.6391481, -23.43546519931084], [-50.63878870000002, -23.435112099310867], [-50.63859459999998, -23.43472319931085], [-50.63814079999998, -23.433936299310883], [-50.63785789999997, -23.43339369931088], [-50.63742989999997, -23.43284619931086], [-50.63702769999998, -23.432682699310877], [-50.63645789999998, -23.432735599310888], [-50.635751500000026, -23.433090699310853], [-50.63549710000001, -23.433315999310864], [-50.635056200000015, -23.43389299931086], [-50.63444609999999, -23.434555499310832], [-50.6338247, -23.43475279931086], [-50.63340790000001, -23.434557599310853], [-50.63320490000001, -23.434299699310852], [-50.63303009999999, -23.43377089931088], [-50.63273889999999, -23.43242429931088], [-50.632702300000005, -23.432175799310883], [-50.6326449, -23.43100589931093], [-50.63304269999997, -23.429213799310972], [-50.633271400000005, -23.42860009931096], [-50.633573199999994, -23.428316299310985], [-50.63377680000002, -23.428149699310985], [-50.63415770000001, -23.427766699311], [-50.635110899999965, -23.427321799311024], [-50.63571860000002, -23.427020599310996], [-50.63613620000002, -23.426678299311018], [-50.636167500000006, -23.426443499311034], [-50.636005599999976, -23.42611349931103], [-50.63583060000002, -23.425656899311026], [-50.635764100000024, -23.42512829931104], [-50.635766100000005, -23.42441469931108], [-50.63593059999999, -23.423782799311116], [-50.63622970000001, -23.423133199311103], [-50.63639380000001, -23.422650299311105], [-50.63670639999998, -23.422194899311144], [-50.6369924, -23.42187939931115], [-50.637345599999996, -23.421573099311132], [-50.63764439999999, -23.421212499311178], [-50.63769980000001, -23.42090549931115], [-50.63774219999999, -23.420368099311176], [-50.6375951, -23.419568399311185], [-50.63748570000001, -23.419080299311215], [-50.637474699999984, -23.418849999311227], [-50.63768060000001, -23.41852079931122], [-50.63781519999998, -23.418299799311207], [-50.63801969999997, -23.41819639931121], [-50.6381149, -23.41806109931121], [-50.638102100000026, -23.417857799311204], [-50.637926600000014, -23.417590899311215], [-50.6376563, -23.417332899311255], [-50.63743950000002, -23.417201399311246], [-50.63711460000002, -23.416979299311226], [-50.6365869, -23.416648399311235], [-50.63623560000002, -23.416281799311236], [-50.636037499999986, -23.416032899311265], [-50.63567210000002, -23.41586499931126], [-50.63527920000002, -23.415714999311255], [-50.63481940000002, -23.415370699311268], [-50.634306200000026, -23.414723599311305], [-50.6339686, -23.414230499311266], [-50.63342820000003, -23.41364209931132], [-50.63298179999998, -23.413162399311307], [-50.63245499999999, -23.41251529931134], [-50.63240239999999, -23.412067999311322], [-50.63233530000002, -23.411765299311373], [-50.632233299999996, -23.41148949931139], [-50.631920200000025, -23.41123129931137], [-50.631715499999984, -23.410946299311355], [-50.63156729999997, -23.410543999311397], [-50.631351699999975, -23.409969899311417], [-50.631217600000014, -23.40959469931142], [-50.6311096, -23.409251199311434], [-50.6309483, -23.408993399311406], [-50.63070429999999, -23.40895669931139], [-50.63051439999998, -23.409073699311445], [-50.63024189999998, -23.409380199311403], [-50.629780600000004, -23.40963649931137], [-50.62959080000002, -23.409672199311387], [-50.629387399999985, -23.409576899311396], [-50.629279800000006, -23.409341799311402], [-50.62911810000003, -23.408966499311436], [-50.629037400000016, -23.40872239931142], [-50.62899759999999, -23.40851009931143], [-50.62903829999999, -23.408428899311417], [-50.62923940000002, -23.40825769931141], [-50.62999989999997, -23.40776719931147], [-50.6306113, -23.407452499311436], [-50.63097740000001, -23.40729979931143], [-50.6315472, -23.407197299311466], [-50.63195350000001, -23.40714859931149], [-50.6326722, -23.407208999311482], [-50.633077800000024, -23.407399599311486], [-50.63345750000001, -23.40745919931146], [-50.633837099999994, -23.407320099311455], [-50.63404159999999, -23.40703609931149], [-50.634299699999985, -23.406851499311486], [-50.634801900000014, -23.40638299931148], [-50.63511460000001, -23.406112699311482], [-50.63527800000003, -23.405878199311502], [-50.635346799999986, -23.4055486993115], [-50.6353067, -23.405209899311497], [-50.63511770000002, -23.40499709931152], [-50.634873899999995, -23.404906199311537], [-50.634671200000014, -23.404761199311515], [-50.634630699999995, -23.404575999311543], [-50.63474009999999, -23.40440009931149], [-50.63494350000002, -23.404269599311547], [-50.63520119999998, -23.404211499311497], [-50.635960599999976, -23.40409579931153], [-50.6370402, -23.403895099311537], [-50.63739290000001, -23.403742399311547], [-50.63751589999998, -23.40349879931157], [-50.63740769999999, -23.403272699311557], [-50.637204999999994, -23.403123199311537], [-50.63701579999997, -23.402978199311562], [-50.63682640000001, -23.40288739931156], [-50.636772500000006, -23.402697599311573], [-50.636962700000026, -23.402463199311573], [-50.63732920000001, -23.402206599311576], [-50.63776380000001, -23.402090199311548], [-50.63844139999998, -23.401929199311564], [-50.638970400000005, -23.401961999311602], [-50.63959360000001, -23.40202219931155], [-50.640569299999974, -23.401956699311597], [-50.64101690000001, -23.401804099311573], [-50.641275699999994, -23.401583399311583], [-50.64143860000001, -23.40127669931158], [-50.64149370000001, -23.401005799311612], [-50.641575999999986, -23.40066729931162], [-50.64167109999999, -23.400550099311598], [-50.641857000000016, -23.40057759931163], [-50.64199270000001, -23.400623099311627], [-50.64215489999998, -23.400785999311594], [-50.642167799999974, -23.40102089931159], [-50.64218069999998, -23.401219699311604], [-50.64208480000002, -23.401657599311605], [-50.64202940000001, -23.40198259931158], [-50.641975, -23.402194799311584], [-50.642001400000034, -23.402393499311593], [-50.642123000000026, -23.402452499311547], [-50.64232659999998, -23.402466599311587], [-50.64266600000001, -23.402277599311564], [-50.642924100000016, -23.4020433993116], [-50.643209300000024, -23.401750499311575], [-50.64353560000001, -23.40144859931157], [-50.64379389999999, -23.401155599311576], [-50.644187199999976, -23.400908099311586], [-50.64428270000002, -23.400876699311628], [-50.644486400000005, -23.400673899311627], [-50.64450649999998, -23.400457199311607], [-50.64451409999998, -23.400371399311602], [-50.64446079999999, -23.40015899931159], [-50.6443802, -23.399878799311637], [-50.64425860000001, -23.399621099311616], [-50.644300199999975, -23.39935919931163], [-50.644585500000005, -23.39907079931165], [-50.64493829999998, -23.398881899311643], [-50.64542690000002, -23.39868429931167], [-50.64579329999998, -23.398459299311675], [-50.64613250000002, -23.39831109931166], [-50.64640780000002, -23.398058799311674], [-50.64631259999999, -23.3977739993117], [-50.64632599999999, -23.397525599311678], [-50.64617479999998, -23.3973400993117], [-50.64520590000001, -23.396222399311704], [-50.64417520000001, -23.395556099311744], [-50.643454200000015, -23.395274399311727], [-50.643147000000006, -23.394894399311738], [-50.64292740000002, -23.393299599311753], [-50.642640400000005, -23.392413699311817], [-50.642195300000026, -23.3916945993118], [-50.64048139999999, -23.389486599311855], [-50.64004110000002, -23.388952699311883], [-50.6396669, -23.388495599311877], [-50.63916139999998, -23.387681499311878], [-50.63858320000003, -23.386424599311926], [-50.63849879999998, -23.38573789931192], [-50.6381988, -23.384495199311974], [-50.63821139999999, -23.384133899311976], [-50.63832389999999, -23.38393999931198], [-50.63848710000002, -23.383750699312], [-50.638744900000006, -23.38360219931198], [-50.639002500000004, -23.383602799311998], [-50.63924639999999, -23.383662099311977], [-50.6395301, -23.383906599311977], [-50.63971859999998, -23.384272899311963], [-50.639866900000015, -23.384625499312005], [-50.64002909999999, -23.384833599311936], [-50.6403944, -23.384978999311954], [-50.6408012, -23.38495279931197], [-50.641045599999984, -23.38481339931194], [-50.641290000000026, -23.384673899311956], [-50.64156079999998, -23.384746799311984], [-50.64198019999998, -23.38499169931196], [-50.64248049999997, -23.385453499311936], [-50.642844799999985, -23.385991799311935], [-50.64327750000001, -23.386345099311956], [-50.643683599999974, -23.38655829931192], [-50.64415739999998, -23.386649699311942], [-50.64422530000001, -23.386676899311926], [-50.64451029999998, -23.386420099311945], [-50.64455190000001, -23.38621699931192], [-50.645012800000025, -23.386041899311945], [-50.64554140000001, -23.385984399311923], [-50.64601579999999, -23.386080299311935], [-50.64636819999998, -23.386044999311963], [-50.6466532, -23.385810799311937], [-50.64697890000002, -23.385662399311943], [-50.647249499999994, -23.385812099311952], [-50.64747970000003, -23.385966199311927], [-50.647566999999974, -23.386002499311957], [-50.64773389999999, -23.38607509931196], [-50.64797759999999, -23.386165999311945], [-50.64804559999999, -23.38612099931194], [-50.6481, -23.385922399311962], [-50.64808690000002, -23.385818499311966], [-50.64787089999999, -23.38560569931193], [-50.6476538, -23.38555559931192], [-50.6475185, -23.385415299311923], [-50.64749189999998, -23.38527519931198], [-50.64754690000001, -23.385085599311996], [-50.64770979999997, -23.384982099311973], [-50.6480603, -23.384987399311964], [-50.648277699999994, -23.384843399311986], [-50.648399999999974, -23.38462229931196], [-50.64844210000001, -23.38419789931198], [-50.64849700000001, -23.383823199311983], [-50.64863350000002, -23.383507299312015], [-50.648810200000014, -23.383331599312026], [-50.64931250000001, -23.383052699312003], [-50.64957049999998, -23.382831899312002], [-50.64980170000001, -23.382584099311995], [-50.6502087, -23.382232699311995], [-50.650860799999975, -23.381705699312032], [-50.65129510000003, -23.38143569931204], [-50.6517427, -23.381260599312075], [-50.65202799999997, -23.381157299312036], [-50.65213729999999, -23.38097689931206], [-50.6521808, -23.380710499312077], [-50.6521444, -23.380588499312047], [-50.6519892, -23.380529399312067], [-50.65164470000002, -23.380609999312053], [-50.650295200000016, -23.380755999312075], [-50.649035000000026, -23.38064029931204], [-50.648696400000006, -23.38054469931205], [-50.64838529999997, -23.38025039931209], [-50.648331600000006, -23.379965699312084], [-50.64837879999999, -23.379478099312067], [-50.64864440000002, -23.378485099312073], [-50.64859510000002, -23.377206799312148], [-50.64842590000001, -23.375724999312165], [-50.64840270000003, -23.37552169931215], [-50.64839180000001, -23.374546099312173], [-50.648591899999985, -23.37428459931221], [-50.64885349999998, -23.374077499312204], [-50.6496406, -23.373844399312215], [-50.65005289999999, -23.373791099312225], [-50.65103549999998, -23.373874599312234], [-50.65176589999998, -23.37401619931224], [-50.6524637, -23.374017799312206], [-50.652757599999966, -23.37366159931221], [-50.6528381, -23.373467599312253], [-50.653020599999984, -23.37200469931225], [-50.6530088, -23.371778799312278], [-50.6528672, -23.37145789931226], [-50.652496799999994, -23.371154399312303], [-50.65187259999999, -23.370859499312274], [-50.650765999999976, -23.37049569931228], [-50.6496439, -23.37000989931231], [-50.64875669999998, -23.369511099312323], [-50.64821869999997, -23.368958899312318], [-50.6478702, -23.368714199312336], [-50.64764739999998, -23.368347899312326], [-50.64689049999998, -23.367117699312356], [-50.6458528, -23.365959199312403], [-50.64537790000003, -23.365384499312405], [-50.645378600000015, -23.365113499312407], [-50.645515999999986, -23.364752499312427], [-50.64589910000001, -23.364161699312447], [-50.64603779999999, -23.363949799312433], [-50.64647189999999, -23.363521699312425], [-50.6471042, -23.36308499931247], [-50.64758719999998, -23.362851199312484], [-50.64825619999999, -23.36266309931248], [-50.649097700000034, -23.362637899312446], [-50.65013699999997, -23.362712399312485], [-50.65215360000002, -23.36274399931249], [-50.65300780000001, -23.36278659931245], [-50.65502620000001, -23.362885899312445], [-50.65611819999999, -23.36314119931243], [-50.6583521, -23.364311299312437], [-50.66075970000003, -23.365748299312404], [-50.66147749999999, -23.366264699312364], [-50.661835, -23.36636489931239], [-50.66218789999999, -23.366320499312362], [-50.662626699999976, -23.365955599312397], [-50.663483299999996, -23.36505409931242], [-50.66435819999998, -23.363655899312466], [-50.66462580000002, -23.363028699312434], [-50.664632600000004, -23.36276679931244], [-50.66452829999997, -23.362391699312465], [-50.66434989999999, -23.362124799312483], [-50.66402840000001, -23.36181699931246], [-50.66273810000001, -23.36084319931248], [-50.66199469999998, -23.36054349931252], [-50.661574400000006, -23.36036639931249], [-50.65902590000002, -23.359597599312494], [-50.65703480000002, -23.35913709931255], [-50.65592620000001, -23.35862879931258], [-50.65505519999999, -23.358012699312585], [-50.654099099999996, -23.35697179931259], [-50.65382099999999, -23.35669569931258], [-50.653393999999984, -23.35631989931262], [-50.6530143, -23.355849299312602], [-50.652433900000005, -23.354949199312653], [-50.65201350000001, -23.35413539931267], [-50.65174889999997, -23.35359729931266], [-50.651283700000015, -23.35235419931268], [-50.65127669999998, -23.351568399312736], [-50.65117800000002, -23.350931299312737], [-50.65126420000001, -23.350226999312767], [-50.65114139999997, -23.349982799312777], [-50.65070209999999, -23.349841799312735], [-50.650063699999976, -23.34987649931275], [-50.64966479999998, -23.349943399312735], [-50.64768809999998, -23.350837699312727], [-50.647331399999985, -23.350922699312747], [-50.647114199999976, -23.350976399312714], [-50.64673490000001, -23.351061399312716], [-50.64651600000003, -23.351060899312724], [-50.64621649999998, -23.351005999312715], [-50.64589840000003, -23.350851699312756], [-50.645639599999974, -23.350661499312743], [-50.645221499999984, -23.350384999312755], [-50.644882499999994, -23.35026229931273], [-50.644464400000004, -23.349967799312747], [-50.64402710000002, -23.349537699312748], [-50.64394820000001, -23.349103999312785], [-50.643949299999974, -23.348688399312792], [-50.6439704, -23.3483632993128], [-50.64419090000001, -23.347758599312815], [-50.64427180000001, -23.3474290993128], [-50.644751799999995, -23.346982999312836], [-50.6451902, -23.346965999312822], [-50.64582819999998, -23.347107399312847], [-50.646585800000025, -23.347330399312785], [-50.6471727, -23.347571099312784], [-50.64780669999999, -23.3478254993128], [-50.64818819999999, -23.347636699312815], [-50.64825200000001, -23.34730709931283], [-50.64799879999998, -23.34711229931282], [-50.647587300000005, -23.346867499312797], [-50.64762009999998, -23.346479199312807], [-50.647969699999976, -23.346096099312852], [-50.64819330000001, -23.34568559931287], [-50.64857419999999, -23.34546509931287], [-50.64905060000001, -23.345411999312873], [-50.64949410000003, -23.34558009931286], [-50.649969699999986, -23.345608199312863], [-50.65054070000002, -23.345636599312815], [-50.65095389999999, -23.345416199312833], [-50.6511448, -23.34516819931284], [-50.65143130000001, -23.344812099312882], [-50.651653899999985, -23.344541599312883], [-50.65166620000002, -23.34424799931287], [-50.65137019999997, -23.3440531993129], [-50.65121190000002, -23.344021199312877], [-50.650640800000026, -23.344078699312902], [-50.650259300000016, -23.344294599312896], [-50.64968950000002, -23.343828099312887], [-50.64934119999998, -23.343718999312923], [-50.648928300000016, -23.34377219931288], [-50.648547599999965, -23.34396109931289], [-50.6479119, -23.34434349931286], [-50.6472448, -23.3446174993129], [-50.64660989999998, -23.344945799312868], [-50.646418900000015, -23.34503119931286], [-50.645625499999994, -23.345137799312845], [-50.64502220000002, -23.345326099312885], [-50.644513700000005, -23.345686299312863], [-50.643625199999974, -23.345738499312834], [-50.642452100000014, -23.345649999312823], [-50.64207160000001, -23.345486499312862], [-50.64169440000001, -23.34524179931286], [-50.64105719999998, -23.345289999312833], [-50.6405181, -23.345207399312848], [-50.64016939999999, -23.345044099312855], [-50.640011300000026, -23.34498499931287], [-50.63931400000001, -23.344626599312896], [-50.638903299999974, -23.344133299312894], [-50.6383022, -23.343445399312905], [-50.63801760000001, -23.343087999312928], [-50.637746900000025, -23.342613099312914], [-50.63766279999999, -23.342463899312907], [-50.637287000000015, -23.341970699312927], [-50.63685650000002, -23.341102599312958], [-50.63667920000001, -23.340415699312963], [-50.63665529999998, -23.34000459931295], [-50.63680049999999, -23.338979699312983], [-50.63717969999999, -23.338235399312982], [-50.63746739999999, -23.337919899312993], [-50.63777520000002, -23.33758189931301], [-50.63816009999999, -23.337243999313035], [-50.6386989, -23.336920099313037], [-50.639862999999984, -23.336511699313068], [-50.64075400000001, -23.33641439931308], [-50.64174750000001, -23.33659739931307], [-50.642952499999986, -23.336875599313032], [-50.64396649999998, -23.337180499313025], [-50.64454919999997, -23.33741219931305], [-50.64479, -23.33768369931305], [-50.645447900000015, -23.338805299312995], [-50.64571059999997, -23.338896199313023], [-50.64600539999998, -23.33885169931302], [-50.647146599999985, -23.337783899313], [-50.64769660000002, -23.336940599313035], [-50.647870599999976, -23.336575099313055], [-50.64800550000001, -23.335726299313055], [-50.64811159999999, -23.335360699313103], [-50.648152400000015, -23.334985999313098], [-50.6491211, -23.333497699313135], [-50.64951860000002, -23.33319599931311], [-50.6497063, -23.332970599313143], [-50.64991020000002, -23.332840099313135], [-50.65006260000001, -23.33276809931315], [-50.65029179999999, -23.33279569931316], [-50.65084209999998, -23.333009199313135], [-50.65113430000002, -23.33327179931311], [-50.6514631, -23.33331769931314], [-50.65153090000001, -23.33330889931315], [-50.652121700000016, -23.333242399313143], [-50.6536668, -23.33272649931312], [-50.6553015, -23.33204359931317], [-50.6559449, -23.33193659931317], [-50.656935499999975, -23.331636199313156], [-50.658868999999974, -23.331247399313163], [-50.65959670000001, -23.331154199313193], [-50.66033349999998, -23.33087579931319], [-50.66179570000003, -23.329727199313187], [-50.66283829999998, -23.32868619931323], [-50.66395569999998, -23.327749099313255], [-50.66444360000003, -23.32726239931326], [-50.66512599999998, -23.32645089931328], [-50.66606350000001, -23.324876599313306], [-50.66684170000002, -23.32415569931334], [-50.667328199999986, -23.323704999313364], [-50.66802769999998, -23.322654199313348], [-50.6689485, -23.322326399313383], [-50.669775000000016, -23.322328199313386], [-50.67024600000002, -23.322478199313352], [-50.670715799999975, -23.32264629931334], [-50.67166739999999, -23.323172199313344], [-50.67208119999998, -23.323484699313344], [-50.6734596, -23.3247928993133], [-50.674058, -23.325584499313294], [-50.67459120000001, -23.326786999313295], [-50.6747115, -23.32709889931328], [-50.67509960000001, -23.327614599313257], [-50.675525900000025, -23.327836699313224], [-50.67584720000002, -23.327891599313233], [-50.676169500000015, -23.327869699313265], [-50.67635560000002, -23.327766199313245], [-50.67652049999998, -23.32757679931323], [-50.67658260000002, -23.327436999313235]]}, "properties": {"NUCOMPTREC": 56.752, "NUDISTBACT": 2767.6890000000003, "NUDISTCDAG": 95.994, "NUAREACONT": 312.85200000000003, "NUAREAMONT": 547.043, "NUDISTBACC": 2671.695, "NUAREABACC": 1482.682, "NUCOMPCDA": 197.50400000000002, "Shape__Length": 0, "OBJECTID": 53245, "ID": 10756, "COTRECHO": 10756, "COCURSODAG": "86422", "COBACIA": "864227", "NOGENERICO": "Rio", "NOLIGACAO": " ", "NOESPECIF": "Congonhas", "NORIOCOMP": "Rio Congonhas", "NOORIGINAL": "Rio Congonhas", "COCDADESAG": "8642", "NUTRJUS": 23962, "NUORDEMCDA": 5, "NUNIVOTTO": 6, "NUNIVOTCDA": 5, "NUSTRAHLER": 2, "DEDOMINIAL": "Estadual", "DSVERSAO": "BHO bho_2017_v_01_05_50k de 2018-06-22"}}, {"type": "Feature", "id": 70916, "geometry": {"type": "LineString", "coordinates": [[-50.70143150000001, -23.473566299309987], [-50.7014403, -23.47239649931], [-50.701385500000015, -23.471994499309996], [-50.701243499999975, -23.47167799931], [-50.70074410000001, -23.470909299310048], [-50.70001610000003, -23.46967489931002], [-50.69998129999999, -23.469399299310087], [-50.7001715, -23.469164899310066], [-50.70055259999998, -23.468975899310053], [-50.700929299999984, -23.46829469931009], [-50.700991699999975, -23.468019299310075], [-50.70094979999998, -23.467287499310107], [-50.70109389999998, -23.46665099931014], [-50.70185839999999, -23.465518799310136], [-50.70220669999998, -23.464688499310196], [-50.702281500000026, -23.464056299310172], [-50.70225240000001, -23.463645299310183], [-50.701947099999984, -23.461738799310215], [-50.7019818, -23.46124199931028], [-50.70183209999998, -23.46061399931028], [-50.70164410000001, -23.458757399310326], [-50.70148460000002, -23.458070599310304], [-50.701186699999994, -23.457238999310345], [-50.7008942, -23.45642549931037], [-50.700081099999984, -23.45446829931037], [-50.699683300000004, -23.453636499310427], [-50.69964370000003, -23.45355509931044], [-50.69944609999998, -23.453279199310423], [-50.698970599999996, -23.45273639931042], [-50.6984726, -23.452437299310436], [-50.698246200000035, -23.452423299310468], [-50.69767109999998, -23.452381599310463], [-50.69744850000001, -23.452317899310472], [-50.69694220000002, -23.45189239931048], [-50.696521700000005, -23.45168829931046], [-50.69622450000003, -23.451651599310456], [-50.69553100000002, -23.451699899310455], [-50.69505529999998, -23.451536399310477], [-50.69483869999999, -23.45125599931047], [-50.69415470000001, -23.44989069931053], [-50.693247499999984, -23.44842559931054], [-50.693119000000024, -23.447910499310524], [-50.69305939999998, -23.44698449931055], [-50.69295490000002, -23.446654599310566], [-50.69263319999999, -23.446297099310566], [-50.69218799999999, -23.446187899310566], [-50.69176729999998, -23.44605609931061], [-50.69144970000002, -23.445797999310617], [-50.69097749999998, -23.444979599310617], [-50.69080480000002, -23.44475789931063], [-50.69040910000001, -23.444431999310623], [-50.690050299999996, -23.444277699310614], [-50.68904800000001, -23.444022799310655], [-50.68851000000001, -23.443795899310636], [-50.68795039999998, -23.443185099310643], [-50.68770119999999, -23.443017499310645], [-50.68695960000003, -23.442763099310632], [-50.68673589999998, -23.442609099310694], [-50.68652009999999, -23.44230149931066], [-50.68640820000002, -23.44200769931065], [-50.68642319999998, -23.44189929931066], [-50.6864855, -23.441429799310672], [-50.686300700000004, -23.44088289931073], [-50.6863828, -23.44033209931069], [-50.68637100000001, -23.439875899310728], [-50.68627300000003, -23.439419499310723], [-50.68600240000001, -23.438687299310775], [-50.68600309999999, -23.438416299310724], [-50.68612839999997, -23.43795589931078], [-50.68637039999999, -23.43753189931079], [-50.68635239999998, -23.437369199310755], [-50.68631529999999, -23.437283299310778], [-50.685914000000025, -23.437020599310774], [-50.685907499999985, -23.436894099310805], [-50.68608710000001, -23.436487999310796], [-50.686071500000025, -23.43639309931078], [-50.686033500000015, -23.436162699310824], [-50.685224000000005, -23.435420399310825], [-50.685107000000016, -23.43521239931084], [-50.68500260000002, -23.43480119931082], [-50.68465789999999, -23.434150099310866], [-50.684738900000006, -23.43382959931089], [-50.68465020000002, -23.433048099310884], [-50.6847201, -23.432944399310877], [-50.68494609999999, -23.43261059931087], [-50.684978, -23.432298999310902], [-50.68478099999999, -23.43178379931092], [-50.684268799999984, -23.431041999310906], [-50.68404120000003, -23.430585399310917], [-50.683955200000014, -23.430160699310935], [-50.68385919999997, -23.428904899310997], [-50.6838108, -23.428389999310955], [-50.6838323, -23.427328699310987], [-50.68387000000001, -23.426917699311005], [-50.68404129999999, -23.425066399311053], [-50.684135000000026, -23.424795599311047], [-50.684309299999995, -23.42429009931108], [-50.684553600000015, -23.423942799311106], [-50.685011599999996, -23.423288799311123], [-50.685096199999975, -23.422927699311103], [-50.685142600000006, -23.42272909931114], [-50.68502560000002, -23.42252559931108], [-50.684617800000005, -23.422176999311098], [-50.68446990000001, -23.421833499311116], [-50.68437249999999, -23.421377099311115], [-50.684045500000025, -23.42074869931115], [-50.68393509999999, -23.420364499311166], [-50.683536000000004, -23.419934699311167], [-50.68328709999997, -23.419663199311184], [-50.682891900000016, -23.41912939931117], [-50.68211320000001, -23.418360099311176], [-50.68202769999999, -23.418278599311222], [-50.68173719999999, -23.4179798993112], [-50.68162030000002, -23.41777189931121], [-50.68144940000002, -23.41682759931122], [-50.6811882, -23.41628969931125], [-50.681176300000004, -23.416181199311236], [-50.68112280000002, -23.415720399311265], [-50.681099500000016, -23.415517199311285], [-50.68084670000002, -23.4150785993113], [-50.68087850000001, -23.414825699311276], [-50.68115169999999, -23.414437799311273], [-50.681207900000004, -23.414221199311285], [-50.68113440000002, -23.413986199311314], [-50.68073279999999, -23.413601399311325], [-50.68069009999999, -23.413294199311323], [-50.68074410000003, -23.41272079931133], [-50.68056660000003, -23.41249909931133], [-50.68044520000001, -23.412349799311354], [-50.680166499999984, -23.41226339931132], [-50.679442499999986, -23.41236129931134], [-50.67877320000002, -23.412657999311357], [-50.67840180000002, -23.412729499311354], [-50.67800560000001, -23.412638399311334], [-50.677870299999995, -23.412421299311355], [-50.677866600000016, -23.411910899311362], [-50.67758279999998, -23.410876099311373], [-50.677410800000025, -23.4104195993114], [-50.67739310000002, -23.41016659931142], [-50.677605599999985, -23.40929089931139], [-50.677507400000025, -23.408911299311423], [-50.6771842, -23.408273799311452], [-50.67719460000001, -23.408016399311446], [-50.677560099999994, -23.40759709931142], [-50.67804990000002, -23.407187099311454], [-50.67817409999998, -23.406961599311458], [-50.67811310000002, -23.40664079931146], [-50.6778539, -23.406260799311468], [-50.67778659999999, -23.406012299311474], [-50.6778488, -23.405885999311494], [-50.6782389, -23.405701599311477], [-50.67840749999999, -23.40526379931151], [-50.67860530000002, -23.4051919993115], [-50.6794362, -23.405085299311512], [-50.67958640000001, -23.404972699311486], [-50.67968589999999, -23.4047876993115], [-50.67943730000002, -23.404127799311556], [-50.67894990000002, -23.403566799311573], [-50.678255099999994, -23.402522099311557], [-50.67789549999998, -23.401979299311574], [-50.677864899999975, -23.401735399311587], [-50.67825590000001, -23.401456199311575], [-50.678249300000004, -23.401374899311598], [-50.67794099999997, -23.401125799311586], [-50.67786669999998, -23.400994699311614], [-50.67789210000001, -23.400895399311633], [-50.67822080000002, -23.400530199311607], [-50.678308200000004, -23.400313599311616], [-50.67809940000001, -23.399635699311613], [-50.67768619999998, -23.399020599311623], [-50.677507299999995, -23.398609299311623], [-50.67733590000001, -23.397886299311658], [-50.67728740000002, -23.397466199311673], [-50.677325499999995, -23.39715459931172], [-50.677592600000025, -23.39672159931167], [-50.67788630000001, -23.396460199311687], [-50.67843549999998, -23.39596909931172], [-50.679552300000005, -23.394973199311718], [-50.680097699999976, -23.39456789931177], [-50.681039699999985, -23.394023299311776], [-50.68124449999999, -23.393815999311766], [-50.68136240000001, -23.3936309993118], [-50.681350699999996, -23.39338259931177], [-50.681202600000006, -23.39316999931177], [-50.680721000000005, -23.39277609931177], [-50.680585300000025, -23.39246869931179], [-50.68054510000002, -23.392143499311786], [-50.6806014, -23.39187709931179], [-50.6807493, -23.391177299311796], [-50.680904199999986, -23.39110539931184], [-50.681238800000024, -23.391097099311846], [-50.68181370000003, -23.391351099311827], [-50.682046000000014, -23.39141479931182], [-50.68254680000002, -23.39147459931179], [-50.68349039999998, -23.391250699311822], [-50.68365829999999, -23.39115159931182], [-50.683961099999976, -23.39084969931182], [-50.684920799999986, -23.39033219931183], [-50.685079900000005, -23.39003439931184], [-50.68517659999997, -23.389483599311877], [-50.68511419999999, -23.388986699311854], [-50.684924900000006, -23.3885752993119], [-50.68435419999997, -23.388325799311907], [-50.68397349999998, -23.388216599311907], [-50.683719800000006, -23.38816189931189], [-50.68321309999999, -23.387776999311928], [-50.6827379, -23.38747339931189], [-50.682293500000014, -23.38736409931193], [-50.68178580000001, -23.387417299311892], [-50.68146789999997, -23.38760629931192], [-50.68105550000002, -23.387691299311875], [-50.68083339999999, -23.3874423993119], [-50.68070749999998, -23.387166699311944], [-50.6808044, -23.38656169931195], [-50.680931999999984, -23.386150899311957], [-50.6808575, -23.385834599311956], [-50.68068629999999, -23.385509099311925], [-50.68046329999998, -23.385178899311985], [-50.68022289999999, -23.38491199931195], [-50.679825300000005, -23.384472999311992], [-50.679445799999996, -23.384088399311985], [-50.67909850000001, -23.383261199311985], [-50.678940599999976, -23.382795599312022], [-50.678973299999996, -23.38219949931204], [-50.678943000000004, -23.38180649931202], [-50.678690399999994, -23.381282099312067], [-50.678563399999966, -23.380961199312058], [-50.67818490000002, -23.38045909931206], [-50.67793180000001, -23.38012889931206], [-50.677488400000016, -23.379906599312104], [-50.676821399999994, -23.38004529931208], [-50.6765352, -23.380261499312073], [-50.6763446, -23.38045529931205], [-50.67596320000002, -23.380617099312055], [-50.675478199999986, -23.380855399312022], [-50.675317600000035, -23.38074219931205], [-50.67498280000001, -23.380628599312082], [-50.674652200000025, -23.380533099312043], [-50.674285699999984, -23.380568399312075], [-50.67388119999998, -23.380666999312076], [-50.67341829999998, -23.380656999312045], [-50.67329669999998, -23.380611499312046], [-50.67313419999999, -23.380507299312047], [-50.672998800000016, -23.38039859931204], [-50.672823199999975, -23.380154399312058], [-50.67281029999998, -23.379942099312075], [-50.67279719999999, -23.37980199931206], [-50.672824699999985, -23.379553699312066], [-50.673164299999996, -23.379229199312086], [-50.67407309999999, -23.37900529931212], [-50.67505010000002, -23.378338899312123], [-50.67526800000002, -23.378036699312112], [-50.675307299999986, -23.377729699312106], [-50.67540470000001, -23.377653099312106], [-50.67594380000003, -23.377509699312156], [-50.67608610000002, -23.377356499312157], [-50.67623600000002, -23.376841899312133], [-50.67635999999998, -23.376638899312134], [-50.67677090000001, -23.37641389931214], [-50.677313500000025, -23.37635179931217], [-50.67793390000003, -23.37722479931216], [-50.67853539999998, -23.37788539931214], [-50.67920079999999, -23.378356499312105], [-50.67983529999998, -23.37852039931213], [-50.680216299999984, -23.378272799312104], [-50.68040710000002, -23.377997699312097], [-50.680694000000024, -23.37772719931211], [-50.68104260000001, -23.377700899312114], [-50.68136040000002, -23.377561499312144], [-50.68180499999999, -23.377341099312158], [-50.68231350000002, -23.377233699312114], [-50.682884899999976, -23.377099399312165], [-50.6835251, -23.37690199931212], [-50.683376899999985, -23.37675259931212], [-50.6832791, -23.376458899312144], [-50.68356419999998, -23.375908399312177], [-50.683589799999986, -23.37569169931217], [-50.68351639999998, -23.375131499312193], [-50.683233799999975, -23.374412799312218], [-50.68278479999998, -23.373178899312258], [-50.68245969999998, -23.372044599312236], [-50.68213509999998, -23.37070709931229], [-50.681994799999984, -23.36978539931231], [-50.68209480000002, -23.369370099312345], [-50.682405399999986, -23.368905599312335], [-50.6828269, -23.36859929931237], [-50.68342790000003, -23.36836119931231], [-50.68352040000002, -23.36829359931235], [-50.683607800000004, -23.368085999312353], [-50.683460000000025, -23.36776049931232], [-50.68331169999998, -23.367593099312376], [-50.68235390000002, -23.36716659931238], [-50.68184789999998, -23.366528799312402], [-50.681693300000006, -23.36645169931241], [-50.681445699999976, -23.36641959931235], [-50.681334400000026, -23.366468999312378], [-50.68101519999999, -23.366942599312384], [-50.68084900000002, -23.366910599312348], [-50.680283299999985, -23.366381099312385], [-50.67973940000002, -23.3659960993124], [-50.6797775, -23.365688999312372], [-50.679604299999994, -23.36542669931241], [-50.679295700000004, -23.36534479931241], [-50.678627199999994, -23.365424699312406], [-50.67829339999997, -23.36538339931239], [-50.67777419999999, -23.36512489931242], [-50.67717529999999, -23.3644370993124], [-50.67678769999998, -23.36368209931245], [-50.676368000000025, -23.363261199312458], [-50.67609499999998, -23.363102499312483], [-50.675874000000015, -23.362975599312485], [-50.67526170000002, -23.362762099312466], [-50.6748298, -23.362372799312475], [-50.67417449999999, -23.361987499312473], [-50.67403949999999, -23.361734299312513], [-50.674107900000024, -23.3614950993125], [-50.67471519999998, -23.36095889931252], [-50.67467900000003, -23.360755599312515], [-50.67447550000002, -23.360447999312537], [-50.67440140000003, -23.360217499312487], [-50.67453920000002, -23.35967129931254], [-50.674981100000025, -23.35850699931253], [-50.67514619999997, -23.358258899312577], [-50.67520510000003, -23.358168699312593], [-50.675701000000004, -23.357672899312597], [-50.67580670000001, -23.357433799312602], [-50.67583480000002, -23.357198999312565], [-50.67577360000002, -23.3567336993126], [-50.67583789999998, -23.356435699312634], [-50.67587040000001, -23.356160299312606], [-50.67587229999997, -23.355360899312622], [-50.67584160000001, -23.354922699312617], [-50.6753033, -23.35448349931266], [-50.674796300000025, -23.354288199312638], [-50.67444769999997, -23.354066199312637], [-50.67429019999997, -23.353681999312656], [-50.67425930000001, -23.353325099312684], [-50.67419640000003, -23.353022399312664], [-50.674132499999985, -23.35268799931269], [-50.674133900000015, -23.352611199312697], [-50.67451590000002, -23.352146799312727], [-50.67461229999998, -23.3517585993127], [-50.67445440000001, -23.351293099312745], [-50.6742825, -23.350822999312726], [-50.67457910000002, -23.35082359931274], [-50.67505080000001, -23.3509419993127], [-50.67517270000002, -23.350879099312714], [-50.67563680000001, -23.350879999312742], [-50.6764589, -23.35122049931274], [-50.676681599999995, -23.3512028993127], [-50.676898300000005, -23.35106779931274], [-50.6770813, -23.349776499312775], [-50.677137800000025, -23.349383699312742], [-50.67707760000002, -23.348764799312807], [-50.676929400000006, -23.348597399312794], [-50.67649019999999, -23.348691299312758], [-50.67630459999998, -23.348568999312782], [-50.67627390000001, -23.34836569931277], [-50.676448799999996, -23.34785119931278], [-50.67643670000001, -23.347552999312818], [-50.676329099999975, -23.34752119931282], [-50.67607829999997, -23.347556799312812], [-50.6758681, -23.34749319931278], [-50.675213600000006, -23.34685499931283], [-50.67491749999999, -23.346682699312797], [-50.674169000000006, -23.346486999312855], [-50.673983700000015, -23.346500099312845], [-50.67343840000001, -23.346720299312835], [-50.672943599999996, -23.34679149931282], [-50.6724982, -23.346898999312824], [-50.6721579, -23.346789899312803], [-50.67198530000002, -23.346631499312828], [-50.67171430000002, -23.346165699312817], [-50.671372399999996, -23.345966299312835], [-50.67113669999998, -23.34584829931284], [-50.67059219999999, -23.34548589931288], [-50.67029400000001, -23.34517359931286], [-50.67027330000002, -23.344848399312852], [-50.670211800000004, -23.344270099312894], [-50.6702755, -23.343967699312895], [-50.6704666, -23.343859699312894], [-50.670815800000014, -23.34380169931286], [-50.67110150000001, -23.343472599312882], [-50.671103000000016, -23.342871899312886], [-50.67116709999999, -23.34265069931289], [-50.67145360000001, -23.342294499312914], [-50.6723111, -23.341885299312942], [-50.672914400000025, -23.341719499312948], [-50.673803400000004, -23.34147289931293], [-50.67431110000002, -23.34133849931295], [-50.67510429999999, -23.341312999312965], [-50.67564349999998, -23.34128709931294], [-50.676150800000016, -23.341396499312914], [-50.6765001, -23.341342999312936], [-50.676944799999994, -23.34098709931296], [-50.6771986, -23.340960599312965], [-50.67757949999998, -23.340934299312963], [-50.678055900000004, -23.340632599312954], [-50.67872360000001, -23.340082999312965], [-50.679073399999986, -23.339808199312973], [-50.679359799999986, -23.339451999312985], [-50.679677500000025, -23.339041599312967], [-50.679996200000005, -23.338437099313026], [-50.68009280000001, -23.337944999313006], [-50.6800619, -23.337560999313023], [-50.679904599999986, -23.337172299313064], [-50.679620399999976, -23.336625199313062], [-50.679050099999984, -23.336294299313085], [-50.67857479999997, -23.336153399313066], [-50.6780986, -23.33612529931305], [-50.677908899999984, -23.335908099313052], [-50.6780048, -23.335465699313065], [-50.67825990000001, -23.335163599313073], [-50.67883119999999, -23.335002199313102], [-50.67921239999999, -23.334646199313116], [-50.67930869999998, -23.334262499313127], [-50.67930960000001, -23.333878599313113], [-50.67920550000002, -23.33346279931314], [-50.67908840000001, -23.333340599313114], [-50.67817650000001, -23.331721899313152], [-50.677880200000004, -23.33133739931317], [-50.67766999999998, -23.331291799313146], [-50.67719959999999, -23.33143979931317], [-50.676847500000015, -23.331411999313172], [-50.676756599999976, -23.331316999313184], [-50.67665069999998, -23.33089669931316], [-50.6765148, -23.3306750993132], [-50.67598359999999, -23.330421099313224], [-50.67590369999999, -23.330330599313214], [-50.67584160000002, -23.3302265993132], [-50.67584210000001, -23.33002789931321], [-50.676133499999985, -23.3298432993132], [-50.67615230000002, -23.32966269931318], [-50.6758433, -23.329512999313238], [-50.67574509999997, -23.32941799931319], [-50.675732700000026, -23.329259899313243], [-50.67590680000001, -23.32906599931323], [-50.67636449999998, -23.328886299313243], [-50.676680499999975, -23.328652099313246], [-50.6767749, -23.32807419931325], [-50.67658260000002, -23.327436999313235]]}, "properties": {"NUCOMPTREC": 23.813000000000002, "NUDISTBACT": 2767.6890000000003, "NUDISTCDAG": 0, "NUAREACONT": 100.262, "NUAREAMONT": 100.262, "NUDISTBACC": 2767.6890000000003, "NUAREABACC": 100.262, "NUCOMPCDA": 23.813000000000002, "Shape__Length": 0, "OBJECTID": 70916, "ID": 23977, "COTRECHO": 23977, "COCURSODAG": "864226", "COBACIA": "864226", "NOGENERICO": "Ribeirão", "NOLIGACAO": "da", "NOESPECIF": "Porteira", "NORIOCOMP": "Ribeirão da Porteira", "NOORIGINAL": "Ribeirão da Porteira", "COCDADESAG": "86422", "NUTRJUS": 23962, "NUORDEMCDA": 6, "NUNIVOTTO": 6, "NUNIVOTCDA": 6, "NUSTRAHLER": 1, "DEDOMINIAL": "Estadual", "DSVERSAO": "BHO bho_2017_v_01_05_50k de 2018-06-22"}}]}