{"type": "FeatureCollection", "features": [{"type": "Feature", "id": 69675, "geometry": {"type": "Polygon", "coordinates": [[[-50.70512910000003, -23.480263099309816], [-50.70559939999998, -23.479478099309826], [-50.705928099999994, -23.47732779930989], [-50.70593100000002, -23.47601329930989], [-50.705546500000025, -23.47416039930996], [-50.70508219999999, -23.47319039931], [-50.70566189999999, -23.472338599309992], [-50.707146000000016, -23.47243219931002], [-50.70843350000001, -23.47330329930998], [-50.710165500000016, -23.474052799309945], [-50.711722699999996, -23.474170199309963], [-50.71270850000001, -23.47384429930996], [-50.71444650000001, -23.47182189931002], [-50.71456389999997, -23.470969199310037], [-50.71364510000001, -23.468302299310096], [-50.71307180000002, -23.466168999310103], [-50.71422999999999, -23.464998499310138], [-50.71488740000001, -23.463611199310197], [-50.71539089999999, -23.462548599310207], [-50.71617909999998, -23.46013939931028], [-50.716963299999975, -23.45729929931033], [-50.717602699999986, -23.45498329931037], [-50.71992060000002, -23.45178919931047], [-50.72200550000002, -23.44944749931053], [-50.72374100000002, -23.448384499310514], [-50.72655839999998, -23.44834789931052], [-50.73044329999999, -23.448182999310525], [-50.73425800000001, -23.447443199310563], [-50.73930289999998, -23.445201799310617], [-50.7422378, -23.44393849931064], [-50.7453438, -23.441838499310695], [-50.74791090000002, -23.44000109931074], [-50.74973399999999, -23.43860689931077], [-50.750952299999994, -23.43610029931083], [-50.75698560000001, -23.436744499310766], [-50.75799699999999, -23.436979399310776], [-50.76074060000002, -23.43761679931078], [-50.76287159999998, -23.437292299310812], [-50.76642800000002, -23.440359899310696], [-50.768481099999974, -23.440931599310698], [-50.77320400000002, -23.44188619931068], [-50.77436269999998, -23.442471499310678], [-50.77546160000003, -23.44302659931065], [-50.777971799999996, -23.446335499310557], [-50.77904330000001, -23.44677209931054], [-50.7800064, -23.44716459931057], [-50.781630600000035, -23.447586699310534], [-50.782734600000026, -23.448187899310536], [-50.783253, -23.449148099310516], [-50.783381299999974, -23.450167699310505], [-50.78246930000001, -23.451425799310442], [-50.782526800000035, -23.45246279931042], [-50.783451000000014, -23.453251099310418], [-50.78442439999998, -23.453986999310388], [-50.78473869999999, -23.45488659931039], [-50.7848469, -23.45588719931037], [-50.7855738, -23.458168699310317], [-50.787004799999984, -23.460427299310247], [-50.787684300000016, -23.46235719931021], [-50.7882659, -23.46308719931021], [-50.789257599999985, -23.46377919931016], [-50.790924399999994, -23.464652199310162], [-50.792168100000026, -23.465487199310136], [-50.7929565, -23.46609629931013], [-50.79461679999997, -23.467911499310105], [-50.79573399999999, -23.469404199310052], [-50.79637450000001, -23.470364599310024], [-50.79596989999999, -23.47191569931002], [-50.79476140000003, -23.473027299309987], [-50.79377299999999, -23.473700599309932], [-50.79314720000002, -23.47489249930996], [-50.79329480000001, -23.4755551993099], [-50.79311000000001, -23.47676939930991], [-50.793583700000006, -23.477883099309857], [-50.79438649999997, -23.47899739930987], [-50.794750599999986, -23.480043499309843], [-50.7951501, -23.481798099309774], [-50.79636240000003, -23.483041399309744], [-50.79687289999998, -23.48381279930975], [-50.79761960000002, -23.484402199309695], [-50.79838669999998, -23.484863799309732], [-50.79960670000003, -23.485109699309724], [-50.798591800000004, -23.487162499309665], [-50.79730990000002, -23.48837519930964], [-50.79665030000001, -23.489251399309612], [-50.796175699999985, -23.491061199309566], [-50.79605040000002, -23.492405599309535], [-50.79505119999999, -23.492049599309528], [-50.7941186, -23.492022999309576], [-50.79291180000002, -23.491970799309545], [-50.79041569999998, -23.491942199309538], [-50.78945520000001, -23.492219199309574], [-50.78830099999999, -23.49358379930953], [-50.78728480000001, -23.494391999309496], [-50.78610500000002, -23.49454209930949], [-50.78462380000002, -23.494540099309493], [-50.78347609999997, -23.494821199309477], [-50.783279100000016, -23.49491769930946], [-50.78231790000001, -23.495574199309498], [-50.781282799999985, -23.49613969930947], [-50.7803146, -23.49612789930944], [-50.7788334, -23.496100499309463], [-50.77735239999998, -23.49589599930948], [-50.77543229999998, -23.49589329930944], [-50.77370330000002, -23.49639679930947], [-50.772138400000024, -23.497203999309438], [-50.7709557, -23.49902379930937], [-50.769549100000006, -23.50055079930934], [-50.767121299999985, -23.500707099309352], [-50.765939300000014, -23.50073739930935], [-50.76417350000002, -23.500782599309336], [-50.76217980000001, -23.500539699309346], [-50.76008489999999, -23.5002230993094], [-50.7589729, -23.500054999309352], [-50.75645780000002, -23.50053089930936], [-50.75292030000003, -23.501068199309376], [-50.750993300000005, -23.501881499309366], [-50.749606599999986, -23.501639399309326], [-50.74796070000003, -23.500917099309333], [-50.74579319999998, -23.500993599309353], [-50.74388440000001, -23.50171009930937], [-50.742890100000004, -23.50184949930933], [-50.74162960000002, -23.502026199309313], [-50.739028099999985, -23.50234169930932], [-50.7378137, -23.502659399309348], [-50.73677300000003, -23.50281759930932], [-50.73555920000001, -23.502815599309326], [-50.73443259999999, -23.502573799309307], [-50.73313150000001, -23.502891399309323], [-50.73156940000001, -23.503608299309285], [-50.72992169999998, -23.503845299309308], [-50.726424699999995, -23.503461899309286], [-50.72385300000002, -23.503674799309287], [-50.7223803, -23.503112499309292], [-50.72030059999997, -23.50262899930933], [-50.71865380000002, -23.502386199309306], [-50.716833199999996, -23.50238289930931], [-50.71371199999999, -23.502377199309347], [-50.71171800000002, -23.502373499309293], [-50.70813279999999, -23.50188569930934], [-50.706086500000026, -23.50170409930932], [-50.705596000000014, -23.500508099309357], [-50.70453149999997, -23.49987589930938], [-50.70368500000001, -23.499521399309376], [-50.70262070000001, -23.498813599309408], [-50.70155590000002, -23.498332599309443], [-50.70062810000002, -23.497675499309427], [-50.698908700000004, -23.496613499309476], [-50.697513300000026, -23.496094999309484], [-50.69649279999999, -23.49613789930947], [-50.69552140000002, -23.496001499309443], [-50.69528100000002, -23.49492559930947], [-50.696019299999996, -23.493769899309527], [-50.6975817, -23.492853499309568], [-50.69869490000002, -23.492372399309566], [-50.700533699999994, -23.49141189930957], [-50.702272100000016, -23.489389699309616], [-50.702393900000004, -23.48661809930966], [-50.70174780000002, -23.484259299309752], [-50.7032605, -23.48264029930978], [-50.70416920000003, -23.48180559930976], [-50.70512910000003, -23.480263099309816]]]}, "properties": {"NUAREACONT": 52.338, "Shape__Area": 0, "Shape__Length": 0, "OBJECTID": 69675, "IDBACIA": 69897, "COTRECHO": 63682, "COCURSODAG": "86423424", "COBACIA": "86423424", "NUORDEMCDA": 7, "NUNIVOTTO1": "8", "NUNIVOTTO2": "86", "NUNIVOTTO3": "864", "NUNIVOTTO4": "8642", "NUNIVOTTO5": "86423", "NUNIVOTTO6": "864234", "NUNIVOTTO": 8, "DSVERSAO": "BHO bho_2017_v_01_05_50k de 2018-06-22"}}, {"type": "Feature", "id": 46180, "geometry": {"type": "Polygon", "coordinates": [[[-50.70174780000002, -23.484259299309752], [-50.700479900000005, -23.483803999309767], [-50.6992621, -23.483261899309753], [-50.69877739999998, -23.48200169930979], [-50.6983922, -23.47984209930982], [-50.69793720000001, -23.47828539930986], [-50.697037500000015, -23.47520689930992], [-50.696069799999975, -23.471966799310014], [-50.695000400000026, -23.470570399310027], [-50.69392670000002, -23.46983789931007], [-50.6910775, -23.468700199310074], [-50.68822860000001, -23.468405099310072], [-50.686845500000004, -23.46683879931013], [-50.68623489999999, -23.464421099310147], [-50.68454400000002, -23.462711899310197], [-50.683621500000015, -23.461857199310234], [-50.682080999999975, -23.461711899310245], [-50.67869189999999, -23.46142059931024], [-50.67638449999998, -23.45960079931026], [-50.675462100000004, -23.458997499310307], [-50.677167, -23.4548787993104], [-50.677483400000035, -23.45146789931048], [-50.675794499999995, -23.4490478993105], [-50.673795900000016, -23.447337999310562], [-50.67214610000001, -23.446052499310593], [-50.66794349999998, -23.446472799310556], [-50.66435560000002, -23.44814959931056], [-50.6629044, -23.443657099310634], [-50.662598100000025, -23.442708899310674], [-50.661627399999986, -23.441027699310713], [-50.6622994, -23.438524899310757], [-50.66306789999999, -23.43683299931077], [-50.66405049999997, -23.43377679931084], [-50.663854800000024, -23.4325366993109], [-50.666397399999994, -23.430903399310903], [-50.66874130000003, -23.429169299310978], [-50.669277400000006, -23.428090399310964], [-50.66887680000003, -23.42695069931104], [-50.6676129, -23.42175999931114], [-50.66687189999999, -23.41871629931123], [-50.66695279999999, -23.413685699311287], [-50.66722199999998, -23.412040599311364], [-50.667197900000026, -23.410103099311407], [-50.6674026, -23.407772599311425], [-50.667163899999984, -23.40599529931146], [-50.66630980000002, -23.404190899311537], [-50.6648414, -23.403030299311563], [-50.6643504, -23.402067899311593], [-50.66436169999997, -23.401035399311613], [-50.6658392, -23.398630399311656], [-50.66570519999999, -23.397440999311698], [-50.665323600000015, -23.39655469931173], [-50.66480589999997, -23.395339299311708], [-50.66480869999998, -23.394226099311783], [-50.66546859999999, -23.393392699311775], [-50.666005600000005, -23.392699399311816], [-50.66503399999999, -23.391848499311788], [-50.66426769999998, -23.391391499311812], [-50.66366629999998, -23.390732399311826], [-50.66328629999998, -23.389289499311886], [-50.6633038, -23.38807429931192], [-50.6633195, -23.386987399311923], [-50.66370729999999, -23.385343799311944], [-50.6642334, -23.383245099312013], [-50.66470290000001, -23.381803999312023], [-50.665496399999995, -23.38006159931205], [-50.667698900000005, -23.378344399312127], [-50.66789299999999, -23.37745939931216], [-50.66827970000003, -23.37622049931215], [-50.668301499999984, -23.375320999312166], [-50.66781939999998, -23.373967899312234], [-50.66637140000001, -23.372193899312272], [-50.666181900000026, -23.371257399312256], [-50.66643119999997, -23.370195399312294], [-50.66711989999999, -23.3687547993123], [-50.667863899999986, -23.367137199312364], [-50.66880049999998, -23.365165899312423], [-50.669350399999985, -23.364433299312395], [-50.66839279999999, -23.363824099312424], [-50.667699000000034, -23.36304259931248], [-50.6676382, -23.36136339931251], [-50.66660510000003, -23.358902399312523], [-50.66663970000002, -23.356812699312567], [-50.666161699999975, -23.354403799312653], [-50.66623040000002, -23.352904799312654], [-50.66636599999998, -23.350626299312726], [-50.66552460000003, -23.349425099312775], [-50.6633845, -23.348161199312788], [-50.662088900000015, -23.346839099312827], [-50.66130140000001, -23.345579399312868], [-50.662876400000016, -23.343602399312903], [-50.66430889999998, -23.3421662993129], [-50.66529170000002, -23.341363399312925], [-50.666066, -23.34073079931298], [-50.666784600000035, -23.33905319931302], [-50.6669392, -23.338231299313026], [-50.667179400000016, -23.336955099313062], [-50.66861410000002, -23.334559399313086], [-50.66995539999999, -23.334099899313127], [-50.67128050000002, -23.332994399313147], [-50.67314099999999, -23.331045399313172], [-50.673884100000016, -23.32965549931321], [-50.67517320000002, -23.329025699313217], [-50.67649039999998, -23.328117599313234], [-50.67658260000002, -23.327436999313235], [-50.67777849999999, -23.32843489931323], [-50.67848780000003, -23.32895479931324], [-50.67950999999999, -23.329181699313217], [-50.680867200000016, -23.328893699313213], [-50.682238900000016, -23.328602599313257], [-50.68350620000001, -23.328155399313257], [-50.68506789999998, -23.326809199313292], [-50.685994300000004, -23.32636129931326], [-50.68711450000001, -23.326363599313257], [-50.688763600000016, -23.326573999313283], [-50.690655600000014, -23.327816099313253], [-50.69136609999998, -23.330148399313185], [-50.6918043, -23.3306189993132], [-50.693278000000014, -23.332681999313117], [-50.693530899999985, -23.333539399313125], [-50.69445000000002, -23.33453999931311], [-50.695440799999965, -23.336560499313077], [-50.69675030000002, -23.33838249931304], [-50.6998587, -23.342333099312942], [-50.70273830000002, -23.34543029931283], [-50.703560400000015, -23.348163099312817], [-50.706080299999996, -23.348315099312764], [-50.70838939999999, -23.348426099312775], [-50.71104480000002, -23.34853759931277], [-50.71370000000002, -23.348755699312814], [-50.71501219999999, -23.349921399312773], [-50.7164659, -23.35121279931271], [-50.71842459999999, -23.353241999312704], [-50.720732, -23.35420559931265], [-50.72396420000001, -23.354637799312627], [-50.72824000000002, -23.352973399312674], [-50.72921739999999, -23.35476339931267], [-50.73140599999999, -23.357432399312582], [-50.73386690000001, -23.36092759931252], [-50.73566490000001, -23.364262799312435], [-50.73704980000002, -23.3657292993124], [-50.73808489999999, -23.366825499312373], [-50.740274699999986, -23.36906799931234], [-50.74142510000002, -23.37130879931227], [-50.74084319999997, -23.373653199312187], [-50.73877010000001, -23.375781599312155], [-50.73794659999999, -23.378445899312084], [-50.737593600000025, -23.381750299312056], [-50.73796759999999, -23.384690899311973], [-50.73861770000002, -23.389801599311852], [-50.737798999999995, -23.394757099311732], [-50.73843529999999, -23.39791019931168], [-50.73870879999998, -23.402008199311588], [-50.73824050000002, -23.405205699311512], [-50.737889300000006, -23.407550599311424], [-50.7388072, -23.41075039931136], [-50.74249709999998, -23.414168099311286], [-50.7433939, -23.414528999311315], [-50.74618809999998, -23.41715919931125], [-50.747801200000026, -23.41940069931118], [-50.74918229999997, -23.422174799311115], [-50.74848150000003, -23.426224799311033], [-50.74677860000003, -23.42942669931098], [-50.748451800000005, -23.430782699310946], [-50.7490555, -23.431523199310927], [-50.750251100000014, -23.432989399310877], [-50.750808300000024, -23.434083099310858], [-50.750952299999994, -23.43610029931083], [-50.74973399999999, -23.43860689931077], [-50.74791090000002, -23.44000109931074], [-50.7453438, -23.441838499310695], [-50.7422378, -23.44393849931064], [-50.73930289999998, -23.445201799310617], [-50.73425800000001, -23.447443199310563], [-50.73044329999999, -23.448182999310525], [-50.72655839999998, -23.44834789931052], [-50.72374100000002, -23.448384499310514], [-50.72200550000002, -23.44944749931053], [-50.71992060000002, -23.45178919931047], [-50.717602699999986, -23.45498329931037], [-50.716963299999975, -23.45729929931033], [-50.71617909999998, -23.46013939931028], [-50.71539089999999, -23.462548599310207], [-50.71488740000001, -23.463611199310197], [-50.71422999999999, -23.464998499310138], [-50.71307180000002, -23.466168999310103], [-50.71364510000001, -23.468302299310096], [-50.71456389999997, -23.470969199310037], [-50.71444650000001, -23.47182189931002], [-50.71270850000001, -23.47384429930996], [-50.711722699999996, -23.474170199309963], [-50.710165500000016, -23.474052799309945], [-50.70843350000001, -23.47330329930998], [-50.707146000000016, -23.47243219931002], [-50.70566189999999, -23.472338599309992], [-50.70508219999999, -23.47319039931], [-50.705546500000025, -23.47416039930996], [-50.70593100000002, -23.47601329930989], [-50.705928099999994, -23.47732779930989], [-50.70559939999998, -23.479478099309826], [-50.70512910000003, -23.480263099309816], [-50.70416920000003, -23.48180559930976], [-50.7032605, -23.48264029930978], [-50.70174780000002, -23.484259299309752]]]}, "properties": {"NUAREACONT": 100.262, "Shape__Area": 0, "Shape__Length": 0, "OBJECTID": 46180, "IDBACIA": 47400, "COTRECHO": 23977, "COCURSODAG": "864226", "COBACIA": "864226", "NUORDEMCDA": 6, "NUNIVOTTO1": "8", "NUNIVOTTO2": "86", "NUNIVOTTO3": "864", "NUNIVOTTO4": "8642", "NUNIVOTTO5": "86422", "NUNIVOTTO6": "864226", "NUNIVOTTO": 8, "DSVERSAO": "BHO bho_2017_v_01_05_50k de 2018-06-22"}}, {"type": "Feature", "id": 10713, "geometry": {"type": "Polygon", "coordinates": [[[-50.56769070000001, -23.4988754993094], [-50.568414399999995, -23.497776499309417], [-50.5676343, -23.49683959930943], [-50.56699209999999, -23.495988099309432], [-50.5661662, -23.494966099309476], [-50.565340499999984, -23.493901599309538], [-50.56498629999998, -23.493118999309516], [-50.564847999999984, -23.491926499309535], [-50.56489140000002, -23.490373899309596], [-50.564944099999984, -23.48837719930963], [-50.56472209999998, -23.485827299309683], [-50.5646977, -23.484745499309692], [-50.56473329999999, -23.482428399309782], [-50.56487529999998, -23.481239099309775], [-50.5655888, -23.477982199309857], [-50.565994199999984, -23.477150699309867], [-50.567333599999984, -23.47604979930991], [-50.568348800000024, -23.47545769930992], [-50.56931730000002, -23.47507799930993], [-50.57079249999998, -23.474699699309916], [-50.57212870000001, -23.474533399309934], [-50.573636599999986, -23.474583999309942], [-50.57226989999998, -23.47359909930997], [-50.56941949999998, -23.47197669931003], [-50.56865169999998, -23.471374099310005], [-50.56726090000001, -23.47008859931004], [-50.56615900000003, -23.469023299310074], [-50.56537930000002, -23.46800149931012], [-50.565059899999994, -23.467108399310078], [-50.565247399999976, -23.466089199310137], [-50.56529629999999, -23.465239599310173], [-50.56446979999998, -23.464472499310165], [-50.56344680000001, -23.464068899310153], [-50.56178679999999, -23.462894499310217], [-50.560840299999995, -23.461743099310205], [-50.56010629999997, -23.46089129931027], [-50.5596486, -23.460040299310275], [-50.559377199999965, -23.45855239931028], [-50.559426299999984, -23.45761789931033], [-50.559450200000015, -23.45722179931035], [-50.55970830000001, -23.455919199310348], [-50.55998749999997, -23.455027699310396], [-50.56086829999998, -23.453288199310396], [-50.56264920000001, -23.450357299310497], [-50.56308849999999, -23.44906399931054], [-50.56366379999997, -23.447370399310575], [-50.56378569999998, -23.4458815993106], [-50.56382769999999, -23.444813599310585], [-50.56360000000001, -23.443163899310658], [-50.56290599999999, -23.441512999310675], [-50.562676700000004, -23.440365199310694], [-50.56182769999998, -23.43859419931076], [-50.561738100000014, -23.437782699310787], [-50.5620687, -23.436204999310775], [-50.56240939999998, -23.435010999310816], [-50.56290710000002, -23.43331549931086], [-50.56361190000002, -23.431644599310935], [-50.563953000000026, -23.430283299310926], [-50.56434439999998, -23.429400099310968], [-50.565444000000014, -23.428553599310966], [-50.567487700000015, -23.427426899311012], [-50.56904220000001, -23.426353999311036], [-50.5702627, -23.425353599311045], [-50.57086199999998, -23.4242319993111], [-50.5710722, -23.423276599311105], [-50.57146469999998, -23.422034899311157], [-50.57176190000002, -23.420629599311148], [-50.57235589999999, -23.418715299311177], [-50.57250640000001, -23.418074799311217], [-50.5733737, -23.416294699311234], [-50.57395029999998, -23.414145399311305], [-50.574108500000015, -23.41328539931133], [-50.5744024, -23.412262399311324], [-50.5750759, -23.41039629931139], [-50.57572729999998, -23.409131399311384], [-50.57643039999999, -23.40791439931142], [-50.57697730000001, -23.406935999311443], [-50.5774955, -23.405666899311523], [-50.57768809999999, -23.40462099931154], [-50.57793349999997, -23.40317739931155], [-50.57844239999997, -23.4008575993116], [-50.579103900000014, -23.39910669931164], [-50.57959169999998, -23.397705999311697], [-50.57980199999997, -23.39668679931169], [-50.580150100000026, -23.395795499311745], [-50.58087870000002, -23.39465029931177], [-50.58156910000003, -23.393994899311753], [-50.584131000000006, -23.39239649931181], [-50.58482350000003, -23.39176099931177], [-50.585447699999975, -23.390870399311822], [-50.585515499999985, -23.390027199311863], [-50.585319500000026, -23.38944599931189], [-50.584509000000025, -23.388455099311873], [-50.58414379999999, -23.38727109931193], [-50.58438210000003, -23.385586799311945], [-50.58440860000002, -23.384558799311954], [-50.583437100000026, -23.383487199311983], [-50.58188680000001, -23.382479199311987], [-50.58097889999999, -23.38160439931205], [-50.580416300000024, -23.380826199312057], [-50.57962429999998, -23.379515599312075], [-50.57927380000001, -23.37873889931208], [-50.57936319999999, -23.377651799312147], [-50.57977970000002, -23.37691199931215], [-50.58063759999999, -23.375790999312166], [-50.58146929999998, -23.374765599312184], [-50.581783200000025, -23.37373869931221], [-50.58095709999998, -23.372971699312224], [-50.580544799999984, -23.372188699312233], [-50.58096280000001, -23.371179299312267], [-50.58127489999999, -23.370725999312263], [-50.57998220000002, -23.37043059931231], [-50.5788177, -23.37002639931227], [-50.57825270000001, -23.369359799312296], [-50.5782011, -23.368518999312336], [-50.5781796, -23.367132799312348], [-50.57766579999998, -23.365888699312418], [-50.577203199999985, -23.364835799312385], [-50.57658700000002, -23.363232899312464], [-50.576073199999996, -23.361988699312466], [-50.575636799999984, -23.360816499312506], [-50.574942799999974, -23.359284999312536], [-50.57445360000003, -23.35844719931256], [-50.57404439999999, -23.35755849931257], [-50.5735803, -23.356317799312617], [-50.5733141, -23.355164199312625], [-50.57329349999998, -23.352689399312663], [-50.57331929999998, -23.349072199312793], [-50.57332239999999, -23.34797539931279], [-50.57342360000001, -23.347060899312797], [-50.573695499999985, -23.34624799931283], [-50.57430149999999, -23.345629099312845], [-50.575602300000014, -23.344547699312894], [-50.57653649999998, -23.343284599312906], [-50.57662240000002, -23.34194169931294], [-50.57645150000002, -23.34093669931294], [-50.576500099999976, -23.339329599312975], [-50.576547300000016, -23.338164499313017], [-50.5768314, -23.33752599931305], [-50.57777179999999, -23.33623899931304], [-50.580192599999975, -23.33529179931308], [-50.5810826, -23.33504249931307], [-50.58299929999998, -23.33436449931309], [-50.5841772, -23.33340329931311], [-50.58513640000001, -23.33280309931312], [-50.5860945, -23.332524399313158], [-50.588633300000026, -23.33172339931316], [-50.59062119999999, -23.330236299313224], [-50.5915488, -23.329542399313194], [-50.59298000000001, -23.329088799313247], [-50.594981099999984, -23.329254699313204], [-50.596025600000026, -23.329177099313195], [-50.5969212, -23.32891029931324], [-50.59778019999999, -23.32777529931324], [-50.59789430000001, -23.326734999313263], [-50.597916699999985, -23.32560899931328], [-50.597871399999974, -23.325134899313337], [-50.5976824, -23.323853599313345], [-50.59718650000002, -23.323021799313356], [-50.598185899999976, -23.322275599313393], [-50.599192500000015, -23.321781899313407], [-50.600160500000015, -23.321168299313406], [-50.60076079999999, -23.320404999313414], [-50.601557300000024, -23.31956209931342], [-50.60191759999998, -23.318198599313483], [-50.60118510000001, -23.31696449931349], [-50.60045059999999, -23.31645279931348], [-50.599532099999976, -23.315898099313547], [-50.59755610000002, -23.315170699313548], [-50.59649940000002, -23.314700699313555], [-50.59558190000001, -23.313848499313576], [-50.59548790000002, -23.313363299313565], [-50.595311700000025, -23.311935899313593], [-50.59605140000002, -23.31070559931365], [-50.596880999999996, -23.310197899313636], [-50.5978025, -23.30973289931363], [-50.5991841, -23.309226599313664], [-50.59992190000003, -23.308633599313687], [-50.600339599999984, -23.307402499313742], [-50.60061839999998, -23.306468499313738], [-50.60117300000002, -23.30562009931376], [-50.602140599999984, -23.305070199313757], [-50.603383699999995, -23.304733499313766], [-50.60446940000003, -23.304324199313786], [-50.606103899999994, -23.30392949931377], [-50.60883089999999, -23.3038762993138], [-50.6110504, -23.304147699313777], [-50.6160928, -23.30514219931375], [-50.619010899999985, -23.306408699313756], [-50.62163759999998, -23.30744949931374], [-50.62436810000003, -23.30794649931372], [-50.627967899999994, -23.307509599313704], [-50.63191599999999, -23.306169699313738], [-50.63389760000001, -23.30577839931376], [-50.63425460000002, -23.305725399313722], [-50.63824019999999, -23.308478199313708], [-50.641837099999975, -23.31096019931364], [-50.64499860000001, -23.312406599313576], [-50.648056999999994, -23.316056599313544], [-50.6502926, -23.317815699313453], [-50.65120760000002, -23.31796209931347], [-50.6538018, -23.316743999313523], [-50.654918899999984, -23.316693199313477], [-50.6566267, -23.316615299313522], [-50.65833120000002, -23.31661909931353], [-50.662080300000014, -23.31689699931348], [-50.663390900000024, -23.31723229931349], [-50.664562400000015, -23.31753199931352], [-50.66825899999997, -23.318268099313485], [-50.669167699999996, -23.31873389931344], [-50.671326099999995, -23.319840199313422], [-50.672831599999995, -23.321552499313388], [-50.67321320000002, -23.322303899313383], [-50.674043299999994, -23.323938699313334], [-50.6750126, -23.325919699313285], [-50.67658260000002, -23.327436999313235], [-50.67649039999998, -23.328117599313234], [-50.67517320000002, -23.329025699313217], [-50.673884100000016, -23.32965549931321], [-50.67314099999999, -23.331045399313172], [-50.67128050000002, -23.332994399313147], [-50.66995539999999, -23.334099899313127], [-50.66861410000002, -23.334559399313086], [-50.667179400000016, -23.336955099313062], [-50.6669392, -23.338231299313026], [-50.666784600000035, -23.33905319931302], [-50.666066, -23.34073079931298], [-50.66529170000002, -23.341363399312925], [-50.66430889999998, -23.3421662993129], [-50.662876400000016, -23.343602399312903], [-50.66130140000001, -23.345579399312868], [-50.662088900000015, -23.346839099312827], [-50.6633845, -23.348161199312788], [-50.66552460000003, -23.349425099312775], [-50.66636599999998, -23.350626299312726], [-50.66623040000002, -23.352904799312654], [-50.666161699999975, -23.354403799312653], [-50.66663970000002, -23.356812699312567], [-50.66660510000003, -23.358902399312523], [-50.6676382, -23.36136339931251], [-50.667699000000034, -23.36304259931248], [-50.66839279999999, -23.363824099312424], [-50.669350399999985, -23.364433299312395], [-50.66880049999998, -23.365165899312423], [-50.667863899999986, -23.367137199312364], [-50.66711989999999, -23.3687547993123], [-50.66643119999997, -23.370195399312294], [-50.666181900000026, -23.371257399312256], [-50.66637140000001, -23.372193899312272], [-50.66781939999998, -23.373967899312234], [-50.668301499999984, -23.375320999312166], [-50.66827970000003, -23.37622049931215], [-50.66789299999999, -23.37745939931216], [-50.667698900000005, -23.378344399312127], [-50.665496399999995, -23.38006159931205], [-50.66470290000001, -23.381803999312023], [-50.6642334, -23.383245099312013], [-50.66370729999999, -23.385343799311944], [-50.6633195, -23.386987399311923], [-50.6633038, -23.38807429931192], [-50.66328629999998, -23.389289499311886], [-50.66366629999998, -23.390732399311826], [-50.66426769999998, -23.391391499311812], [-50.66503399999999, -23.391848499311788], [-50.666005600000005, -23.392699399311816], [-50.66546859999999, -23.393392699311775], [-50.66480869999998, -23.394226099311783], [-50.66480589999997, -23.395339299311708], [-50.665323600000015, -23.39655469931173], [-50.66570519999999, -23.397440999311698], [-50.6658392, -23.398630399311656], [-50.66436169999997, -23.401035399311613], [-50.6643504, -23.402067899311593], [-50.6648414, -23.403030299311563], [-50.66630980000002, -23.404190899311537], [-50.667163899999984, -23.40599529931146], [-50.6674026, -23.407772599311425], [-50.667197900000026, -23.410103099311407], [-50.66722199999998, -23.412040599311364], [-50.66695279999999, -23.413685699311287], [-50.66687189999999, -23.41871629931123], [-50.6676129, -23.42175999931114], [-50.66887680000003, -23.42695069931104], [-50.669277400000006, -23.428090399310964], [-50.66874130000003, -23.429169299310978], [-50.666397399999994, -23.430903399310903], [-50.663854800000024, -23.4325366993109], [-50.66405049999997, -23.43377679931084], [-50.66306789999999, -23.43683299931077], [-50.6622994, -23.438524899310757], [-50.661627399999986, -23.441027699310713], [-50.662598100000025, -23.442708899310674], [-50.6629044, -23.443657099310634], [-50.66435560000002, -23.44814959931056], [-50.66794349999998, -23.446472799310556], [-50.67214610000001, -23.446052499310593], [-50.673795900000016, -23.447337999310562], [-50.675794499999995, -23.4490478993105], [-50.677483400000035, -23.45146789931048], [-50.677167, -23.4548787993104], [-50.675462100000004, -23.458997499310307], [-50.67638449999998, -23.45960079931026], [-50.67869189999999, -23.46142059931024], [-50.682080999999975, -23.461711899310245], [-50.683621500000015, -23.461857199310234], [-50.68454400000002, -23.462711899310197], [-50.68623489999999, -23.464421099310147], [-50.686845500000004, -23.46683879931013], [-50.68822860000001, -23.468405099310072], [-50.6910775, -23.468700199310074], [-50.69392670000002, -23.46983789931007], [-50.695000400000026, -23.470570399310027], [-50.696069799999975, -23.471966799310014], [-50.697037500000015, -23.47520689930992], [-50.69793720000001, -23.47828539930986], [-50.6983922, -23.47984209930982], [-50.69877739999998, -23.48200169930979], [-50.6992621, -23.483261899309753], [-50.700479900000005, -23.483803999309767], [-50.70174780000002, -23.484259299309752], [-50.702393900000004, -23.48661809930966], [-50.702272100000016, -23.489389699309616], [-50.700533699999994, -23.49141189930957], [-50.69869490000002, -23.492372399309566], [-50.6975817, -23.492853499309568], [-50.696019299999996, -23.493769899309527], [-50.69528100000002, -23.49492559930947], [-50.69552140000002, -23.496001499309443], [-50.69649279999999, -23.49613789930947], [-50.697513300000026, -23.496094999309484], [-50.698908700000004, -23.496613499309476], [-50.70062810000002, -23.497675499309427], [-50.70155590000002, -23.498332599309443], [-50.70262070000001, -23.498813599309408], [-50.70368500000001, -23.499521399309376], [-50.70453149999997, -23.49987589930938], [-50.705596000000014, -23.500508099309357], [-50.706086500000026, -23.50170409930932], [-50.70591830000001, -23.503054499309314], [-50.7039765, -23.5036305993093], [-50.7029377, -23.503704199309297], [-50.70055450000001, -23.5039665993093], [-50.6991587, -23.504114399309277], [-50.6995258, -23.50634089930923], [-50.699981499999986, -23.50932679930916], [-50.70086589999999, -23.512633799309096], [-50.6987393, -23.514234099309064], [-50.69691310000002, -23.516569299309012], [-50.69489040000002, -23.519503699308913], [-50.69352029999998, -23.521419999308876], [-50.69072069999998, -23.522793699308895], [-50.68896239999997, -23.523809699308853], [-50.6879199, -23.524766799308825], [-50.68679209999999, -23.525657699308805], [-50.68583019999999, -23.526469099308766], [-50.685353899999996, -23.527476399308775], [-50.68518590000002, -23.52828639930875], [-50.68604340000002, -23.52875489930875], [-50.686954300000025, -23.52892479930875], [-50.68785580000002, -23.52935779930873], [-50.68891889999998, -23.530342299308668], [-50.690288099999975, -23.533186099308647], [-50.691146, -23.53439989930859], [-50.69168610000003, -23.535163999308597], [-50.69227940000002, -23.538023099308493], [-50.69189399999999, -23.541312899308423], [-50.6911098, -23.5439755993084], [-50.68766010000001, -23.545710799308345], [-50.6839865, -23.54806029930827], [-50.6822004, -23.549322999308284], [-50.6821994, -23.551643199308216], [-50.682449399999996, -23.554603399308167], [-50.68267780000002, -23.557111299308055], [-50.68331999999998, -23.56021589930802], [-50.683971499999984, -23.56203089930801], [-50.6844979, -23.563497399307966], [-50.685828300000026, -23.565003099307926], [-50.688494299999995, -23.565828199307898], [-50.69086459999999, -23.566379499307875], [-50.69166849999999, -23.56717889930786], [-50.69115340000002, -23.5696591993078], [-50.69060030000003, -23.570961799307806], [-50.69011010000003, -23.572116499307754], [-50.688770799999986, -23.574299899307743], [-50.68698360000002, -23.57784869930764], [-50.68636839999999, -23.579630799307612], [-50.68608799999999, -23.580442899307556], [-50.68527660000001, -23.58443929930746], [-50.682369600000015, -23.585627299307447], [-50.678663400000005, -23.58561969930745], [-50.674069599999996, -23.584926899307504], [-50.67243719999999, -23.585606699307487], [-50.67165399999999, -23.586409599307462], [-50.669910500000015, -23.588197299307385], [-50.66587800000003, -23.58929359930739], [-50.6636782, -23.59050659930738], [-50.66323030000001, -23.5917352993073], [-50.6636709, -23.59337589930729], [-50.66413899999998, -23.59444719930725], [-50.66469919999998, -23.595485999307225], [-50.66483699999998, -23.59665349930722], [-50.66426250000001, -23.59859879930715], [-50.66338309999997, -23.60021009930716], [-50.66265069999997, -23.601418399307104], [-50.662724000000026, -23.602459899307068], [-50.66298360000002, -23.60433179930705], [-50.66245470000001, -23.60535349930699], [-50.6613881, -23.606199999307], [-50.660449200000016, -23.60645729930699], [-50.65796130000001, -23.607013899307006], [-50.656928100000016, -23.60744389930699], [-50.65434149999999, -23.609859099306906], [-50.6529769, -23.61141229930686], [-50.65232819999999, -23.61231149930683], [-50.65174009999999, -23.613924099306846], [-50.65115079999998, -23.615997899306794], [-50.6493117, -23.617530799306742], [-50.646972600000026, -23.618908899306724], [-50.64521810000002, -23.619980799306695], [-50.64368760000003, -23.62152119930667], [-50.641475300000025, -23.62374769930662], [-50.63969630000003, -23.624818799306592], [-50.64024619999998, -23.627269199306532], [-50.640117999999966, -23.62842179930651], [-50.63915539999999, -23.63110629930644], [-50.636837899999996, -23.632488299306388], [-50.63541700000002, -23.6334839993064], [-50.63416510000002, -23.633711599306405], [-50.6331649, -23.63340189930641], [-50.6320824, -23.632707599306404], [-50.63108640000001, -23.63093759930643], [-50.6296739, -23.628935999306496], [-50.6286781, -23.6279562993065], [-50.6280984, -23.62562749930656], [-50.627940000000024, -23.62262989930663], [-50.62844890000002, -23.61963379930667], [-50.62854379999999, -23.615560699306798], [-50.62788330000001, -23.61317669930683], [-50.62663789999999, -23.611175499306885], [-50.62547510000002, -23.609481899306914], [-50.62331499999999, -23.606556199306997], [-50.6222343, -23.605323899306992], [-50.620905600000015, -23.603322499307044], [-50.61987049999998, -23.602100899307064], [-50.61958570000002, -23.598323699307144], [-50.619414800000015, -23.59513939930724], [-50.61977300000001, -23.591176699307336], [-50.62152709999998, -23.590181899307364], [-50.623613799999994, -23.589495299307373], [-50.62536610000001, -23.589115199307354], [-50.62628599999999, -23.588195199307364], [-50.627038000000034, -23.587658999307383], [-50.6287911, -23.58697149930743], [-50.63029599999998, -23.585591699307468], [-50.63113929999997, -23.583969799307468], [-50.630256299999985, -23.58140149930757], [-50.62939749999998, -23.57890329930759], [-50.62831829999999, -23.57720989930766], [-50.62698769999997, -23.575976999307688], [-50.62565419999999, -23.575743199307656], [-50.62448819999998, -23.575279299307667], [-50.62459510000003, -23.574169099307717], [-50.626501099999984, -23.57113399930775], [-50.6270078, -23.568829599307843], [-50.62692440000001, -23.56771229930784], [-50.626847199999986, -23.56667729930785], [-50.624935600000015, -23.56452079930795], [-50.6237337, -23.561784999307974], [-50.6222828, -23.55921139930803], [-50.62148509999997, -23.557387399308066], [-50.620877699999994, -23.55498089930811], [-50.62019700000002, -23.553364699308155], [-50.6183039, -23.551285599308255], [-50.617722800000024, -23.550438799308235], [-50.6169754, -23.54943779930829], [-50.61614450000002, -23.548513499308307], [-50.61564779999998, -23.547282599308343], [-50.61565359999997, -23.545284399308372], [-50.614908300000025, -23.543591799308395], [-50.615829099999985, -23.542287499308408], [-50.616165900000006, -23.541135499308453], [-50.61616830000003, -23.540290099308464], [-50.61525499999999, -23.539058199308503], [-50.61425709999998, -23.538210299308517], [-50.613556099999975, -23.537017699308524], [-50.612349600000016, -23.534900799308605], [-50.61193909999997, -23.53274789930864], [-50.612444700000026, -23.53090459930867], [-50.61228310000001, -23.529136499308716], [-50.611369000000025, -23.52821199930873], [-50.60945490000001, -23.52720809930876], [-50.60887459999998, -23.52613069930881], [-50.608633199999986, -23.523209599308817], [-50.60829819999998, -23.522765699308856], [-50.606797400000005, -23.52229549930885], [-50.60504900000001, -23.522030899308888], [-50.60374080000002, -23.522577699308872], [-50.601924, -23.52229389930889], [-50.59989539999999, -23.521391199308873], [-50.59867050000003, -23.520607499308888], [-50.597136799999994, -23.519786799308946], [-50.593874099999994, -23.519929499308915], [-50.59268589999999, -23.519283099308943], [-50.5916959, -23.51874449930898], [-50.58935659999997, -23.51781269930896], [-50.58740130000001, -23.51554229930901], [-50.584864700000026, -23.51673819930901], [-50.58238010000002, -23.517355899308967], [-50.5789944, -23.517416199309], [-50.57611750000001, -23.518512399308985], [-50.572966500000014, -23.5203134993089], [-50.56969029999999, -23.523110699308873], [-50.56790999999998, -23.525155699308836], [-50.567303599999995, -23.52654149930879], [-50.5666233, -23.52751089930873], [-50.56428449999998, -23.529446799308726], [-50.56247619999999, -23.530204899308693], [-50.56114000000002, -23.531265899308668], [-50.55842489999998, -23.52838419930874], [-50.55775460000001, -23.526353099308782], [-50.5565742, -23.524983999308844], [-50.554587500000025, -23.52427589930885], [-50.553525900000004, -23.523370699308842], [-50.55157600000001, -23.52205489930889], [-50.551266, -23.521987999308898], [-50.551339799999994, -23.520076399308923], [-50.55143709999998, -23.51854719930896], [-50.551534000000004, -23.517145399308994], [-50.551768100000004, -23.51604139930901], [-50.55198649999999, -23.515218599309055], [-50.552837899999986, -23.513070399309075], [-50.55358159999997, -23.5111180993091], [-50.55441669999999, -23.50942099930913], [-50.554972599999985, -23.508487899309156], [-50.55562120000002, -23.507427599309242], [-50.557055100000014, -23.505732199309264], [-50.558264199999996, -23.504124099309298], [-50.558859499999976, -23.503340199309328], [-50.56010909999998, -23.50170459930932], [-50.560717599999975, -23.500701699309335], [-50.56149820000002, -23.499584099309377], [-50.56288239999998, -23.498950699309418], [-50.56417290000002, -23.498741899309437], [-50.565601000000015, -23.498745899309423], [-50.56656779999997, -23.498960999309404], [-50.56769070000001, -23.4988754993094]]]}, "properties": {"NUAREACONT": 312.85200000000003, "Shape__Area": 0, "Shape__Length": 0, "OBJECTID": 10713, "IDBACIA": 10697, "COTRECHO": 10756, "COCURSODAG": "86422", "COBACIA": "864227", "NUORDEMCDA": 5, "NUNIVOTTO1": "8", "NUNIVOTTO2": "86", "NUNIVOTTO3": "864", "NUNIVOTTO4": "8642", "NUNIVOTTO5": "86422", "NUNIVOTTO6": "864227", "NUNIVOTTO": 8, "DSVERSAO": "BHO bho_2017_v_01_05_50k de 2018-06-22"}}, {"type": "Feature", "id": 66916, "geometry": {"type": "Polygon", "coordinates": [[[-50.69227940000002, -23.538023099308493], [-50.69168610000003, -23.535163999308597], [-50.691146, -23.53439989930859], [-50.690288099999975, -23.533186099308647], [-50.68891889999998, -23.530342299308668], [-50.68785580000002, -23.52935779930873], [-50.686954300000025, -23.52892479930875], [-50.68604340000002, -23.52875489930875], [-50.68518590000002, -23.52828639930875], [-50.685353899999996, -23.527476399308775], [-50.68583019999999, -23.526469099308766], [-50.68679209999999, -23.525657699308805], [-50.6879199, -23.524766799308825], [-50.68896239999997, -23.523809699308853], [-50.69072069999998, -23.522793699308895], [-50.69352029999998, -23.521419999308876], [-50.69489040000002, -23.519503699308913], [-50.69691310000002, -23.516569299309012], [-50.6987393, -23.514234099309064], [-50.70086589999999, -23.512633799309096], [-50.699981499999986, -23.50932679930916], [-50.6995258, -23.50634089930923], [-50.6991587, -23.504114399309277], [-50.70055450000001, -23.5039665993093], [-50.7029377, -23.503704199309297], [-50.7039765, -23.5036305993093], [-50.70591830000001, -23.503054499309314], [-50.706086500000026, -23.50170409930932], [-50.70813279999999, -23.50188569930934], [-50.71171800000002, -23.502373499309293], [-50.71371199999999, -23.502377199309347], [-50.716833199999996, -23.50238289930931], [-50.71865380000002, -23.502386199309306], [-50.72030059999997, -23.50262899930933], [-50.7223803, -23.503112499309292], [-50.72385300000002, -23.503674799309287], [-50.726424699999995, -23.503461899309286], [-50.72992169999998, -23.503845299309308], [-50.73156940000001, -23.503608299309285], [-50.73313150000001, -23.502891399309323], [-50.73443259999999, -23.502573799309307], [-50.73555920000001, -23.502815599309326], [-50.73677300000003, -23.50281759930932], [-50.7378137, -23.502659399309348], [-50.739028099999985, -23.50234169930932], [-50.74162960000002, -23.502026199309313], [-50.742890100000004, -23.50184949930933], [-50.74388440000001, -23.50171009930937], [-50.74579319999998, -23.500993599309353], [-50.74796070000003, -23.500917099309333], [-50.749606599999986, -23.501639399309326], [-50.750993300000005, -23.501881499309366], [-50.75292030000003, -23.501068199309376], [-50.75645780000002, -23.50053089930936], [-50.7589729, -23.500054999309352], [-50.76008489999999, -23.5002230993094], [-50.76217980000001, -23.500539699309346], [-50.76417350000002, -23.500782599309336], [-50.765939300000014, -23.50073739930935], [-50.767121299999985, -23.500707099309352], [-50.769549100000006, -23.50055079930934], [-50.7709557, -23.49902379930937], [-50.772138400000024, -23.497203999309438], [-50.77370330000002, -23.49639679930947], [-50.77543229999998, -23.49589329930944], [-50.77735239999998, -23.49589599930948], [-50.7788334, -23.496100499309463], [-50.7803146, -23.49612789930944], [-50.781282799999985, -23.49613969930947], [-50.78231790000001, -23.495574199309498], [-50.783279100000016, -23.49491769930946], [-50.78347609999997, -23.494821199309477], [-50.78462380000002, -23.494540099309493], [-50.78610500000002, -23.49454209930949], [-50.78728480000001, -23.494391999309496], [-50.78830099999999, -23.49358379930953], [-50.78945520000001, -23.492219199309574], [-50.79041569999998, -23.491942199309538], [-50.79291180000002, -23.491970799309545], [-50.7941186, -23.492022999309576], [-50.79505119999999, -23.492049599309528], [-50.79605040000002, -23.492405599309535], [-50.7961464, -23.493603799309533], [-50.79611990000001, -23.495034599309484], [-50.796286699999996, -23.496595799309468], [-50.797004300000026, -23.49776739930941], [-50.7981004, -23.50038349930936], [-50.798224800000014, -23.502061599309325], [-50.79818110000002, -23.50299819930929], [-50.79908849999998, -23.504530099309278], [-50.798308200000015, -23.506466899309256], [-50.79770239999999, -23.509056199309143], [-50.797598900000025, -23.511183599309096], [-50.79539030000001, -23.512383199309085], [-50.793383800000015, -23.51256549930909], [-50.79288059999999, -23.51367489930907], [-50.7925778, -23.514876999309056], [-50.792776600000025, -23.51598729930902], [-50.79345790000002, -23.519569099308956], [-50.79218700000002, -23.52041619930892], [-50.790597900000016, -23.521701899308862], [-50.78873650000003, -23.522383299308867], [-50.78669309999998, -23.52219409930886], [-50.78466229999997, -23.521840099308903], [-50.78082119999999, -23.522156699308862], [-50.778410699999995, -23.522675299308865], [-50.775550399999986, -23.523290599308847], [-50.77224949999999, -23.523789899308834], [-50.77107349999999, -23.52413289930882], [-50.76967459999998, -23.525447799308793], [-50.76856170000002, -23.5266168993088], [-50.7660876, -23.527719799308745], [-50.76319160000003, -23.528617199308716], [-50.7596681, -23.52993989930868], [-50.75871410000002, -23.530874999308658], [-50.758458299999965, -23.531869699308675], [-50.7585828, -23.533274799308643], [-50.75861220000001, -23.534504099308588], [-50.757815900000026, -23.535995499308573], [-50.7561321, -23.536783099308522], [-50.753850899999975, -23.538403099308496], [-50.752160499999995, -23.538708499308495], [-50.748117900000004, -23.540728999308456], [-50.745872599999984, -23.541851099308413], [-50.74101439999998, -23.546100799308324], [-50.73745330000003, -23.547144299308325], [-50.73493869999999, -23.54831139930828], [-50.73214050000001, -23.550881499308236], [-50.731584, -23.551747199308238], [-50.730102300000006, -23.55405189930816], [-50.72854039999999, -23.555465399308126], [-50.726200500000004, -23.55758319930809], [-50.724685299999976, -23.558253599308067], [-50.72139850000002, -23.559707899308012], [-50.719532800000025, -23.561161399308002], [-50.718740500000024, -23.562148599307978], [-50.71755139999999, -23.56391549930795], [-50.7173219, -23.565632099307926], [-50.71726239999998, -23.56708889930785], [-50.718373199999974, -23.569044299307794], [-50.718513099999996, -23.570739999307786], [-50.71744009999998, -23.571971399307753], [-50.71450759999999, -23.571887799307774], [-50.71182169999997, -23.571344399307765], [-50.70874450000002, -23.571215399307807], [-50.70740649999999, -23.57121289930775], [-50.70526760000001, -23.570345499307773], [-50.7040662, -23.569109899307822], [-50.70404309999998, -23.567537199307868], [-50.702598500000015, -23.56725709930787], [-50.70099210000001, -23.567623999307887], [-50.69818040000001, -23.56848189930783], [-50.69737479999998, -23.569713699307844], [-50.6946962, -23.570818399307793], [-50.69060030000003, -23.570961799307806], [-50.69115340000002, -23.5696591993078], [-50.69166849999999, -23.56717889930786], [-50.69086459999999, -23.566379499307875], [-50.688494299999995, -23.565828199307898], [-50.685828300000026, -23.565003099307926], [-50.6844979, -23.563497399307966], [-50.683971499999984, -23.56203089930801], [-50.68331999999998, -23.56021589930802], [-50.68267780000002, -23.557111299308055], [-50.682449399999996, -23.554603399308167], [-50.6821994, -23.551643199308216], [-50.6822004, -23.549322999308284], [-50.6839865, -23.54806029930827], [-50.68766010000001, -23.545710799308345], [-50.6911098, -23.5439755993084], [-50.69189399999999, -23.541312899308423], [-50.69227940000002, -23.538023099308493]]]}, "properties": {"NUAREACONT": 53.709, "Shape__Area": 0, "Shape__Length": 0, "OBJECTID": 66916, "IDBACIA": 66851, "COTRECHO": 23996, "COCURSODAG": "8642342", "COBACIA": "86423425", "NUORDEMCDA": 6, "NUNIVOTTO1": "8", "NUNIVOTTO2": "86", "NUNIVOTTO3": "864", "NUNIVOTTO4": "8642", "NUNIVOTTO5": "86423", "NUNIVOTTO6": "864234", "NUNIVOTTO": 8, "DSVERSAO": "BHO bho_2017_v_01_05_50k de 2018-06-22"}}]}