{"type": "FeatureCollection", "features": [{"type": "Feature", "id": 445806, "geometry": {"type": "Polygon", "coordinates": [[[-50.6571065, -23.486521399309694], [-50.65899289999999, -23.486165699309705], [-50.660423700000024, -23.48598889930968], [-50.66317340000001, -23.486103699309687], [-50.66490729999999, -23.486958099309653], [-50.66620399999999, -23.48840009930962], [-50.666981299999975, -23.48954119930963], [-50.66814019999998, -23.48995709930963], [-50.670754400000014, -23.488709599309622], [-50.6723184, -23.487273699309664], [-50.67329699999999, -23.48589649930971], [-50.675092099999965, -23.48566639930971], [-50.679326, -23.488637499309604], [-50.6810782, -23.48911269930964], [-50.68469540000001, -23.490887299309577], [-50.68651460000001, -23.491450699309542], [-50.68772710000002, -23.491932799309527], [-50.688489499999996, -23.492411399309532], [-50.690410600000014, -23.4936172993095], [-50.69257679999998, -23.49410129930951], [-50.69405089999998, -23.49394429930952], [-50.696019299999996, -23.493769899309527], [-50.69528100000002, -23.49492559930947], [-50.69552140000002, -23.496001499309443], [-50.69649279999999, -23.49613789930947], [-50.697513300000026, -23.496094999309484], [-50.698908700000004, -23.496613499309476], [-50.70062810000002, -23.497675499309427], [-50.70155590000002, -23.498332599309443], [-50.70262070000001, -23.498813599309408], [-50.70368500000001, -23.499521399309376], [-50.70453149999997, -23.49987589930938], [-50.705596000000014, -23.500508099309357], [-50.706086500000026, -23.50170409930932], [-50.70591830000001, -23.503054499309314], [-50.7039765, -23.5036305993093], [-50.7029377, -23.503704199309297], [-50.70055450000001, -23.5039665993093], [-50.6991587, -23.504114399309277], [-50.6995258, -23.50634089930923], [-50.699981499999986, -23.50932679930916], [-50.70086589999999, -23.512633799309096], [-50.6987393, -23.514234099309064], [-50.69691310000002, -23.516569299309012], [-50.69489040000002, -23.519503699308913], [-50.69352029999998, -23.521419999308876], [-50.69072069999998, -23.522793699308895], [-50.68896239999997, -23.523809699308853], [-50.6879199, -23.524766799308825], [-50.68679209999999, -23.525657699308805], [-50.68583019999999, -23.526469099308766], [-50.685353899999996, -23.527476399308775], [-50.68518590000002, -23.52828639930875], [-50.680594499999984, -23.525816599308772], [-50.67870649999997, -23.52530029930883], [-50.67742329999999, -23.524923799308823], [-50.6747072, -23.5246771993088], [-50.67404320000003, -23.52354859930887], [-50.674269700000025, -23.52180699930891], [-50.673274900000024, -23.51965289930892], [-50.675142900000026, -23.517711399308972], [-50.676194399999986, -23.513235999309085], [-50.67593820000002, -23.511636399309094], [-50.67507269999999, -23.51099489930915], [-50.67385810000002, -23.511312199309142], [-50.6728154, -23.512189499309073], [-50.6710812, -23.512265799309123], [-50.670128799999986, -23.51170409930909], [-50.669352300000014, -23.510183299309134], [-50.66944219999999, -23.508904199309193], [-50.66966020000001, -23.5073280993092], [-50.670318899999984, -23.504988199309278], [-50.66858989999997, -23.502985599309287], [-50.66633919999998, -23.501621499309334], [-50.66322200000002, -23.500095599309383], [-50.66027550000001, -23.499609499309404], [-50.65689889999998, -23.497842999309412], [-50.65298849999999, -23.49573089930948], [-50.65187839999999, -23.494873499309467], [-50.650236500000005, -23.49287089930955], [-50.64933459999997, -23.491062699309563], [-50.650456899999995, -23.490189699309564], [-50.6522157, -23.4889342993096], [-50.654266199999995, -23.487994399309635], [-50.65558390000001, -23.48754749930966], [-50.6571065, -23.486521399309694]]]}, "properties": {"NUAREACONT": 13.088000000000001, "Shape__Area": 0, "Shape__Length": 0, "OBJECTID": 445806, "IDBACIA": 52581, "COTRECHO": 331215, "COCURSODAG": "8642274", "COBACIA": "86422745", "NUORDEMCDA": 6, "NUNIVOTTO1": "8", "NUNIVOTTO2": "86", "NUNIVOTTO3": "864", "NUNIVOTTO4": "8642", "NUNIVOTTO5": "86422", "NUNIVOTTO6": "864227", "NUNIVOTTO": 8, "DSVERSAO": "BHO bho_2017_v_01_05_5k de 2018-06-20"}}, {"type": "Feature", "id": 286255, "geometry": {"type": "Polygon", "coordinates": [[[-50.673274900000024, -23.51965289930892], [-50.674269700000025, -23.52180699930891], [-50.67404320000003, -23.52354859930887], [-50.6747072, -23.5246771993088], [-50.67742329999999, -23.524923799308823], [-50.67870649999997, -23.52530029930883], [-50.680594499999984, -23.525816599308772], [-50.68518590000002, -23.52828639930875], [-50.68604340000002, -23.52875489930875], [-50.686954300000025, -23.52892479930875], [-50.68785580000002, -23.52935779930873], [-50.68891889999998, -23.530342299308668], [-50.690288099999975, -23.533186099308647], [-50.691146, -23.53439989930859], [-50.69168610000003, -23.535163999308597], [-50.69227940000002, -23.538023099308493], [-50.69189399999999, -23.541312899308423], [-50.6911098, -23.5439755993084], [-50.68766010000001, -23.545710799308345], [-50.6839865, -23.54806029930827], [-50.6822004, -23.549322999308284], [-50.67996470000003, -23.547209099308297], [-50.678299400000014, -23.546360199308314], [-50.67630059999999, -23.54558749930836], [-50.674050799999975, -23.545198499308388], [-50.67131060000003, -23.544774099308345], [-50.6686722, -23.54352579930839], [-50.66730419999999, -23.5428785993084], [-50.66588999999999, -23.541722799308438], [-50.664725499999975, -23.540721099308453], [-50.66214350000001, -23.539870099308445], [-50.65864490000001, -23.53894019930852], [-50.656394999999975, -23.538627899308494], [-50.65410880000002, -23.53779249930855], [-50.6518951, -23.53807989930853], [-50.64805899999999, -23.538686099308517], [-50.64686390000003, -23.53838269930851], [-50.64439370000002, -23.53775549930853], [-50.642563800000005, -23.536291099308595], [-50.64137290000002, -23.534859599308604], [-50.6378201, -23.5335132993086], [-50.63640620000001, -23.532357199308624], [-50.63540749999998, -23.53181689930869], [-50.633240899999976, -23.53158119930867], [-50.631577300000004, -23.530347599308715], [-50.630199800000014, -23.52843169930873], [-50.62958459999999, -23.527576099308728], [-50.626925700000015, -23.526160399308765], [-50.62702070000001, -23.524731499308793], [-50.6280266, -23.522716499308864], [-50.629094099999975, -23.520989799308893], [-50.630599200000006, -23.51926409930892], [-50.63302720000001, -23.51677559930901], [-50.63605580000001, -23.51639369930898], [-50.63861029999998, -23.516911999308984], [-50.64271939999998, -23.51784379930896], [-50.6438311, -23.51828609930898], [-50.647381800000005, -23.519698899308906], [-50.64959429999999, -23.520064099308943], [-50.65115850000001, -23.520322299308894], [-50.653462299999994, -23.51944009930893], [-50.65549920000001, -23.517770099308986], [-50.65727590000001, -23.518286399308987], [-50.661386300000004, -23.518807799308934], [-50.66378159999999, -23.518915699308927], [-50.666164200000026, -23.519022999308948], [-50.66768000000002, -23.519026299308962], [-50.67138720000003, -23.519034099308946], [-50.673274900000024, -23.51965289930892]]]}, "properties": {"NUAREACONT": 13.595, "Shape__Area": 0, "Shape__Length": 0, "OBJECTID": 286255, "IDBACIA": 360554, "COTRECHO": 364532, "COCURSODAG": "86422762", "COBACIA": "86422762", "NUORDEMCDA": 7, "NUNIVOTTO1": "8", "NUNIVOTTO2": "86", "NUNIVOTTO3": "864", "NUNIVOTTO4": "8642", "NUNIVOTTO5": "86422", "NUNIVOTTO6": "864227", "NUNIVOTTO": 8, "DSVERSAO": "BHO bho_2017_v_01_05_5k de 2018-06-20"}}, {"type": "Feature", "id": 268378, "geometry": {"type": "Polygon", "coordinates": [[[-50.64933459999997, -23.491062699309563], [-50.650236500000005, -23.49287089930955], [-50.65187839999999, -23.494873499309467], [-50.65298849999999, -23.49573089930948], [-50.65689889999998, -23.497842999309412], [-50.66027550000001, -23.499609499309404], [-50.66322200000002, -23.500095599309383], [-50.66633919999998, -23.501621499309334], [-50.66858989999997, -23.502985599309287], [-50.670318899999984, -23.504988199309278], [-50.66966020000001, -23.5073280993092], [-50.66944219999999, -23.508904199309193], [-50.669352300000014, -23.510183299309134], [-50.670128799999986, -23.51170409930909], [-50.6710812, -23.512265799309123], [-50.6728154, -23.512189499309073], [-50.67385810000002, -23.511312199309142], [-50.67507269999999, -23.51099489930915], [-50.67593820000002, -23.511636399309094], [-50.676194399999986, -23.513235999309085], [-50.675142900000026, -23.517711399308972], [-50.673274900000024, -23.51965289930892], [-50.67138720000003, -23.519034099308946], [-50.66768000000002, -23.519026299308962], [-50.666164200000026, -23.519022999308948], [-50.66378159999999, -23.518915699308927], [-50.661386300000004, -23.518807799308934], [-50.65727590000001, -23.518286399308987], [-50.65639349999997, -23.515722599309022], [-50.6552873, -23.51377319930906], [-50.65384540000002, -23.51274519930908], [-50.65173119999997, -23.511357099309116], [-50.647963000000004, -23.51006769930913], [-50.6459648, -23.509345899309185], [-50.64263790000001, -23.506878899309218], [-50.64154989999997, -23.505296799309253], [-50.63987049999997, -23.50297849930929], [-50.63921140000002, -23.500210199309393], [-50.639218299999975, -23.49764839930944], [-50.63845679999997, -23.495119399309505], [-50.640581699999984, -23.49567379930949], [-50.64516830000002, -23.494694899309504], [-50.64746450000001, -23.493080899309525], [-50.64933459999997, -23.491062699309563]]]}, "properties": {"NUAREACONT": 6.117, "Shape__Area": 0, "Shape__Length": 0, "OBJECTID": 268378, "IDBACIA": 342649, "COTRECHO": 67379, "COCURSODAG": "86422744", "COBACIA": "86422744", "NUORDEMCDA": 7, "NUNIVOTTO1": "8", "NUNIVOTTO2": "86", "NUNIVOTTO3": "864", "NUNIVOTTO4": "8642", "NUNIVOTTO5": "86422", "NUNIVOTTO6": "864227", "NUNIVOTTO": 8, "DSVERSAO": "BHO bho_2017_v_01_05_5k de 2018-06-20"}}, {"type": "Feature", "id": 397783, "geometry": {"type": "Polygon", "coordinates": [[[-50.60788179999997, -23.49378349930951], [-50.60979930000002, -23.49306399930954], [-50.61130000000003, -23.49266289930957], [-50.6133858, -23.492263399309557], [-50.61437449999999, -23.49182729930957], [-50.61521820000002, -23.490952399309606], [-50.61547739999997, -23.489873599309618], [-50.6158092, -23.488929899309642], [-50.6158848, -23.488086799309656], [-50.6166546, -23.48748149930965], [-50.61766030000001, -23.487569299309676], [-50.61771210000001, -23.488529799309614], [-50.61829519999998, -23.489273299309595], [-50.6190613, -23.48991609930961], [-50.61993639999998, -23.490828999309603], [-50.620738200000005, -23.491809199309536], [-50.621760100000024, -23.492553799309544], [-50.62296500000002, -23.493264999309535], [-50.62395120000002, -23.493739699309508], [-50.62595599999997, -23.496105699309457], [-50.626829999999984, -23.49745709930945], [-50.62782709999999, -23.49912089930937], [-50.62861550000002, -23.49982259930939], [-50.629891999999984, -23.501107399309372], [-50.63168109999998, -23.502224799309346], [-50.63310680000001, -23.502497999309316], [-50.6347523, -23.502636799309315], [-50.636288200000024, -23.502775299309295], [-50.63866519999999, -23.502915799309292], [-50.63987049999997, -23.50297849930929], [-50.64154989999997, -23.505296799309253], [-50.64263790000001, -23.506878899309218], [-50.6459648, -23.509345899309185], [-50.647963000000004, -23.51006769930913], [-50.65173119999997, -23.511357099309116], [-50.65384540000002, -23.51274519930908], [-50.6552873, -23.51377319930906], [-50.65639349999997, -23.515722599309022], [-50.65727590000001, -23.518286399308987], [-50.65549920000001, -23.517770099308986], [-50.653462299999994, -23.51944009930893], [-50.65115850000001, -23.520322299308894], [-50.64959429999999, -23.520064099308943], [-50.647381800000005, -23.519698899308906], [-50.6438311, -23.51828609930898], [-50.64271939999998, -23.51784379930896], [-50.63861029999998, -23.516911999308984], [-50.63605580000001, -23.51639369930898], [-50.63302720000001, -23.51677559930901], [-50.631167399999974, -23.515972299309], [-50.630195300000025, -23.51514339930903], [-50.62839589999999, -23.513608799309047], [-50.62518899999998, -23.51120999930912], [-50.62186329999997, -23.508257399309183], [-50.62052770000002, -23.50610929930922], [-50.61920129999999, -23.50364669930928], [-50.61731950000001, -23.501182699309368], [-50.61532399999999, -23.499640699309367], [-50.6136606, -23.4985093993094], [-50.611886700000014, -23.49717279930942], [-50.61089040000002, -23.49594059930946], [-50.609894300000015, -23.49460599930948], [-50.60788179999997, -23.49378349930951]]]}, "properties": {"NUAREACONT": 6.023000000000001, "Shape__Area": 0, "Shape__Length": 0, "OBJECTID": 397783, "IDBACIA": 9414, "COTRECHO": 233905, "COCURSODAG": "86422754", "COBACIA": "86422754", "NUORDEMCDA": 6, "NUNIVOTTO1": "8", "NUNIVOTTO2": "86", "NUNIVOTTO3": "864", "NUNIVOTTO4": "8642", "NUNIVOTTO5": "86422", "NUNIVOTTO6": "864227", "NUNIVOTTO": 8, "DSVERSAO": "BHO bho_2017_v_01_05_5k de 2018-06-20"}}, {"type": "Feature", "id": 395167, "geometry": {"type": "Polygon", "coordinates": [[[-50.622590600000024, -23.532058199308644], [-50.62022760000002, -23.527671799308767], [-50.61867189999998, -23.5251893993088], [-50.61674119999998, -23.522706099308852], [-50.61511999999999, -23.521318699308885], [-50.613872000000015, -23.520566199308924], [-50.61193739999999, -23.519466299308913], [-50.611066300000005, -23.518080699308946], [-50.611069999999984, -23.516812599308974], [-50.61176419999998, -23.51456629930906], [-50.61140979999999, -23.512110199309106], [-50.60958749999998, -23.510814199309156], [-50.60821499999997, -23.509946099309133], [-50.60702959999997, -23.509193799309156], [-50.606156399999975, -23.508557499309173], [-50.60547129999998, -23.50774879930919], [-50.60528649999998, -23.50682609930923], [-50.60531930000002, -23.505522299309245], [-50.606007299999995, -23.504697199309277], [-50.607142599999975, -23.504213799309287], [-50.6085678, -23.503755299309322], [-50.6106504, -23.503930699309297], [-50.61194069999999, -23.504517599309256], [-50.613036799999975, -23.505402999309254], [-50.61273460000001, -23.506440999309216], [-50.61383929999999, -23.50736779930921], [-50.614708199999995, -23.507807699309204], [-50.61621050000003, -23.50805459930918], [-50.61763439999998, -23.508082399309174], [-50.61897950000002, -23.507964099309184], [-50.6204037, -23.507870299309168], [-50.62186329999997, -23.508257399309183], [-50.62518899999998, -23.51120999930912], [-50.62839589999999, -23.513608799309047], [-50.630195300000025, -23.51514339930903], [-50.631167399999974, -23.515972299309], [-50.63302720000001, -23.51677559930901], [-50.630599200000006, -23.51926409930892], [-50.629094099999975, -23.520989799308893], [-50.6280266, -23.522716499308864], [-50.62702070000001, -23.524731499308793], [-50.626925700000015, -23.526160399308765], [-50.625046, -23.527507599308738], [-50.62391639999998, -23.52906119930872], [-50.622590600000024, -23.532058199308644]]]}, "properties": {"NUAREACONT": 3.729, "Shape__Area": 0, "Shape__Length": 0, "OBJECTID": 395167, "IDBACIA": 6909, "COTRECHO": 459670, "COCURSODAG": "8642276", "COBACIA": "86422761", "NUORDEMCDA": 6, "NUNIVOTTO1": "8", "NUNIVOTTO2": "86", "NUNIVOTTO3": "864", "NUNIVOTTO4": "8642", "NUNIVOTTO5": "86422", "NUNIVOTTO6": "864227", "NUNIVOTTO": 8, "DSVERSAO": "BHO bho_2017_v_01_05_5k de 2018-06-20"}}, {"type": "Feature", "id": 93451, "geometry": {"type": "Polygon", "coordinates": [[[-50.599489800000015, -23.493950399309533], [-50.602483199999995, -23.49401519930949], [-50.606453699999975, -23.493367699309548], [-50.60788179999997, -23.49378349930951], [-50.609894300000015, -23.49460599930948], [-50.61089040000002, -23.49594059930946], [-50.611886700000014, -23.49717279930942], [-50.6136606, -23.4985093993094], [-50.61532399999999, -23.499640699309367], [-50.61731950000001, -23.501182699309368], [-50.61920129999999, -23.50364669930928], [-50.62052770000002, -23.50610929930922], [-50.62186329999997, -23.508257399309183], [-50.6204037, -23.507870299309168], [-50.61897950000002, -23.507964099309184], [-50.61763439999998, -23.508082399309174], [-50.61621050000003, -23.50805459930918], [-50.614708199999995, -23.507807699309204], [-50.61383929999999, -23.50736779930921], [-50.61273460000001, -23.506440999309216], [-50.613036799999975, -23.505402999309254], [-50.61431479999999, -23.50495079930928], [-50.61521970000001, -23.504189899309257], [-50.615372799999996, -23.50328839930928], [-50.615196500000025, -23.501995699309337], [-50.61379729999999, -23.501827699309306], [-50.612367500000005, -23.5020321993093], [-50.609885099999985, -23.502025999309332], [-50.605598999999984, -23.50146029930936], [-50.60304120000001, -23.501523099309324], [-50.60078179999999, -23.502419199309344], [-50.59837599999997, -23.50397619930929], [-50.598552999999974, -23.50305379930928], [-50.598259700000035, -23.500555499309378], [-50.598020799999965, -23.498535999309418], [-50.598723800000016, -23.496324899309446], [-50.599489800000015, -23.493950399309533]]]}, "properties": {"NUAREACONT": 1.743, "Shape__Area": 0, "Shape__Length": 0, "OBJECTID": 93451, "IDBACIA": 266827, "COTRECHO": 357210, "COCURSODAG": "86422", "COBACIA": "86422757", "NUORDEMCDA": 5, "NUNIVOTTO1": "8", "NUNIVOTTO2": "86", "NUNIVOTTO3": "864", "NUNIVOTTO4": "8642", "NUNIVOTTO5": "86422", "NUNIVOTTO6": "864227", "NUNIVOTTO": 8, "DSVERSAO": "BHO bho_2017_v_01_05_5k de 2018-06-20"}}, {"type": "Feature", "id": 457247, "geometry": {"type": "Polygon", "coordinates": [[[-50.758134299999995, -23.516167199309], [-50.75697040000001, -23.516456299309016], [-50.755983300000025, -23.51645479930902], [-50.75492200000002, -23.51645309930899], [-50.75287359999999, -23.516404899309006], [-50.75053239999999, -23.516446099309], [-50.74756830000001, -23.51685539930899], [-50.744287499999984, -23.517425499308985], [-50.74156820000002, -23.518405399308975], [-50.73999079999999, -23.51980209930893], [-50.739695299999994, -23.521240799308888], [-50.73784519999998, -23.522728599308856], [-50.73622799999999, -23.52339379930886], [-50.7352267, -23.52362499930884], [-50.731201699999986, -23.52455459930881], [-50.7291381, -23.525397799308806], [-50.72576079999999, -23.5267776993088], [-50.72199890000002, -23.52805389930872], [-50.7191105, -23.528628999308758], [-50.716409999999996, -23.530420099308696], [-50.7146492, -23.532665699308644], [-50.714819499999976, -23.535194899308607], [-50.714592400000015, -23.53635359930855], [-50.71330239999997, -23.537380199308515], [-50.71151630000003, -23.537697199308557], [-50.70959110000001, -23.537369299308565], [-50.70654189999999, -23.53714819930853], [-50.70483460000003, -23.537144899308522], [-50.6989021, -23.53800299930852], [-50.69288130000001, -23.538021299308546], [-50.69227940000002, -23.538023099308493], [-50.69168610000003, -23.535163999308597], [-50.691146, -23.53439989930859], [-50.690288099999975, -23.533186099308647], [-50.68891889999998, -23.530342299308668], [-50.68785580000002, -23.52935779930873], [-50.686954300000025, -23.52892479930875], [-50.68604340000002, -23.52875489930875], [-50.68518590000002, -23.52828639930875], [-50.685353899999996, -23.527476399308775], [-50.68583019999999, -23.526469099308766], [-50.68679209999999, -23.525657699308805], [-50.6879199, -23.524766799308825], [-50.68896239999997, -23.523809699308853], [-50.69072069999998, -23.522793699308895], [-50.69352029999998, -23.521419999308876], [-50.69489040000002, -23.519503699308913], [-50.69691310000002, -23.516569299309012], [-50.6987393, -23.514234099309064], [-50.70086589999999, -23.512633799309096], [-50.699981499999986, -23.50932679930916], [-50.6995258, -23.50634089930923], [-50.6991587, -23.504114399309277], [-50.70055450000001, -23.5039665993093], [-50.7029377, -23.503704199309297], [-50.7039765, -23.5036305993093], [-50.70591830000001, -23.503054499309314], [-50.706086500000026, -23.50170409930932], [-50.70813279999999, -23.50188569930934], [-50.71171800000002, -23.502373499309293], [-50.71371199999999, -23.502377199309347], [-50.716833199999996, -23.50238289930931], [-50.71865380000002, -23.502386199309306], [-50.72030059999997, -23.50262899930933], [-50.7223803, -23.503112499309292], [-50.72385300000002, -23.503674799309287], [-50.726424699999995, -23.503461899309286], [-50.72992169999998, -23.503845299309308], [-50.73156940000001, -23.503608299309285], [-50.73313150000001, -23.502891399309323], [-50.73443259999999, -23.502573799309307], [-50.73555920000001, -23.502815599309326], [-50.73677300000003, -23.50281759930932], [-50.7378137, -23.502659399309348], [-50.739028099999985, -23.50234169930932], [-50.74162960000002, -23.502026199309313], [-50.742890100000004, -23.50184949930933], [-50.74388440000001, -23.50171009930937], [-50.74579319999998, -23.500993599309353], [-50.74796070000003, -23.500917099309333], [-50.749606599999986, -23.501639399309326], [-50.750993300000005, -23.501881499309366], [-50.75292030000003, -23.501068199309376], [-50.752276800000004, -23.50461369930927], [-50.75441949999998, -23.50629619930924], [-50.755457999999976, -23.5073171993092], [-50.75695080000003, -23.508878799309162], [-50.7579877, -23.5107992993091], [-50.7580476, -23.513617899309047], [-50.758134299999995, -23.516167199309]]]}, "properties": {"NUAREACONT": 17.537000000000003, "Shape__Area": 0, "Shape__Length": 0, "OBJECTID": 457247, "IDBACIA": 63995, "COTRECHO": 441144, "COCURSODAG": "86423426", "COBACIA": "86423426", "NUORDEMCDA": 7, "NUNIVOTTO1": "8", "NUNIVOTTO2": "86", "NUNIVOTTO3": "864", "NUNIVOTTO4": "8642", "NUNIVOTTO5": "86423", "NUNIVOTTO6": "864234", "NUNIVOTTO": 8, "DSVERSAO": "BHO bho_2017_v_01_05_5k de 2018-06-20"}}, {"type": "Feature", "id": 36406, "geometry": {"type": "Polygon", "coordinates": [[[-50.70512910000003, -23.480263099309816], [-50.70820730000002, -23.479269699309814], [-50.70970190000003, -23.47957229930981], [-50.71230129999998, -23.480116799309833], [-50.714901199999986, -23.480361499309826], [-50.717181400000015, -23.480175699309836], [-50.71808920000001, -23.479287899309814], [-50.720430599999986, -23.478812299309862], [-50.72179469999997, -23.47935449930983], [-50.722962199999984, -23.480675799309772], [-50.72386940000001, -23.482116699309778], [-50.72497249999998, -23.483138099309773], [-50.72608589999999, -23.483650499309753], [-50.72737840000002, -23.482962399309766], [-50.728228100000024, -23.48074509930979], [-50.729789900000014, -23.48002819930982], [-50.73140699999999, -23.479991699309853], [-50.733365100000015, -23.48027419930981], [-50.7358347, -23.48075819930984], [-50.73778600000003, -23.480281699309796], [-50.73973710000001, -23.479925199309854], [-50.74076830000002, -23.479986199309813], [-50.74285379999998, -23.481969299309785], [-50.74389300000002, -23.48251069930974], [-50.746759499999996, -23.48276309930976], [-50.74759749999998, -23.483176399309745], [-50.749740700000025, -23.484379199309704], [-50.75227569999999, -23.484683099309702], [-50.75376940000002, -23.485584999309715], [-50.755328599999984, -23.4862470993097], [-50.756657399999995, -23.485993999309695], [-50.757677300000005, -23.487442499309644], [-50.7586488, -23.48954289930961], [-50.75916489999997, -23.491762499309544], [-50.75882280000002, -23.49392159930953], [-50.75818049999998, -23.496738399309468], [-50.75645780000002, -23.50053089930936], [-50.75292030000003, -23.501068199309376], [-50.750993300000005, -23.501881499309366], [-50.749606599999986, -23.501639399309326], [-50.74796070000003, -23.500917099309333], [-50.74579319999998, -23.500993599309353], [-50.74388440000001, -23.50171009930937], [-50.742890100000004, -23.50184949930933], [-50.74162960000002, -23.502026199309313], [-50.739028099999985, -23.50234169930932], [-50.7378137, -23.502659399309348], [-50.73677300000003, -23.50281759930932], [-50.73555920000001, -23.502815599309326], [-50.73443259999999, -23.502573799309307], [-50.73313150000001, -23.502891399309323], [-50.73156940000001, -23.503608299309285], [-50.72992169999998, -23.503845299309308], [-50.726424699999995, -23.503461899309286], [-50.72385300000002, -23.503674799309287], [-50.7223803, -23.503112499309292], [-50.72030059999997, -23.50262899930933], [-50.71865380000002, -23.502386199309306], [-50.716833199999996, -23.50238289930931], [-50.71371199999999, -23.502377199309347], [-50.71171800000002, -23.502373499309293], [-50.70813279999999, -23.50188569930934], [-50.706086500000026, -23.50170409930932], [-50.705596000000014, -23.500508099309357], [-50.70453149999997, -23.49987589930938], [-50.70368500000001, -23.499521399309376], [-50.70262070000001, -23.498813599309408], [-50.70155590000002, -23.498332599309443], [-50.70062810000002, -23.497675499309427], [-50.698908700000004, -23.496613499309476], [-50.697513300000026, -23.496094999309484], [-50.69649279999999, -23.49613789930947], [-50.69552140000002, -23.496001499309443], [-50.69528100000002, -23.49492559930947], [-50.696019299999996, -23.493769899309527], [-50.6975817, -23.492853499309568], [-50.69869490000002, -23.492372399309566], [-50.700533699999994, -23.49141189930957], [-50.702272100000016, -23.489389699309616], [-50.702393900000004, -23.48661809930966], [-50.70174780000002, -23.484259299309752], [-50.7032605, -23.48264029930978], [-50.70416920000003, -23.48180559930976], [-50.70512910000003, -23.480263099309816]]]}, "properties": {"NUAREACONT": 13.356, "Shape__Area": 0, "Shape__Length": 0, "OBJECTID": 36406, "IDBACIA": 248974, "COTRECHO": 133232, "COCURSODAG": "864234244", "COBACIA": "864234244", "NUORDEMCDA": 8, "NUNIVOTTO1": "8", "NUNIVOTTO2": "86", "NUNIVOTTO3": "864", "NUNIVOTTO4": "8642", "NUNIVOTTO5": "86423", "NUNIVOTTO6": "864234", "NUNIVOTTO": 8, "DSVERSAO": "BHO bho_2017_v_01_05_5k de 2018-06-20"}}, {"type": "Feature", "id": 449606, "geometry": {"type": "Polygon", "coordinates": [[[-50.63987049999997, -23.50297849930929], [-50.63866519999999, -23.502915799309292], [-50.636288200000024, -23.502775299309295], [-50.6347523, -23.502636799309315], [-50.63310680000001, -23.502497999309316], [-50.63168109999998, -23.502224799309346], [-50.629891999999984, -23.501107399309372], [-50.62861550000002, -23.49982259930939], [-50.62782709999999, -23.49912089930937], [-50.626829999999984, -23.49745709930945], [-50.62595599999997, -23.496105699309457], [-50.62395120000002, -23.493739699309508], [-50.62296500000002, -23.493264999309535], [-50.621760100000024, -23.492553799309544], [-50.620738200000005, -23.491809199309536], [-50.61993639999998, -23.490828999309603], [-50.6190613, -23.48991609930961], [-50.61829519999998, -23.489273299309595], [-50.61771210000001, -23.488529799309614], [-50.61766030000001, -23.487569299309676], [-50.618352300000026, -23.486314799309685], [-50.61812939999999, -23.485377699309723], [-50.61711759999998, -23.484126499309735], [-50.615202099999976, -23.483289299309778], [-50.61210089999997, -23.48281329930974], [-50.60764640000002, -23.482177799309763], [-50.6041601, -23.482414499309773], [-50.59952179999999, -23.482729399309747], [-50.5968198, -23.48307789930977], [-50.59460080000002, -23.48336399930974], [-50.5953, -23.47980479930984], [-50.59643390000002, -23.477934599309897], [-50.59942969999997, -23.475861099309896], [-50.60209029999998, -23.47269399930998], [-50.603543100000024, -23.47034689931003], [-50.6052287, -23.46770049931008], [-50.606797200000024, -23.46657279931012], [-50.60853420000001, -23.46567959931014], [-50.610483300000006, -23.464591799310174], [-50.611924499999986, -23.463580799310183], [-50.612055, -23.46233239931019], [-50.611889700000006, -23.461005099310277], [-50.61130020000002, -23.460106099310288], [-50.610246700000005, -23.458737699310277], [-50.609978399999996, -23.457489299310346], [-50.61005449999999, -23.45662189931036], [-50.61108080000003, -23.455747399310372], [-50.61246999999997, -23.45581829931035], [-50.6137129, -23.455888899310352], [-50.615228100000024, -23.456089099310347], [-50.6167769, -23.458244799310297], [-50.61766319999998, -23.459066799310307], [-50.61865990000002, -23.46009399931029], [-50.61999079999998, -23.460814599310247], [-50.622319600000026, -23.462152399310206], [-50.625980599999984, -23.46380079931018], [-50.62811510000001, -23.465680199310164], [-50.62974339999999, -23.4688309993101], [-50.63159860000002, -23.473732399309984], [-50.63205449999998, -23.476624499309917], [-50.631827799999996, -23.478263499309886], [-50.63348769999999, -23.48062439930982], [-50.63426340000001, -23.481343499309773], [-50.635703999999976, -23.482678999309776], [-50.6373031, -23.48438279930971], [-50.63780700000001, -23.48555319930973], [-50.63789539999999, -23.48815459930961], [-50.637460499999975, -23.490368699309563], [-50.63745349999999, -23.492930499309534], [-50.63845679999997, -23.495119399309505], [-50.639218299999975, -23.49764839930944], [-50.63921140000002, -23.500210199309393], [-50.63987049999997, -23.50297849930929]]]}, "properties": {"NUAREACONT": 10.551, "Shape__Area": 0, "Shape__Length": 0, "OBJECTID": 449606, "IDBACIA": 56306, "COTRECHO": 357193, "COCURSODAG": "86422", "COBACIA": "86422753", "NUORDEMCDA": 5, "NUNIVOTTO1": "8", "NUNIVOTTO2": "86", "NUNIVOTTO3": "864", "NUNIVOTTO4": "8642", "NUNIVOTTO5": "86422", "NUNIVOTTO6": "864227", "NUNIVOTTO": 8, "DSVERSAO": "BHO bho_2017_v_01_05_5k de 2018-06-20"}}, {"type": "Feature", "id": 399841, "geometry": {"type": "Polygon", "coordinates": [[[-50.6443496, -23.462801399310194], [-50.64457770000002, -23.46303539931022], [-50.64549779999999, -23.463457799310206], [-50.64662659999999, -23.46266079931019], [-50.648186899999985, -23.462584399310238], [-50.64896529999998, -23.463225799310177], [-50.649124400000005, -23.46538789931015], [-50.6479996, -23.467861099310092], [-50.64808010000002, -23.470180099310042], [-50.6488076, -23.472542299309982], [-50.65073319999998, -23.47498389930992], [-50.65144559999999, -23.475864599309936], [-50.65360779999997, -23.47770839930986], [-50.65447260000002, -23.479390599309824], [-50.65495010000001, -23.48031939930981], [-50.655753, -23.481960799309807], [-50.65464429999997, -23.483277699309728], [-50.65450929999997, -23.48519629930969], [-50.65548219999999, -23.486097999309724], [-50.6571065, -23.486521399309694], [-50.65558390000001, -23.48754749930966], [-50.654266199999995, -23.487994399309635], [-50.6522157, -23.4889342993096], [-50.650456899999995, -23.490189699309564], [-50.64933459999997, -23.491062699309563], [-50.64746450000001, -23.493080899309525], [-50.64516830000002, -23.494694899309504], [-50.640581699999984, -23.49567379930949], [-50.63845679999997, -23.495119399309505], [-50.63745349999999, -23.492930499309534], [-50.637460499999975, -23.490368699309563], [-50.63789539999999, -23.48815459930961], [-50.63780700000001, -23.48555319930973], [-50.6373031, -23.48438279930971], [-50.635703999999976, -23.482678999309776], [-50.63426340000001, -23.481343499309773], [-50.63348769999999, -23.48062439930982], [-50.631827799999996, -23.478263499309886], [-50.63205449999998, -23.476624499309917], [-50.63159860000002, -23.473732399309984], [-50.63358690000001, -23.47107319930999], [-50.63502119999998, -23.469577299310075], [-50.63712450000003, -23.4679043993101], [-50.637952900000016, -23.467245399310134], [-50.63973249999998, -23.464650099310138], [-50.64218729999998, -23.463896999310162], [-50.6443496, -23.462801399310194]]]}, "properties": {"NUAREACONT": 5.545, "Shape__Area": 0, "Shape__Length": 0, "OBJECTID": 399841, "IDBACIA": 11363, "COTRECHO": 243038, "COCURSODAG": "8642274", "COBACIA": "86422743", "NUORDEMCDA": 6, "NUNIVOTTO1": "8", "NUNIVOTTO2": "86", "NUNIVOTTO3": "864", "NUNIVOTTO4": "8642", "NUNIVOTTO5": "86422", "NUNIVOTTO6": "864227", "NUNIVOTTO": 8, "DSVERSAO": "BHO bho_2017_v_01_05_5k de 2018-06-20"}}, {"type": "Feature", "id": 442333, "geometry": {"type": "Polygon", "coordinates": [[[-50.66435560000002, -23.44814959931056], [-50.66794349999998, -23.446472799310556], [-50.67214610000001, -23.446052499310593], [-50.673795900000016, -23.447337999310562], [-50.675794499999995, -23.4490478993105], [-50.677483400000035, -23.45146789931048], [-50.677167, -23.4548787993104], [-50.675462100000004, -23.458997499310307], [-50.67638449999998, -23.45960079931026], [-50.67869189999999, -23.46142059931024], [-50.682080999999975, -23.461711899310245], [-50.683621500000015, -23.461857199310234], [-50.68454400000002, -23.462711899310197], [-50.68623489999999, -23.464421099310147], [-50.686845500000004, -23.46683879931013], [-50.68822860000001, -23.468405099310072], [-50.6910775, -23.468700199310074], [-50.69392670000002, -23.46983789931007], [-50.695000400000026, -23.470570399310027], [-50.696069799999975, -23.471966799310014], [-50.697037500000015, -23.47520689930992], [-50.69793720000001, -23.47828539930986], [-50.6983922, -23.47984209930982], [-50.69877739999998, -23.48200169930979], [-50.6992621, -23.483261899309753], [-50.700479900000005, -23.483803999309767], [-50.70174780000002, -23.484259299309752], [-50.702393900000004, -23.48661809930966], [-50.702272100000016, -23.489389699309616], [-50.700533699999994, -23.49141189930957], [-50.69869490000002, -23.492372399309566], [-50.6975817, -23.492853499309568], [-50.696019299999996, -23.493769899309527], [-50.69405089999998, -23.49394429930952], [-50.69257679999998, -23.49410129930951], [-50.690410600000014, -23.4936172993095], [-50.688489499999996, -23.492411399309532], [-50.68772710000002, -23.491932799309527], [-50.68651460000001, -23.491450699309542], [-50.68469540000001, -23.490887299309577], [-50.6810782, -23.48911269930964], [-50.679326, -23.488637499309604], [-50.675092099999965, -23.48566639930971], [-50.67329699999999, -23.48589649930971], [-50.6723184, -23.487273699309664], [-50.670754400000014, -23.488709599309622], [-50.66814019999998, -23.48995709930963], [-50.666981299999975, -23.48954119930963], [-50.66620399999999, -23.48840009930962], [-50.66490729999999, -23.486958099309653], [-50.66317340000001, -23.486103699309687], [-50.660423700000024, -23.48598889930968], [-50.65899289999999, -23.486165699309705], [-50.6571065, -23.486521399309694], [-50.65548219999999, -23.486097999309724], [-50.65450929999997, -23.48519629930969], [-50.65464429999997, -23.483277699309728], [-50.655753, -23.481960799309807], [-50.65495010000001, -23.48031939930981], [-50.65447260000002, -23.479390599309824], [-50.65360779999997, -23.47770839930986], [-50.65144559999999, -23.475864599309936], [-50.65073319999998, -23.47498389930992], [-50.6488076, -23.472542299309982], [-50.64808010000002, -23.470180099310042], [-50.6479996, -23.467861099310092], [-50.649124400000005, -23.46538789931015], [-50.64896529999998, -23.463225799310177], [-50.648186899999985, -23.462584399310238], [-50.64662659999999, -23.46266079931019], [-50.64549779999999, -23.463457799310206], [-50.64457770000002, -23.46303539931022], [-50.6443496, -23.462801399310194], [-50.644784300000026, -23.461088599310234], [-50.6453247, -23.459560699310277], [-50.64591380000002, -23.458032799310327], [-50.64616069999999, -23.456863999310343], [-50.6467255, -23.454266699310402], [-50.6479382, -23.454509299310374], [-50.64953969999999, -23.454614799310402], [-50.6504511, -23.45467489931038], [-50.653663800000004, -23.454774799310393], [-50.657647300000015, -23.4535713993104], [-50.660684100000026, -23.452218799310472], [-50.6626814, -23.450623999310483], [-50.66435560000002, -23.44814959931056]]]}, "properties": {"NUAREACONT": 17.582, "Shape__Area": 0, "Shape__Length": 0, "OBJECTID": 442333, "IDBACIA": 41354, "COTRECHO": 392892, "COCURSODAG": "86422742", "COBACIA": "86422742", "NUORDEMCDA": 7, "NUNIVOTTO1": "8", "NUNIVOTTO2": "86", "NUNIVOTTO3": "864", "NUNIVOTTO4": "8642", "NUNIVOTTO5": "86422", "NUNIVOTTO6": "864227", "NUNIVOTTO": 8, "DSVERSAO": "BHO bho_2017_v_01_05_5k de 2018-06-20"}}, {"type": "Feature", "id": 128904, "geometry": {"type": "Polygon", "coordinates": [[[-50.70174780000002, -23.484259299309752], [-50.700479900000005, -23.483803999309767], [-50.6992621, -23.483261899309753], [-50.69877739999998, -23.48200169930979], [-50.6983922, -23.47984209930982], [-50.69793720000001, -23.47828539930986], [-50.697037500000015, -23.47520689930992], [-50.696069799999975, -23.471966799310014], [-50.695000400000026, -23.470570399310027], [-50.69392670000002, -23.46983789931007], [-50.6910775, -23.468700199310074], [-50.68822860000001, -23.468405099310072], [-50.686845500000004, -23.46683879931013], [-50.68623489999999, -23.464421099310147], [-50.68454400000002, -23.462711899310197], [-50.683621500000015, -23.461857199310234], [-50.682080999999975, -23.461711899310245], [-50.67869189999999, -23.46142059931024], [-50.67638449999998, -23.45960079931026], [-50.675462100000004, -23.458997499310307], [-50.677167, -23.4548787993104], [-50.677483400000035, -23.45146789931048], [-50.675794499999995, -23.4490478993105], [-50.673795900000016, -23.447337999310562], [-50.67214610000001, -23.446052499310593], [-50.66794349999998, -23.446472799310556], [-50.66435560000002, -23.44814959931056], [-50.6629044, -23.443657099310634], [-50.662598100000025, -23.442708899310674], [-50.661627399999986, -23.441027699310713], [-50.6622994, -23.438524899310757], [-50.66306789999999, -23.43683299931077], [-50.66405049999997, -23.43377679931084], [-50.663854800000024, -23.4325366993109], [-50.666397399999994, -23.430903399310903], [-50.66874130000003, -23.429169299310978], [-50.669277400000006, -23.428090399310964], [-50.66887680000003, -23.42695069931104], [-50.6676129, -23.42175999931114], [-50.66687189999999, -23.41871629931123], [-50.66695279999999, -23.413685699311287], [-50.66722199999998, -23.412040599311364], [-50.667197900000026, -23.410103099311407], [-50.6674026, -23.407772599311425], [-50.667163899999984, -23.40599529931146], [-50.66630980000002, -23.404190899311537], [-50.6648414, -23.403030299311563], [-50.6643504, -23.402067899311593], [-50.66436169999997, -23.401035399311613], [-50.6658392, -23.398630399311656], [-50.66570519999999, -23.397440999311698], [-50.665323600000015, -23.39655469931173], [-50.66480589999997, -23.395339299311708], [-50.66480869999998, -23.394226099311783], [-50.66546859999999, -23.393392699311775], [-50.666005600000005, -23.392699399311816], [-50.66828650000003, -23.392769899311812], [-50.67023560000001, -23.392773999311768], [-50.67203849999999, -23.392777799311762], [-50.67364759999998, -23.39233139931178], [-50.67394389999998, -23.390712899311815], [-50.67375199999998, -23.389498099311893], [-50.67620640000001, -23.388917099311886], [-50.67733070000003, -23.388691799311868], [-50.67856469999998, -23.388441299311896], [-50.68064620000001, -23.38907809931187], [-50.68259089999998, -23.389638599311873], [-50.683961099999976, -23.39084969931182], [-50.683098700000016, -23.393214499311778], [-50.682810500000016, -23.394004699311747], [-50.68184980000001, -23.397280999311707], [-50.682115399999994, -23.398470799311628], [-50.682707, -23.401120699311573], [-50.68303780000002, -23.40207349931154], [-50.68322119999999, -23.403440599311562], [-50.683562600000016, -23.405600099311517], [-50.683594099999986, -23.406522499311464], [-50.684207500000014, -23.407946799311436], [-50.684978, -23.408764499311445], [-50.685931700000026, -23.40916459931141], [-50.68747170000001, -23.409964599311422], [-50.68858080000001, -23.41044119931137], [-50.689549699999986, -23.41075749931137], [-50.69073780000003, -23.411223399311353], [-50.6921562, -23.412570099311317], [-50.69397279999998, -23.414401599311322], [-50.69352420000001, -23.41546019931125], [-50.69280279999998, -23.416236699311263], [-50.69098969999998, -23.41782699931122], [-50.6906381, -23.41873709931119], [-50.69158149999998, -23.419744599311183], [-50.69445239999999, -23.423049399311136], [-50.69584529999997, -23.42504449931107], [-50.69777290000002, -23.427167999311017], [-50.69934760000001, -23.428109699310983], [-50.70498240000001, -23.430928899310963], [-50.70628720000002, -23.434479499310857], [-50.70660909999997, -23.43585939931084], [-50.707450800000004, -23.437300199310762], [-50.70952879999999, -23.43808369931076], [-50.71089430000001, -23.437786399310763], [-50.71316860000002, -23.43797049931077], [-50.71485799999999, -23.438153499310765], [-50.71563630000003, -23.438934499310758], [-50.71602419999999, -23.439894699310745], [-50.71614979999998, -23.441933799310696], [-50.716932199999974, -23.44475659931063], [-50.717896999999994, -23.445535099310565], [-50.719390299999986, -23.446317399310576], [-50.72270290000001, -23.447342799310558], [-50.72655839999998, -23.44834789931052], [-50.72374100000002, -23.448384499310514], [-50.72200550000002, -23.44944749931053], [-50.71992060000002, -23.45178919931047], [-50.717602699999986, -23.45498329931037], [-50.716963299999975, -23.45729929931033], [-50.71617909999998, -23.46013939931028], [-50.71539089999999, -23.462548599310207], [-50.71488740000001, -23.463611199310197], [-50.71422999999999, -23.464998499310138], [-50.71307180000002, -23.466168999310103], [-50.71364510000001, -23.468302299310096], [-50.71456389999997, -23.470969199310037], [-50.71444650000001, -23.47182189931002], [-50.71270850000001, -23.47384429930996], [-50.711722699999996, -23.474170199309963], [-50.710165500000016, -23.474052799309945], [-50.70843350000001, -23.47330329930998], [-50.707146000000016, -23.47243219931002], [-50.70566189999999, -23.472338599309992], [-50.70508219999999, -23.47319039931], [-50.705546500000025, -23.47416039930996], [-50.70593100000002, -23.47601329930989], [-50.705928099999994, -23.47732779930989], [-50.70559939999998, -23.479478099309826], [-50.70512910000003, -23.480263099309816], [-50.70416920000003, -23.48180559930976], [-50.7032605, -23.48264029930978], [-50.70174780000002, -23.484259299309752]]]}, "properties": {"NUAREACONT": 30.186, "Shape__Area": 0, "Shape__Length": 0, "OBJECTID": 128904, "IDBACIA": 147667, "COTRECHO": 336980, "COCURSODAG": "864226", "COBACIA": "8642265", "NUORDEMCDA": 6, "NUNIVOTTO1": "8", "NUNIVOTTO2": "86", "NUNIVOTTO3": "864", "NUNIVOTTO4": "8642", "NUNIVOTTO5": "86422", "NUNIVOTTO6": "864226", "NUNIVOTTO": 8, "DSVERSAO": "BHO bho_2017_v_01_05_5k de 2018-06-20"}}, {"type": "Feature", "id": 462103, "geometry": {"type": "Polygon", "coordinates": [[[-50.6443496, -23.462801399310194], [-50.64218729999998, -23.463896999310162], [-50.63973249999998, -23.464650099310138], [-50.637952900000016, -23.467245399310134], [-50.63712450000003, -23.4679043993101], [-50.63502119999998, -23.469577299310075], [-50.63358690000001, -23.47107319930999], [-50.63159860000002, -23.473732399309984], [-50.62974339999999, -23.4688309993101], [-50.62811510000001, -23.465680199310164], [-50.62893200000002, -23.464433599310183], [-50.6294423, -23.462363299310223], [-50.6295207, -23.460569199310267], [-50.62946360000001, -23.45775059931032], [-50.62907439999998, -23.455778999310375], [-50.63007779999999, -23.455072699310403], [-50.6312011, -23.454355699310412], [-50.6327632, -23.453594799310434], [-50.63398380000001, -23.452922999310427], [-50.635448199999985, -23.45220689931046], [-50.63787869999998, -23.450742099310492], [-50.639541099999974, -23.450971999310458], [-50.6410133, -23.451375199310434], [-50.64298500000001, -23.45198019931043], [-50.64464939999999, -23.452822799310415], [-50.6467255, -23.454266699310402], [-50.64616069999999, -23.456863999310343], [-50.64591380000002, -23.458032799310327], [-50.6453247, -23.459560699310277], [-50.644784300000026, -23.461088599310234], [-50.6443496, -23.462801399310194]]]}, "properties": {"NUAREACONT": 2.778, "Shape__Area": 0, "Shape__Length": 0, "OBJECTID": 462103, "IDBACIA": 68465, "COTRECHO": 191978, "COCURSODAG": "8642274", "COBACIA": "86422741", "NUORDEMCDA": 6, "NUNIVOTTO1": "8", "NUNIVOTTO2": "86", "NUNIVOTTO3": "864", "NUNIVOTTO4": "8642", "NUNIVOTTO5": "86422", "NUNIVOTTO6": "864227", "NUNIVOTTO": 8, "DSVERSAO": "BHO bho_2017_v_01_05_5k de 2018-06-20"}}, {"type": "Feature", "id": 432804, "geometry": {"type": "Polygon", "coordinates": [[[-50.61027009999998, -23.444464499310595], [-50.61111599999998, -23.446211599310615], [-50.61150270000002, -23.44733699931056], [-50.61193850000001, -23.448327499310544], [-50.6129601, -23.44904969931051], [-50.61427570000001, -23.44927779931052], [-50.61637230000002, -23.449103099310527], [-50.61763960000002, -23.44915119931054], [-50.61934530000001, -23.449335199310525], [-50.62017129999998, -23.450281699310487], [-50.62080179999998, -23.451407699310472], [-50.621920999999986, -23.45212999931045], [-50.62328439999999, -23.452672999310433], [-50.62464749999998, -23.453350899310394], [-50.626303099999966, -23.454029499310394], [-50.627459699999974, -23.45459899931037], [-50.62907439999998, -23.455778999310375], [-50.62946360000001, -23.45775059931032], [-50.6295207, -23.460569199310267], [-50.6294423, -23.462363299310223], [-50.62893200000002, -23.464433599310183], [-50.62811510000001, -23.465680199310164], [-50.625980599999984, -23.46380079931018], [-50.622319600000026, -23.462152399310206], [-50.61999079999998, -23.460814599310247], [-50.61865990000002, -23.46009399931029], [-50.61766319999998, -23.459066799310307], [-50.6167769, -23.458244799310297], [-50.615228100000024, -23.456089099310347], [-50.6137129, -23.455888899310352], [-50.61246999999997, -23.45581829931035], [-50.61108080000003, -23.455747399310372], [-50.61005449999999, -23.45662189931036], [-50.609978399999996, -23.457489299310346], [-50.60911249999998, -23.45835219931028], [-50.608308799999975, -23.458881499310316], [-50.60734100000002, -23.459296499310273], [-50.606131300000015, -23.459707599310285], [-50.60491289999999, -23.459669799310248], [-50.603967300000015, -23.45953459931027], [-50.60285699999997, -23.45941799931031], [-50.601005900000025, -23.459413199310266], [-50.5999569, -23.45944849931029], [-50.59849509999998, -23.459956999310243], [-50.59692749999999, -23.46093609931027], [-50.596211299999986, -23.460235799310297], [-50.594918199999995, -23.459359599310318], [-50.592719400000014, -23.45874669931031], [-50.59070389999999, -23.45872249931033], [-50.58920260000002, -23.45871849931028], [-50.58759809999998, -23.45879019931031], [-50.58677110000002, -23.458798599310327], [-50.587449400000025, -23.457291199310326], [-50.59028719999998, -23.453698899310417], [-50.591670599999986, -23.45189409931046], [-50.59321060000002, -23.450456099310493], [-50.59529739999999, -23.449525499310496], [-50.597740499999986, -23.44864629931054], [-50.5996346, -23.447968099310557], [-50.6020186, -23.447364399310587], [-50.60602929999999, -23.44601109931062], [-50.607600199999986, -23.445438199310612], [-50.61027009999998, -23.444464499310595]]]}, "properties": {"NUAREACONT": 4.672000000000001, "Shape__Area": 0, "Shape__Length": 0, "OBJECTID": 432804, "IDBACIA": 178524, "COTRECHO": 169146, "COCURSODAG": "86422", "COBACIA": "86422751", "NUORDEMCDA": 5, "NUNIVOTTO1": "8", "NUNIVOTTO2": "86", "NUNIVOTTO3": "864", "NUNIVOTTO4": "8642", "NUNIVOTTO5": "86422", "NUNIVOTTO6": "864227", "NUNIVOTTO": 8, "DSVERSAO": "BHO bho_2017_v_01_05_5k de 2018-06-20"}}, {"type": "Feature", "id": 211366, "geometry": {"type": "Polygon", "coordinates": [[[-50.66435560000002, -23.44814959931056], [-50.6626814, -23.450623999310483], [-50.660684100000026, -23.452218799310472], [-50.657647300000015, -23.4535713993104], [-50.653663800000004, -23.454774799310393], [-50.6504511, -23.45467489931038], [-50.64953969999999, -23.454614799310402], [-50.6479382, -23.454509299310374], [-50.6467255, -23.454266699310402], [-50.64464939999999, -23.452822799310415], [-50.64298500000001, -23.45198019931043], [-50.6410133, -23.451375199310434], [-50.639541099999974, -23.450971999310458], [-50.63787869999998, -23.450742099310492], [-50.635448199999985, -23.45220689931046], [-50.63398380000001, -23.452922999310427], [-50.6327632, -23.453594799310434], [-50.6312011, -23.454355699310412], [-50.63007779999999, -23.455072699310403], [-50.62907439999998, -23.455778999310375], [-50.627459699999974, -23.45459899931037], [-50.626303099999966, -23.454029499310394], [-50.62464749999998, -23.453350899310394], [-50.62328439999999, -23.452672999310433], [-50.621920999999986, -23.45212999931045], [-50.62080179999998, -23.451407699310472], [-50.62017129999998, -23.450281699310487], [-50.61934530000001, -23.449335199310525], [-50.61763960000002, -23.44915119931054], [-50.61637230000002, -23.449103099310527], [-50.61427570000001, -23.44927779931052], [-50.6129601, -23.44904969931051], [-50.61193850000001, -23.448327499310544], [-50.61150270000002, -23.44733699931056], [-50.61111599999998, -23.446211599310615], [-50.61027009999998, -23.444464499310595], [-50.61168529999998, -23.44347009931066], [-50.61391009999999, -23.442160099310705], [-50.61734180000002, -23.440675899310683], [-50.61934430000002, -23.440351899310713], [-50.622170100000005, -23.439776899310758], [-50.62491510000001, -23.438670399310734], [-50.62749689999998, -23.437082699310814], [-50.628673100000015, -23.436300399310795], [-50.62939260000002, -23.435721099310847], [-50.629779600000006, -23.434558199310864], [-50.62964629999999, -23.433217099310852], [-50.629634899999985, -23.43193329931093], [-50.62962540000001, -23.430864199310896], [-50.629135700000006, -23.429522199310973], [-50.628863799999976, -23.42871199931099], [-50.629252199999996, -23.427068499311034], [-50.63042109999998, -23.42636979931101], [-50.63208279999998, -23.42464649931106], [-50.6337585, -23.423410799311103], [-50.63502319999998, -23.42209819931111], [-50.63642490000001, -23.420836499311168], [-50.637167499999975, -23.419952799311147], [-50.63748570000001, -23.419080299311215], [-50.63803209999998, -23.419561999311174], [-50.6391243, -23.42118369931111], [-50.63999669999998, -23.422973499311112], [-50.640796799999976, -23.42449329931107], [-50.64192609999997, -23.425946299311065], [-50.6430565, -23.426960899311], [-50.643822399999976, -23.427637299311023], [-50.644661499999984, -23.428246399310975], [-50.64601169999998, -23.429126499310968], [-50.647362799999996, -23.429702999310972], [-50.650205700000015, -23.430409599310963], [-50.65228680000001, -23.430897299310963], [-50.65410350000002, -23.430977999310908], [-50.65832039999998, -23.43175609931088], [-50.66120590000002, -23.432192899310913], [-50.663854800000024, -23.4325366993109], [-50.66405049999997, -23.43377679931084], [-50.66306789999999, -23.43683299931077], [-50.6622994, -23.438524899310757], [-50.661627399999986, -23.441027699310713], [-50.662598100000025, -23.442708899310674], [-50.6629044, -23.443657099310634], [-50.66435560000002, -23.44814959931056]]]}, "properties": {"NUAREACONT": 12.024000000000001, "Shape__Area": 0, "Shape__Length": 0, "OBJECTID": 211366, "IDBACIA": 283772, "COTRECHO": 357205, "COCURSODAG": "86422", "COBACIA": "86422739", "NUORDEMCDA": 5, "NUNIVOTTO1": "8", "NUNIVOTTO2": "86", "NUNIVOTTO3": "864", "NUNIVOTTO4": "8642", "NUNIVOTTO5": "86422", "NUNIVOTTO6": "864227", "NUNIVOTTO": 8, "DSVERSAO": "BHO bho_2017_v_01_05_5k de 2018-06-20"}}]}