{"type": "FeatureCollection", "features": [{"type": "Feature", "id": 14298, "geometry": {"type": "Polygon", "coordinates": [[[-50.66607397699994, -23.51495482730897], [-50.66578092399993, -23.51533411630898], [-50.66571291099996, -23.515541182309004], [-50.665652869999974, -23.515617018308955], [-50.665555319999946, -23.515651314308982], [-50.66545050999997, -23.515651089308978], [-50.665255883999976, -23.515609300308945], [-50.66506852899994, -23.515636447308975], [-50.66495600199994, -23.51570530630898], [-50.66480595899998, -23.51577408430899], [-50.66446121299998, -23.515869992308986], [-50.663981416999945, -23.51599333830899], [-50.66365908399996, -23.516096248308934], [-50.66352411399998, -23.51613046130899], [-50.66333696099996, -23.516116237308964], [-50.66320218399994, -23.516074575308956], [-50.66312001599994, -23.515991477308944], [-50.663112905999974, -23.51586021630897], [-50.663158804999966, -23.515452757309017], [-50.66322741899995, -23.51501084330899], [-50.66329516199994, -23.51487278830902], [-50.663460706999956, -23.514562329308966], [-50.66355132899997, -23.514286213309035], [-50.663641985999966, -23.513996367308998], [-50.66373229899995, -23.513803080309], [-50.66382249899993, -23.513692804309013], [-50.66395895399995, -23.513612617309043], [-50.66421811199996, -23.513582736309043], [-50.664452393999966, -23.51362894630904], [-50.66447850399993, -23.513646075308994], [-50.664646291999986, -23.513763591309043], [-50.66478077599999, -23.513881396309035], [-50.66488535099996, -23.51401277730899], [-50.66500497099998, -23.514082135309007], [-50.665311832999976, -23.514207176309], [-50.66584504299993, -23.514418513308993], [-50.665977279999936, -23.514495846309025], [-50.66606770699997, -23.514566767309], [-50.66609533199994, -23.514682535309003], [-50.66607202199998, -23.51487551530901], [-50.66607397699994, -23.51495482730897]]]}, "properties": {"objectid": 14298, "nome": null, "tipo": "Represa/Açude/Lago/Lagoa", "regime": "Permanente", "fonte_topo": null, "fonte_mape": "PARANACIDADE", "Shape__Area": 4.934195769404302e-06, "Shape__Length": 0.008853211671066605}}, {"type": "Feature", "id": 14309, "geometry": {"type": "Polygon", "coordinates": [[[-50.68695993599994, -23.50147741330931], [-50.68695743099994, -23.501377144309274], [-50.68772607699998, -23.501174094309306], [-50.687947673999986, -23.501152678309314], [-50.68824977999998, -23.501172975309313], [-50.688639628999965, -23.501241139309286], [-50.688781730999956, -23.501288484309324], [-50.688668192999955, -23.501506489309275], [-50.68848265499997, -23.501645494309273], [-50.68826793799997, -23.501739457309313], [-50.68790209499997, -23.501833117309303], [-50.68759489299998, -23.501854993309255], [-50.68692730899994, -23.501772719309304], [-50.68695993599994, -23.50147741330931]]]}, "properties": {"objectid": 14309, "nome": null, "tipo": "Represa/Açude/Lago/Lagoa", "regime": "Permanente", "fonte_topo": null, "fonte_mape": "PARANACIDADE", "Shape__Area": 9.56029562234429e-07, "Shape__Length": 0.004333643100347298}}, {"type": "Feature", "id": 14324, "geometry": {"type": "Polygon", "coordinates": [[[-50.64452729899994, -23.496949212309378], [-50.64452285699997, -23.496998882309388], [-50.64447110699996, -23.497378140309383], [-50.64442750699993, -23.497639990309406], [-50.644320566999966, -23.49803718830937], [-50.64420411199996, -23.498294355309387], [-50.643961357999956, -23.498424776309374], [-50.64364347199995, -23.498523410309353], [-50.64332583899994, -23.49849106830936], [-50.643132038999966, -23.49840933030935], [-50.64310980299996, -23.49822862330939], [-50.64317573899996, -23.498075218309356], [-50.64331198299993, -23.497962620309362], [-50.64343173599997, -23.497827403309383], [-50.643432160999964, -23.497669330309364], [-50.64339507599993, -23.497547303309393], [-50.64330277999994, -23.497488379309374], [-50.643179276999945, -23.49745196530941], [-50.643105405999954, -23.49738856730939], [-50.64305669099998, -23.497293611309402], [-50.64311764299998, -23.49713567730939], [-50.64329497199998, -23.497005108309367], [-50.64340281399996, -23.49696470830938], [-50.643501583999985, -23.49687460630938], [-50.64362617199998, -23.496761982309394], [-50.64371284399994, -23.496617656309393], [-50.64390619499994, -23.496428410309413], [-50.64407767199997, -23.49639718730941], [-50.64425694899995, -23.496415662309396], [-50.644491807999934, -23.496488460309408], [-50.644544880999945, -23.496565359309432], [-50.64455935299998, -23.4966466873094], [-50.64453992899997, -23.496804716309413], [-50.64452729899994, -23.496949212309378]]]}, "properties": {"objectid": 14324, "nome": null, "tipo": "Represa/Açude/Lago/Lagoa", "regime": "Permanente", "fonte_topo": null, "fonte_mape": "PARANACIDADE", "Shape__Area": 2.1843083300548093e-06, "Shape__Length": 0.006290034814479678}}, {"type": "Feature", "id": 14342, "geometry": {"type": "Polygon", "coordinates": [[[-50.64786967699995, -23.50093211930932], [-50.64782337599997, -23.500479925309328], [-50.64783708299996, -23.500260821309347], [-50.647921708999945, -23.500111611309332], [-50.64805166699995, -23.499968554309323], [-50.64809718799996, -23.499902899309316], [-50.64830214199998, -23.49991727230931], [-50.64847596699997, -23.499999320309335], [-50.64848222499995, -23.500077016309344], [-50.64843429299998, -23.50016515830932], [-50.64830613399993, -23.50047984130931], [-50.64807591799997, -23.500978472309328], [-50.64796166299994, -23.501109460309284], [-50.64786967699995, -23.50093211930932]]]}, "properties": {"objectid": 14342, "nome": null, "tipo": "Represa/Açude/Lago/Lagoa", "regime": "Permanente", "fonte_topo": null, "fonte_mape": "PARANACIDADE", "Shape__Area": 4.631848646333844e-07, "Shape__Length": 0.0029573303658749894}}, {"type": "Feature", "id": 14347, "geometry": {"type": "Polygon", "coordinates": [[[-50.67597863999998, -23.49975923730934], [-50.67584917999994, -23.49987187830933], [-50.67567231999993, -23.499862477309335], [-50.675576914999965, -23.499826147309335], [-50.67521476499996, -23.499730549309362], [-50.674935353999956, -23.499603507309327], [-50.67471156399995, -23.499481098309364], [-50.67456229299995, -23.499444655309368], [-50.674459343999956, -23.49948960430934], [-50.67440219599996, -23.49958884530932], [-50.674167025999964, -23.49963351730932], [-50.67411814399997, -23.499597284309324], [-50.674064398999974, -23.49954749130936], [-50.67389339099997, -23.499389059309333], [-50.67384943999997, -23.499339287309326], [-50.673685456999976, -23.499072477309355], [-50.67350351799996, -23.498620457309354], [-50.67345369499998, -23.498489377309337], [-50.67353372399998, -23.498286307309346], [-50.673587091999934, -23.498250288309357], [-50.673751452999966, -23.49812417330936], [-50.673800333999964, -23.498160407309353], [-50.67393060399996, -23.498196811309352], [-50.67406100599994, -23.49817901830938], [-50.674163920999945, -23.498147618309364], [-50.67437880199998, -23.498148068309384], [-50.67455743199997, -23.498193605309392], [-50.67463083099994, -23.498216340309337], [-50.67472364199995, -23.49831137830938], [-50.67477685499995, -23.49857795630935], [-50.67477174699997, -23.49866375730937], [-50.67476915499998, -23.49872246430936], [-50.67476896599993, -23.498799243309346], [-50.674787755999944, -23.498885093309344], [-50.674807199999975, -23.498943847309356], [-50.674807011999974, -23.49902062530934], [-50.67483739199997, -23.499092951309354], [-50.67488081099998, -23.49912014030933], [-50.67496158999995, -23.499129341309356], [-50.675054057999944, -23.49912501730937], [-50.67512871099996, -23.499116140309333], [-50.67523099399995, -23.49910280430935], [-50.67528983599993, -23.499071312309336], [-50.675587503999964, -23.49898160530936], [-50.675662519999946, -23.498864335309342], [-50.675742113999945, -23.49883740230938], [-50.675804056999944, -23.49881946530933], [-50.67590630699994, -23.498819678309353], [-50.67608560299993, -23.498833600309347], [-50.67620357599998, -23.49889255830936], [-50.67636441399998, -23.49896515530933], [-50.67641022699996, -23.499014930309365], [-50.67639140599994, -23.49918199830936], [-50.67631098199996, -23.499267642309324], [-50.676261857999975, -23.499330769309356], [-50.67615080999997, -23.49944344830934], [-50.67603275099998, -23.499659989309325], [-50.67600323599998, -23.499714125309335], [-50.67597863999998, -23.49975923730934]]]}, "properties": {"objectid": 14347, "nome": null, "tipo": "Represa/Açude/Lago/Lagoa", "regime": "Permanente", "fonte_topo": null, "fonte_mape": "PARANACIDADE", "Shape__Area": 2.6389205405565043e-06, "Shape__Length": 0.008324270945773194}}, {"type": "Feature", "id": 14351, "geometry": {"type": "Polygon", "coordinates": [[[-50.64582530899997, -23.497272831309402], [-50.645898295999984, -23.497227833309374], [-50.64597239799998, -23.497205419309378], [-50.64611451899997, -23.49716509530938], [-50.64627502699994, -23.497133844309392], [-50.646398710999954, -23.497102510309425], [-50.64653479499998, -23.49704862330939], [-50.64674499299997, -23.496967804309378], [-50.64689322099997, -23.4969139443094], [-50.64701461299996, -23.496860022309395], [-50.64707093999993, -23.49685563430942], [-50.647160260999954, -23.496855836309383], [-50.647229970999945, -23.496901157309402], [-50.647270128999935, -23.496973510309406], [-50.64728942899995, -23.49708194730939], [-50.64726956399994, -23.49718577930938], [-50.64723203299996, -23.497266989309402], [-50.647167002999936, -23.497302973309413], [-50.646985095999995, -23.497352241309418], [-50.646805515999965, -23.49744667830938], [-50.64667540999994, -23.497572842309367], [-50.64663161099998, -23.497690168309372], [-50.64663123799994, -23.497830175309403], [-50.64667434999996, -23.497970281309396], [-50.64672307899997, -23.498060719309375], [-50.64676201399993, -23.498151135309346], [-50.646693489999954, -23.498358733309384], [-50.64659930799996, -23.49834497030935], [-50.64652528999994, -23.498335770309385], [-50.64645126899995, -23.498290438309365], [-50.64637749199994, -23.498190910309354], [-50.64628474999995, -23.498077790309374], [-50.64616291199996, -23.497894600309348], [-50.64614330499996, -23.4978651993094], [-50.646002156999934, -23.49776100230936], [-50.64596088199995, -23.497703459309403], [-50.64589179799998, -23.497607194309374], [-50.645843069999955, -23.497516756309402], [-50.645789552999986, -23.49738565930939], [-50.645792781999944, -23.497313404309374], [-50.64582530899997, -23.497272831309402]]]}, "properties": {"objectid": 14351, "nome": null, "tipo": "Represa/Açude/Lago/Lagoa", "regime": "Permanente", "fonte_topo": null, "fonte_mape": "PARANACIDADE", "Shape__Area": 1.0414839106700685e-06, "Shape__Length": 0.004875163878922089}}, {"type": "Feature", "id": 14356, "geometry": {"type": "Polygon", "coordinates": [[[-50.662040536999946, -23.495845535309403], [-50.66204493199996, -23.4957732833094], [-50.66205925399999, -23.49568750230942], [-50.662100496999976, -23.495606297309404], [-50.66219184999995, -23.495538749309446], [-50.66230264099994, -23.495529956309444], [-50.66242078899995, -23.49551666330944], [-50.66257340499993, -23.4954673143094], [-50.66276807699995, -23.495440637309404], [-50.662976148999974, -23.49545915230943], [-50.66319147499996, -23.495513815309454], [-50.663399535999986, -23.49553684630946], [-50.663566007999975, -23.495546238309434], [-50.663711728999935, -23.495551069309446], [-50.663878108999945, -23.49559659230943], [-50.66393363499997, -23.4956373593094], [-50.66399599299996, -23.49568717430941], [-50.664044916999956, -23.495705345309435], [-50.66410730299998, -23.49570548030943], [-50.664232253999955, -23.49567413430942], [-50.664398828999936, -23.495642878309418], [-50.66452384899998, -23.495584435309418], [-50.664648879999966, -23.49552147430945], [-50.66476721699996, -23.495472049309406], [-50.66490625999995, -23.495445249309405], [-50.665038429999974, -23.49546359930941], [-50.66512808699998, -23.495563152309458], [-50.66539164699998, -23.49567662830942], [-50.66560681499993, -23.49579451630944], [-50.66574569799996, -23.49583094530942], [-50.665900446999956, -23.495867408309444], [-50.666007003999944, -23.4958676373094], [-50.666470361999984, -23.495864113309434], [-50.66653646999998, -23.495864254309424], [-50.66668404499996, -23.495832955309425], [-50.666961398999945, -23.495797417309408], [-50.66701224099995, -23.495793010309395], [-50.66707102599997, -23.495784102309415], [-50.66760968699999, -23.495785252309425], [-50.66790350199994, -23.495785879309445], [-50.668022888999985, -23.495786133309437], [-50.668442161999955, -23.49578702630942], [-50.66851065199995, -23.495814270309438], [-50.66850060899997, -23.49591360930942], [-50.66846125299997, -23.495985788309444], [-50.66841705699994, -23.49603537430943], [-50.66832930699996, -23.4961119663094], [-50.66819629899993, -23.496192978309406], [-50.667956337999954, -23.4961969833094], [-50.667608667999964, -23.496191725309412], [-50.66727079099997, -23.49618648830943], [-50.66696718099997, -23.496185839309412], [-50.66684778299998, -23.49619010030944], [-50.66657970199997, -23.49619856030944], [-50.665850544999955, -23.496237645309392], [-50.66579168999994, -23.49627365030943], [-50.66530676899998, -23.496322289309422], [-50.66500135499996, -23.49629905130944], [-50.664716915999975, -23.49623069430941], [-50.66453338399998, -23.4961896513094], [-50.66422762399998, -23.496071566309407], [-50.66352814599998, -23.495993279309406], [-50.663226005999945, -23.495915848309426], [-50.66282811599996, -23.495901438309435], [-50.66245761599998, -23.495977415309426], [-50.66210180599995, -23.496053422309448], [-50.66207196899995, -23.495963030309436], [-50.662040536999946, -23.495845535309403]]]}, "properties": {"objectid": 14356, "nome": null, "tipo": "Represa/Açude/Lago/Lagoa", "regime": "Permanente", "fonte_topo": null, "fonte_mape": "PARANACIDADE", "Shape__Area": 2.9619538828252413e-06, "Shape__Length": 0.013821529577678536}}, {"type": "Feature", "id": 14357, "geometry": {"type": "Polygon", "coordinates": [[[-50.669000478999976, -23.495761115309442], [-50.66901092699994, -23.495499186309427], [-50.66909735699994, -23.495440657309427], [-50.66917695799998, -23.49544985830944], [-50.66924603399997, -23.495477103309454], [-50.669326188999946, -23.49549985530946], [-50.66945647699998, -23.495527230309445], [-50.66965239899997, -23.495509580309445], [-50.66997912499994, -23.49558705130944], [-50.67038048099994, -23.49566467930942], [-50.67067905799997, -23.495719507309442], [-50.67103313999996, -23.495824132309398], [-50.67139703699997, -23.49596039230942], [-50.671611678999966, -23.49605568830941], [-50.671779193999946, -23.496119271309393], [-50.67194735999993, -23.496196403309387], [-50.672167929999944, -23.496350425309384], [-50.67224067299998, -23.496400258309382], [-50.67242628799993, -23.49659033730943], [-50.67246413199996, -23.496653646309408], [-50.67262138499996, -23.49690689430938], [-50.672691810999936, -23.497141894309408], [-50.672737963999964, -23.497291032309388], [-50.672795816999944, -23.497422129309395], [-50.672842248999984, -23.497458358309387], [-50.67273730599993, -23.497557498309412], [-50.67252712699997, -23.497398983309395], [-50.67230213399995, -23.497290116309415], [-50.672023984999946, -23.497131457309408], [-50.67191093499997, -23.497063474309385], [-50.671690962999946, -23.496904937309388], [-50.67164701399997, -23.49685516430938], [-50.67152486899994, -23.496741997309393], [-50.67147110399998, -23.496701236309416], [-50.67132441899997, -23.49661059930939], [-50.67107990799996, -23.496474591309426], [-50.67093311199995, -23.496429117309425], [-50.670492723999985, -23.496292695309418], [-50.67041628999993, -23.49626995130944], [-50.67019913299998, -23.496201746309392], [-50.67005233699996, -23.49615627130941], [-50.66970977699999, -23.496065218309404], [-50.66944544499995, -23.496024010309444], [-50.669082992999954, -23.496054855309406], [-50.66902922899993, -23.496014093309448], [-50.66900452799996, -23.49586500030944], [-50.669000478999976, -23.495761115309442]]]}, "properties": {"objectid": 14357, "nome": null, "tipo": "Represa/Açude/Lago/Lagoa", "regime": "Permanente", "fonte_topo": null, "fonte_mape": "PARANACIDADE", "Shape__Area": 2.437549592438245e-06, "Shape__Length": 0.009454911370013523}}, {"type": "Feature", "id": 14358, "geometry": {"type": "Polygon", "coordinates": [[[-50.656403703999956, -23.495038324309423], [-50.656464066999945, -23.49491199830944], [-50.65653411899996, -23.494826341309444], [-50.65657276099995, -23.494767714309454], [-50.656681282999955, -23.49472730530945], [-50.65676579799998, -23.494691360309467], [-50.65683930999995, -23.494668940309424], [-50.65689999199998, -23.494646492309442], [-50.65708360099996, -23.49465592930946], [-50.65731243399994, -23.494674498309426], [-50.657428015999976, -23.494706367309476], [-50.65753323299999, -23.494769827309447], [-50.657602836999956, -23.49481966130943], [-50.657655398999964, -23.494869456309424], [-50.65771454999998, -23.494946365309463], [-50.65777002699997, -23.495005200309457], [-50.65786540499994, -23.495086704309433], [-50.65819525899997, -23.495087428309457], [-50.658416612999986, -23.495196307309435], [-50.658574731999984, -23.49536827630944], [-50.65869321099996, -23.495454347309433], [-50.65881542499994, -23.49553590930942], [-50.65885925299994, -23.495630849309418], [-50.65882599799995, -23.49568949030942], [-50.658802094999935, -23.495730085309457], [-50.65871817399995, -23.49572538530942], [-50.658574975999954, -23.495729587309434], [-50.65841337799998, -23.495729233309415], [-50.65822065399993, -23.495683647309427], [-50.65804554599998, -23.495719394309457], [-50.65778969199994, -23.495696250309432], [-50.65750947399993, -23.49566402030946], [-50.65727511599994, -23.495622857309407], [-50.657101543999936, -23.495518598309456], [-50.65689004799999, -23.495423288309446], [-50.656732295999966, -23.495337130309405], [-50.65653285499996, -23.495314108309415], [-50.656338894999976, -23.495254968309457], [-50.65634399099997, -23.495178200309415], [-50.656403703999956, -23.495038324309423]]]}, "properties": {"objectid": 14358, "nome": null, "tipo": "Represa/Açude/Lago/Lagoa", "regime": "Permanente", "fonte_topo": null, "fonte_mape": "PARANACIDADE", "Shape__Area": 1.5787549615592074e-06, "Shape__Length": 0.005899605838632116}}, {"type": "Feature", "id": 14382, "geometry": {"type": "Polygon", "coordinates": [[[-50.68358912599996, -23.48116488530973], [-50.68367750199996, -23.48102297830974], [-50.68372668099994, -23.480932750309762], [-50.683777633999966, -23.48087865730975], [-50.68407431299994, -23.480937971309732], [-50.68510137199997, -23.481436854309752], [-50.68593770399997, -23.48184050030974], [-50.68613284399999, -23.48189509030974], [-50.68632433799996, -23.481918058309734], [-50.68654412099994, -23.481904951309758], [-50.68670885599994, -23.481855601309725], [-50.68683257099997, -23.481842301309747], [-50.686914472999945, -23.481869564309726], [-50.68691420699997, -23.481982473309728], [-50.68690054499996, -23.48208632330975], [-50.68686725399993, -23.48216755130974], [-50.68686706199998, -23.4822488463097], [-50.686874854999985, -23.48230757530975], [-50.68691517299993, -23.482610255309698], [-50.68702649099998, -23.48316148030972], [-50.68707988299997, -23.483360308309727], [-50.68715311699998, -23.48345078430969], [-50.687157757999955, -23.48355918630971], [-50.687206508999964, -23.483649612309705], [-50.687345749999956, -23.483780867309687], [-50.688030923999975, -23.484423569309666], [-50.688159251999934, -23.484532220309653], [-50.68834015699997, -23.484645491309696], [-50.688452617999985, -23.484713462309653], [-50.68971452399995, -23.485312144309663], [-50.69100142999997, -23.48569407830962], [-50.69138309799996, -23.48580774530968], [-50.691816600999964, -23.485993775309627], [-50.69243402299998, -23.486094355309653], [-50.69276286099995, -23.486271143309626], [-50.69321452699996, -23.48656559930963], [-50.693653309999945, -23.48684196330962], [-50.69395468399995, -23.486996112309644], [-50.694146695999954, -23.4870958503096], [-50.69428828099996, -23.487276784309607], [-50.69421457099998, -23.487389549309594], [-50.69393035899998, -23.48747931930963], [-50.693350349999946, -23.487374302309625], [-50.693021002999956, -23.4873736543096], [-50.69264773699996, -23.487350336309618], [-50.692456884999956, -23.487300279309597], [-50.69192314299995, -23.487303742309596], [-50.691207879999986, -23.487455884309625], [-50.69113427299993, -23.487523484309595], [-50.69101648099996, -23.487640677309585], [-50.690986952999936, -23.487703848309607], [-50.69093299599996, -23.487744389309583], [-50.69080620799997, -23.48777123630959], [-50.69069294499997, -23.48779359330963], [-50.690599919999954, -23.48778889230961], [-50.69024915999995, -23.487521728309634], [-50.690167224999975, -23.4872550973096], [-50.69007141799995, -23.487141997309628], [-50.68987930399993, -23.48708741830964], [-50.68967379399999, -23.487023779309624], [-50.68948208299997, -23.48679757730961], [-50.689055485999965, -23.48654832530961], [-50.688982195999984, -23.486480433309602], [-50.68879762999995, -23.486340056309622], [-50.688798159999976, -23.48611423730966], [-50.688867039999934, -23.48597436630967], [-50.68881233199994, -23.485834248309622], [-50.68866540299996, -23.485847504309678], [-50.68829847999996, -23.48571127930967], [-50.68771089299998, -23.48571010330965], [-50.68763749799995, -23.48568737430964], [-50.68741380499995, -23.485528851309656], [-50.687249778999956, -23.48527560430968], [-50.68709909799998, -23.485094645309644], [-50.686825276999976, -23.484931505309675], [-50.68648216499997, -23.48479080730967], [-50.68609861199997, -23.484690674309682], [-50.685851980999985, -23.484459841309697], [-50.68553802899999, -23.483917240309705], [-50.68507294099993, -23.483347234309687], [-50.684854227999956, -23.48319775130972], [-50.68470568799995, -23.483107122309715], [-50.684651901999985, -23.48307539930971], [-50.68426431499995, -23.482862343309712], [-50.68404489699998, -23.482762538309725], [-50.683757515999964, -23.482621947309738], [-50.68360658299997, -23.482508731309697], [-50.68338749999998, -23.48226891730971], [-50.68322306599998, -23.482191804309732], [-50.683059239999984, -23.482065011309746], [-50.68311420699996, -23.48188898430973], [-50.683235209999964, -23.481699541309734], [-50.683480891999984, -23.481338727309765], [-50.68358912599996, -23.48116488530973]]]}, "properties": {"objectid": 14382, "nome": null, "tipo": "Represa/Açude/Lago/Lagoa", "regime": "Permanente", "fonte_topo": null, "fonte_mape": "PARANACIDADE", "Shape__Area": 1.7945709909494073e-05, "Shape__Length": 0.028782261271616892}}, {"type": "Feature", "id": 14398, "geometry": {"type": "Polygon", "coordinates": [[[-50.67538411999994, -23.475803036309856], [-50.675513612999964, -23.475667813309883], [-50.67568021499995, -23.475613963309847], [-50.67582806599995, -23.475700082309856], [-50.67612412899996, -23.475804575309894], [-50.676548827999966, -23.476044826309863], [-50.67682576399995, -23.476162826309842], [-50.677066153999924, -23.476249136309878], [-50.67717979899993, -23.47630808530986], [-50.67728191099996, -23.476357976309874], [-50.67753554099993, -23.47651657530984], [-50.67770004199996, -23.476562079309854], [-50.67804255799995, -23.476653115309862], [-50.67852705299998, -23.476748959309845], [-50.67862009199996, -23.476744635309885], [-50.678914952999946, -23.47678137330983], [-50.67928499899995, -23.47666470830988], [-50.67964871199996, -23.476575128309864], [-50.67982353899998, -23.476683881309864], [-50.67982990399997, -23.476805837309858], [-50.67970388499998, -23.47704494730984], [-50.67962226999998, -23.47714414130982], [-50.67954123099998, -23.47724785130983], [-50.67950289799995, -23.477387781309815], [-50.67938342699995, -23.47771271630985], [-50.67933318899997, -23.477956499309816], [-50.67931994599996, -23.478128095309852], [-50.679332501999966, -23.478241031309835], [-50.67935675399997, -23.478335925309803], [-50.67939197299996, -23.478471490309786], [-50.67944771299995, -23.478706457309826], [-50.679652809999936, -23.479176585309787], [-50.67970105499996, -23.479230881309803], [-50.67979876299995, -23.479321409309794], [-50.67998931599993, -23.479488907309786], [-50.68001846499993, -23.479583812309816], [-50.68031332199996, -23.479909598309767], [-50.68057173999995, -23.480077234309775], [-50.68090427799996, -23.48024953830976], [-50.68138481799997, -23.48048989130979], [-50.681680884999935, -23.480558241309787], [-50.68193955599998, -23.48066264730977], [-50.68214322299997, -23.480712742309773], [-50.68236458399998, -23.48081707130979], [-50.68252899499999, -23.480903217309788], [-50.682502154999945, -23.481110917309753], [-50.682433540999966, -23.481137876309774], [-50.682139757999956, -23.481137277309745], [-50.68157678199998, -23.48109096430976], [-50.68142978199995, -23.48113582830977], [-50.68069906799997, -23.48084076730977], [-50.68064712299997, -23.48081807830977], [-50.68052972999993, -23.480768158309786], [-50.68031466999997, -23.480609643309784], [-50.68014001199998, -23.480428628309777], [-50.679983720999985, -23.48026571730976], [-50.67983594999999, -23.480143471309773], [-50.679714140999984, -23.479894819309788], [-50.67940149599997, -23.479596093309762], [-50.67929888099996, -23.479510071309818], [-50.678567321999935, -23.47908402230977], [-50.67829181599996, -23.47885763430978], [-50.67811175599997, -23.478644992309796], [-50.67796830799995, -23.478518236309803], [-50.67786276899994, -23.47834639530981], [-50.677744477999966, -23.47818356030984], [-50.67752574899998, -23.478006968309845], [-50.67700742699998, -23.477725878309805], [-50.67648928399996, -23.477372524309853], [-50.67625222399993, -23.47720492630983], [-50.67615210499997, -23.477100840309866], [-50.67600246899997, -23.476983103309824], [-50.675863135999975, -23.47689700230986], [-50.675730992999945, -23.47687414530984], [-50.67566248999998, -23.476855937309875], [-50.67558921299997, -23.476788038309827], [-50.67545131899993, -23.476634194309874], [-50.675325545999954, -23.47648940730987], [-50.675256953999956, -23.476267961309848], [-50.675272339999935, -23.476222829309886], [-50.67527285999994, -23.47601055930987], [-50.67534643499994, -23.475956515309846], [-50.67538411999994, -23.475803036309856]]]}, "properties": {"objectid": 14398, "nome": null, "tipo": "Represa/Açude/Lago/Lagoa", "regime": "Permanente", "fonte_topo": null, "fonte_mape": "PARANACIDADE", "Shape__Area": 9.209371681447067e-06, "Shape__Length": 0.020776695036549837}}, {"type": "Feature", "id": 14401, "geometry": {"type": "Polygon", "coordinates": [[[-50.68439036299998, -23.47569506630986], [-50.68438072099997, -23.475631817309875], [-50.68448659099994, -23.475379113309884], [-50.684653263999955, -23.475293638309896], [-50.684875655999974, -23.475208276309903], [-50.68531959299997, -23.475105295309913], [-50.68565264999996, -23.475056286309908], [-50.68602293999999, -23.475038967309914], [-50.68631609999994, -23.475048590309896], [-50.68640913799993, -23.475044260309875], [-50.68667054799994, -23.475022204309898], [-50.68717011599995, -23.474955461309907], [-50.68755877299998, -23.47495624030991], [-50.68772564599993, -23.47478495130987], [-50.68787339499994, -23.474667820309907], [-50.68796670799998, -23.474546064309912], [-50.688188442999945, -23.474447146309924], [-50.688521666999975, -23.47432586930992], [-50.68874396999996, -23.474276633309927], [-50.68902111399996, -23.47430880130989], [-50.68940988599997, -23.47425989530992], [-50.68979869899994, -23.474192923309907], [-50.69020574999997, -23.474157601309894], [-50.690475246999945, -23.47406780830992], [-50.69068681899996, -23.47412694130989], [-50.69079759399994, -23.474158776309906], [-50.69094541099997, -23.4742629463099], [-50.69103756599998, -23.4743850723099], [-50.691085863999945, -23.474669701309917], [-50.69103637699993, -23.47489542330988], [-50.69099219599997, -23.474945016309924], [-50.69068478699995, -23.474998604309878], [-50.690351773999964, -23.475029558309874], [-50.69010547499994, -23.475164561309906], [-50.68969767499994, -23.475267627309904], [-50.68925794099993, -23.475375145309904], [-50.68920098399997, -23.475402130309877], [-50.68913537799995, -23.475442647309876], [-50.689125394999955, -23.47552392230989], [-50.68908121299995, -23.475573515309865], [-50.688703687999976, -23.475794065309852], [-50.68838899799994, -23.475861183309863], [-50.688148398999935, -23.47586070230989], [-50.68788950199996, -23.475896315309853], [-50.687741023999926, -23.476031510309888], [-50.687341525999955, -23.47622491530989], [-50.68680785099997, -23.47621932730987], [-50.68629796199997, -23.47601054830988], [-50.68546581299995, -23.475923060309867], [-50.684874419999964, -23.475976062309883], [-50.68442893099996, -23.475948063309875], [-50.68439036299998, -23.47569506630986]]]}, "properties": {"objectid": 14401, "nome": null, "tipo": "Represa/Açude/Lago/Lagoa", "regime": "Permanente", "fonte_topo": null, "fonte_mape": "PARANACIDADE", "Shape__Area": 7.039488188021375e-06, "Shape__Length": 0.015099352408938775}}, {"type": "Feature", "id": 14405, "geometry": {"type": "Polygon", "coordinates": [[[-50.64095357999997, -23.474851374309903], [-50.640953982999974, -23.47470233430991], [-50.64094956399998, -23.474526185309884], [-50.64099915999998, -23.474291447309923], [-50.64105149899995, -23.474165108309897], [-50.641127240999936, -23.47400269230989], [-50.64120092699994, -23.473912534309925], [-50.641249948999985, -23.473890065309927], [-50.64137265599993, -23.473777437309923], [-50.64142116399996, -23.47372786930991], [-50.641785097999964, -23.473344812309954], [-50.64188839099995, -23.473168909309937], [-50.641884457999936, -23.472812105309913], [-50.64180783299997, -23.47261320830996], [-50.641762602999954, -23.472391801309943], [-50.64168283299995, -23.472233544309947], [-50.64161864599998, -23.47221533130996], [-50.64157957499998, -23.472179110309945], [-50.641554016999976, -23.472106789309944], [-50.64153717399995, -23.471998357309964], [-50.64153758899994, -23.471844800309984], [-50.64158118499994, -23.471582949309983], [-50.64162929899994, -23.471424986309994], [-50.641736691999945, -23.47132587230998], [-50.64178874899994, -23.471303410309968], [-50.64185732899994, -23.47129001830999], [-50.64191303299998, -23.471294663309987], [-50.642032984999965, -23.471294938309978], [-50.64211561799993, -23.47129964430995], [-50.64221842099993, -23.471304396310003], [-50.642282619999946, -23.471318093309993], [-50.642321580999976, -23.47139496130999], [-50.64229136199998, -23.471489736309973], [-50.64225197499997, -23.471570941309984], [-50.64224605299995, -23.471697386309955], [-50.64223836799994, -23.47185995930997], [-50.642302764999954, -23.472018180309952], [-50.642385461999936, -23.472217091309933], [-50.64241744799995, -23.472375238309965], [-50.642494855999985, -23.47250187530996], [-50.642610366999975, -23.472551820309953], [-50.64263333199994, -23.472678332309965], [-50.64249508299997, -23.472890285309926], [-50.64244775799995, -23.473409562309936], [-50.642446820999965, -23.473757322309936], [-50.64248066799997, -23.473915473309926], [-50.642551895999986, -23.474046612309877], [-50.642634456999986, -23.474078416309887], [-50.64313882099999, -23.474273776309897], [-50.64381409599997, -23.474419845309882], [-50.644131676999955, -23.4746689713099], [-50.64418039599997, -23.474759410309918], [-50.64420279799998, -23.47484075730992], [-50.64420909399996, -23.475012394309903], [-50.644243063999966, -23.47512538130987], [-50.64424289499994, -23.4751886103099], [-50.644288650999954, -23.475251944309893], [-50.64440914599993, -23.475270285309882], [-50.64454426899994, -23.47531124030986], [-50.64460340499995, -23.475424285309895], [-50.64460319999995, -23.475501063309878], [-50.64454557199996, -23.475518997309845], [-50.64440663199996, -23.475514164309864], [-50.644227479999984, -23.475459559309858], [-50.644081890999985, -23.475414063309877], [-50.64394395099998, -23.475291805309894], [-50.64342549399998, -23.475091899309877], [-50.643283493999945, -23.475096091309876], [-50.64300901799999, -23.47520385630986], [-50.64278326099998, -23.47540206030988], [-50.642396208999976, -23.47549601730987], [-50.64183315199995, -23.475494725309886], [-50.641525574999946, -23.475385625309865], [-50.64126201399995, -23.475294691309916], [-50.64115870599994, -23.47525832230986], [-50.64104456399996, -23.475172248309896], [-50.640953115999935, -23.47502299630987], [-50.640953371999956, -23.474928153309875], [-50.64095357999997, -23.474851374309903]]]}, "properties": {"objectid": 14405, "nome": null, "tipo": "Represa/Açude/Lago/Lagoa", "regime": "Permanente", "fonte_topo": null, "fonte_mape": "PARANACIDADE", "Shape__Area": 5.871640167140858e-06, "Shape__Length": 0.01452400403522375}}, {"type": "Feature", "id": 14443, "geometry": {"type": "Polygon", "coordinates": [[[-50.68290493499996, -23.458037405310275], [-50.68288029499996, -23.458105101310245], [-50.682787435999956, -23.458285569310245], [-50.68248290399998, -23.45846108931026], [-50.68213989199995, -23.458595883310277], [-50.68180490699996, -23.45869004531026], [-50.68153679399995, -23.45874369531025], [-50.68111612499997, -23.458842197310258], [-50.68086617999995, -23.45895459631023], [-50.68058153099998, -23.459003694310276], [-50.680484217999954, -23.458998978310248], [-50.68038756799996, -23.458962649310223], [-50.67965273499994, -23.458681124310242], [-50.679545695999934, -23.45864929031028], [-50.67936911999994, -23.45854504931025], [-50.67925914499994, -23.458472561310245], [-50.67920367299996, -23.45837308531025], [-50.679154566999955, -23.458192328310243], [-50.67913027499998, -23.458115499310285], [-50.67913351799996, -23.45802969431025], [-50.67913548699993, -23.457984534310295], [-50.679160127999985, -23.45791683831027], [-50.67928284399994, -23.457781598310245], [-50.679650442999964, -23.45760169731029], [-50.67984626399993, -23.457602099310296], [-50.68019934999995, -23.45759379031029], [-50.68055506899997, -23.457549354310295], [-50.681041420999975, -23.457577448310253], [-50.68166259599997, -23.457565167310296], [-50.68239713899994, -23.457476336310283], [-50.68245721099999, -23.457413229310262], [-50.68251491199993, -23.457359149310278], [-50.68258839899994, -23.457336716310316], [-50.68271272199997, -23.457305354310293], [-50.68287848399996, -23.457305691310307], [-50.68293338099995, -23.457400648310294], [-50.68290099899997, -23.457635436310298], [-50.682905689999984, -23.45772125731027], [-50.68290493499996, -23.458037405310275]]]}, "properties": {"objectid": 14443, "nome": null, "tipo": "Represa/Açude/Lago/Lagoa", "regime": "Permanente", "fonte_topo": null, "fonte_mape": "PARANACIDADE", "Shape__Area": 4.302483084327868e-06, "Shape__Length": 0.009265850219614319}}, {"type": "Feature", "id": 14465, "geometry": {"type": "Polygon", "coordinates": [[[-50.67254714799998, -23.450085185310463], [-50.672563250999985, -23.45002650531047], [-50.672657821999955, -23.44990927731045], [-50.672779129999974, -23.449828236310466], [-50.67290104599994, -23.44977881131048], [-50.67301574099998, -23.44967969031048], [-50.67315726099997, -23.449580625310453], [-50.67333994599994, -23.449463581310475], [-50.67350049199997, -23.449351006310472], [-50.673608882999986, -23.449346717310476], [-50.673758088999925, -23.449347029310466], [-50.67388617199998, -23.449297616310467], [-50.67406805899998, -23.44922573331049], [-50.67415570699995, -23.44917623631048], [-50.67423055299997, -23.449077031310463], [-50.674284743999976, -23.44893713531045], [-50.67437251299997, -23.448837957310488], [-50.67463510399995, -23.44879334031047], [-50.674817453999935, -23.448811786310486], [-50.674971963999944, -23.44892501831046], [-50.675100214999986, -23.44900658131049], [-50.67519424199998, -23.4491106543105], [-50.67529449699998, -23.449390881310453], [-50.675394893999965, -23.449653042310455], [-50.675495468999934, -23.449802293310448], [-50.67554204199996, -23.45001466131044], [-50.67552795799997, -23.45024948631044], [-50.67549582899994, -23.450416526310438], [-50.67548026999998, -23.450493273310425], [-50.67542609099996, -23.45062865331044], [-50.675334642999985, -23.45075040631041], [-50.675339218999966, -23.450881392310446], [-50.675359022999935, -23.45103047531045], [-50.67538728799997, -23.451242805310454], [-50.67542433599993, -23.451346760310436], [-50.67543765999994, -23.45142356631041], [-50.67547781999997, -23.451495913310424], [-50.675548481999954, -23.451627036310438], [-50.67562563499996, -23.45186656631043], [-50.675637574999946, -23.451988534310388], [-50.67562504999995, -23.452105935310403], [-50.67560040799998, -23.452173630310387], [-50.67554645999997, -23.45221416631041], [-50.67536021799997, -23.45230410731041], [-50.67523800099997, -23.45223610631043], [-50.67518677699996, -23.452163737310418], [-50.675153361999946, -23.45205527331043], [-50.67514025799995, -23.451928786310372], [-50.67510015399995, -23.451793210310402], [-50.67505290499997, -23.4516169723104], [-50.67498802499995, -23.451363917310424], [-50.67491233599998, -23.451286980310417], [-50.67486537599996, -23.45123268631043], [-50.67477118199997, -23.45119635831041], [-50.674663717999984, -23.45110128931041], [-50.67460284799996, -23.45097018631041], [-50.67458971099996, -23.45085724831044], [-50.67465114599998, -23.450758015310434], [-50.67469837099998, -23.45070391731041], [-50.67477257499996, -23.45062729231045], [-50.674779584999946, -23.45052342931046], [-50.67475277099993, -23.45047820931046], [-50.674653770999946, -23.450405740310426], [-50.674620864999945, -23.450369540310426], [-50.67452307099995, -23.45032417231045], [-50.674254198999954, -23.450413940310455], [-50.67402472099996, -23.45040894431042], [-50.67386997799998, -23.450390555310438], [-50.67351271399997, -23.450353677310428], [-50.673263377999945, -23.45022217931046], [-50.67308432599998, -23.450135992310432], [-50.67293380399996, -23.450113094310446], [-50.672798430999926, -23.450180557310436], [-50.672677222999944, -23.450220950310445], [-50.672583006999965, -23.45019365431045], [-50.67254714799998, -23.450085185310463]]]}, "properties": {"objectid": 14465, "nome": null, "tipo": "Represa/Açude/Lago/Lagoa", "regime": "Permanente", "fonte_topo": null, "fonte_mape": "PARANACIDADE", "Shape__Area": 4.103641122535267e-06, "Shape__Length": 0.011389563373204197}}]}