{"type": "FeatureCollection", "features": [{"type": "Feature", "id": 290467, "geometry": {"type": "Point", "coordinates": [-50.66307410899997, -23.516501314308968]}, "properties": {"objectid": 290467, "cod_ibge": 4124301, "municipio": "SANTO ANTÔNIO DO PARAÍSO", "hidrografia": "nascente", "arquivo": "PR_4124301_NASCENTES"}}, {"type": "Feature", "id": 290469, "geometry": {"type": "Point", "coordinates": [-50.65243791799998, -23.514573951309025]}, "properties": {"objectid": 290469, "cod_ibge": 4124301, "municipio": "SANTO ANTÔNIO DO PARAÍSO", "hidrografia": "nascente", "arquivo": "PR_4124301_NASCENTES"}}, {"type": "Feature", "id": 290470, "geometry": {"type": "Point", "coordinates": [-50.640374050999974, -23.514217032309016]}, "properties": {"objectid": 290470, "cod_ibge": 4124301, "municipio": "SANTO ANTÔNIO DO PARAÍSO", "hidrografia": "nascente", "arquivo": "PR_4124301_NASCENTES"}}, {"type": "Feature", "id": 290472, "geometry": {"type": "Point", "coordinates": [-50.674959516999934, -23.512039825309085]}, "properties": {"objectid": 290472, "cod_ibge": 4124301, "municipio": "SANTO ANTÔNIO DO PARAÍSO", "hidrografia": "nascente", "arquivo": "PR_4124301_NASCENTES"}}, {"type": "Feature", "id": 290473, "geometry": {"type": "Point", "coordinates": [-50.62445545699996, -23.51068353230909]}, "properties": {"objectid": 290473, "cod_ibge": 4124301, "municipio": "SANTO ANTÔNIO DO PARAÍSO", "hidrografia": "nascente", "arquivo": "PR_4124301_NASCENTES"}}, {"type": "Feature", "id": 290474, "geometry": {"type": "Point", "coordinates": [-50.66001389699994, -23.51047965230908]}, "properties": {"objectid": 290474, "cod_ibge": 4124301, "municipio": "SANTO ANTÔNIO DO PARAÍSO", "hidrografia": "nascente", "arquivo": "PR_4124301_NASCENTES"}}, {"type": "Feature", "id": 290475, "geometry": {"type": "Point", "coordinates": [-50.67256815899997, -23.51046938130908]}, "properties": {"objectid": 290475, "cod_ibge": 4124301, "municipio": "SANTO ANTÔNIO DO PARAÍSO", "hidrografia": "nascente", "arquivo": "PR_4124301_NASCENTES"}}, {"type": "Feature", "id": 290476, "geometry": {"type": "Point", "coordinates": [-50.67254175899995, -23.50691046130917]}, "properties": {"objectid": 290476, "cod_ibge": 4124301, "municipio": "SANTO ANTÔNIO DO PARAÍSO", "hidrografia": "nascente", "arquivo": "PR_4124301_NASCENTES"}}, {"type": "Feature", "id": 290477, "geometry": {"type": "Point", "coordinates": [-50.64794073699994, -23.50636481130919]}, "properties": {"objectid": 290477, "cod_ibge": 4124301, "municipio": "SANTO ANTÔNIO DO PARAÍSO", "hidrografia": "nascente", "arquivo": "PR_4124301_NASCENTES"}}, {"type": "Feature", "id": 290478, "geometry": {"type": "Point", "coordinates": [-50.63544856699997, -23.50486575030922]}, "properties": {"objectid": 290478, "cod_ibge": 4124301, "municipio": "SANTO ANTÔNIO DO PARAÍSO", "hidrografia": "nascente", "arquivo": "PR_4124301_NASCENTES"}}, {"type": "Feature", "id": 290479, "geometry": {"type": "Point", "coordinates": [-50.640766661999976, -23.499583347309315]}, "properties": {"objectid": 290479, "cod_ibge": 4124301, "municipio": "SANTO ANTÔNIO DO PARAÍSO", "hidrografia": "nascente", "arquivo": "PR_4124301_NASCENTES"}}, {"type": "Feature", "id": 290480, "geometry": {"type": "Point", "coordinates": [-50.63366397199997, -23.4977273673094]}, "properties": {"objectid": 290480, "cod_ibge": 4124301, "municipio": "SANTO ANTÔNIO DO PARAÍSO", "hidrografia": "nascente", "arquivo": "PR_4124301_NASCENTES"}}, {"type": "Feature", "id": 290481, "geometry": {"type": "Point", "coordinates": [-50.62295639699994, -23.493872640309455]}, "properties": {"objectid": 290481, "cod_ibge": 4124301, "municipio": "SANTO ANTÔNIO DO PARAÍSO", "hidrografia": "nascente", "arquivo": "PR_4124301_NASCENTES"}}, {"type": "Feature", "id": 290482, "geometry": {"type": "Point", "coordinates": [-50.633092900999934, -23.488197625309574]}, "properties": {"objectid": 290482, "cod_ibge": 4124301, "municipio": "SANTO ANTÔNIO DO PARAÍSO", "hidrografia": "nascente", "arquivo": "PR_4124301_NASCENTES"}}, {"type": "Feature", "id": 290483, "geometry": {"type": "Point", "coordinates": [-50.63245044599995, -23.482379843309744]}, "properties": {"objectid": 290483, "cod_ibge": 4124301, "municipio": "SANTO ANTÔNIO DO PARAÍSO", "hidrografia": "nascente", "arquivo": "PR_4124301_NASCENTES"}}, {"type": "Feature", "id": 290484, "geometry": {"type": "Point", "coordinates": [-50.62085057399998, -23.480059869309763]}, "properties": {"objectid": 290484, "cod_ibge": 4124301, "municipio": "SANTO ANTÔNIO DO PARAÍSO", "hidrografia": "nascente", "arquivo": "PR_4124301_NASCENTES"}}, {"type": "Feature", "id": 290485, "geometry": {"type": "Point", "coordinates": [-50.64080235399996, -23.478989112309804]}, "properties": {"objectid": 290485, "cod_ibge": 4124301, "municipio": "SANTO ANTÔNIO DO PARAÍSO", "hidrografia": "nascente", "arquivo": "PR_4124301_NASCENTES"}}, {"type": "Feature", "id": 290486, "geometry": {"type": "Point", "coordinates": [-50.636590707999964, -23.477597127309835]}, "properties": {"objectid": 290486, "cod_ibge": 4124301, "municipio": "SANTO ANTÔNIO DO PARAÍSO", "hidrografia": "nascente", "arquivo": "PR_4124301_NASCENTES"}}, {"type": "Feature", "id": 290487, "geometry": {"type": "Point", "coordinates": [-50.62602590099994, -23.476669137309873]}, "properties": {"objectid": 290487, "cod_ibge": 4124301, "municipio": "SANTO ANTÔNIO DO PARAÍSO", "hidrografia": "nascente", "arquivo": "PR_4124301_NASCENTES"}}, {"type": "Feature", "id": 290488, "geometry": {"type": "Point", "coordinates": [-50.62577605799998, -23.47163657730997]}, "properties": {"objectid": 290488, "cod_ibge": 4124301, "municipio": "SANTO ANTÔNIO DO PARAÍSO", "hidrografia": "nascente", "arquivo": "PR_4124301_NASCENTES"}}, {"type": "Feature", "id": 290489, "geometry": {"type": "Point", "coordinates": [-50.63437780999993, -23.465497568310123]}, "properties": {"objectid": 290489, "cod_ibge": 4124301, "municipio": "SANTO ANTÔNIO DO PARAÍSO", "hidrografia": "nascente", "arquivo": "PR_4124301_NASCENTES"}}, {"type": "Feature", "id": 306139, "geometry": {"type": "Point", "coordinates": [-50.69584857999997, -23.507053228309168]}, "properties": {"objectid": 306139, "cod_ibge": 4126009, "municipio": "SÃO SEBASTIÃO DA AMOREIRA", "hidrografia": "nascente", "arquivo": "PR_4126009_NASCENTES"}}, {"type": "Feature", "id": 306142, "geometry": {"type": "Point", "coordinates": [-50.694777821999935, -23.500985603309285]}, "properties": {"objectid": 306142, "cod_ibge": 4126009, "municipio": "SÃO SEBASTIÃO DA AMOREIRA", "hidrografia": "nascente", "arquivo": "PR_4126009_NASCENTES"}}, {"type": "Feature", "id": 306148, "geometry": {"type": "Point", "coordinates": [-50.688817271999945, -23.49506074530947]}, "properties": {"objectid": 306148, "cod_ibge": 4126009, "municipio": "SÃO SEBASTIÃO DA AMOREIRA", "hidrografia": "nascente", "arquivo": "PR_4126009_NASCENTES"}}, {"type": "Feature", "id": 306151, "geometry": {"type": "Point", "coordinates": [-50.69205594399995, -23.49273049930947]}, "properties": {"objectid": 306151, "cod_ibge": 4126009, "municipio": "SÃO SEBASTIÃO DA AMOREIRA", "hidrografia": "nascente", "arquivo": "PR_4126009_NASCENTES"}}, {"type": "Feature", "id": 306152, "geometry": {"type": "Point", "coordinates": [-50.67711032399996, -23.491170327309526]}, "properties": {"objectid": 306152, "cod_ibge": 4126009, "municipio": "SÃO SEBASTIÃO DA AMOREIRA", "hidrografia": "nascente", "arquivo": "PR_4126009_NASCENTES"}}, {"type": "Feature", "id": 306155, "geometry": {"type": "Point", "coordinates": [-50.69562513599993, -23.487947782309636]}, "properties": {"objectid": 306155, "cod_ibge": 4126009, "municipio": "SÃO SEBASTIÃO DA AMOREIRA", "hidrografia": "nascente", "arquivo": "PR_4126009_NASCENTES"}}, {"type": "Feature", "id": 306157, "geometry": {"type": "Point", "coordinates": [-50.65161700399995, -23.48569919130966]}, "properties": {"objectid": 306157, "cod_ibge": 4126009, "municipio": "SÃO SEBASTIÃO DA AMOREIRA", "hidrografia": "nascente", "arquivo": "PR_4126009_NASCENTES"}}, {"type": "Feature", "id": 306158, "geometry": {"type": "Point", "coordinates": [-50.65754186199996, -23.483236449309683]}, "properties": {"objectid": 306158, "cod_ibge": 4126009, "municipio": "SÃO SEBASTIÃO DA AMOREIRA", "hidrografia": "nascente", "arquivo": "PR_4126009_NASCENTES"}}, {"type": "Feature", "id": 306160, "geometry": {"type": "Point", "coordinates": [-50.66967711399996, -23.482879530309738]}, "properties": {"objectid": 306160, "cod_ibge": 4126009, "municipio": "SÃO SEBASTIÃO DA AMOREIRA", "hidrografia": "nascente", "arquivo": "PR_4126009_NASCENTES"}}, {"type": "Feature", "id": 306163, "geometry": {"type": "Point", "coordinates": [-50.65154562099996, -23.48120201130977]}, "properties": {"objectid": 306163, "cod_ibge": 4126009, "municipio": "SÃO SEBASTIÃO DA AMOREIRA", "hidrografia": "nascente", "arquivo": "PR_4126009_NASCENTES"}}, {"type": "Feature", "id": 306167, "geometry": {"type": "Point", "coordinates": [-50.693019625999966, -23.474222671309874]}, "properties": {"objectid": 306167, "cod_ibge": 4126009, "municipio": "SÃO SEBASTIÃO DA AMOREIRA", "hidrografia": "nascente", "arquivo": "PR_4126009_NASCENTES"}}, {"type": "Feature", "id": 306175, "geometry": {"type": "Point", "coordinates": [-50.68760374799996, -23.465186612310113]}, "properties": {"objectid": 306175, "cod_ibge": 4126009, "municipio": "SÃO SEBASTIÃO DA AMOREIRA", "hidrografia": "nascente", "arquivo": "PR_4126009_NASCENTES"}}, {"type": "Feature", "id": 306178, "geometry": {"type": "Point", "coordinates": [-50.682321343999945, -23.464401390310147]}, "properties": {"objectid": 306178, "cod_ibge": 4126009, "municipio": "SÃO SEBASTIÃO DA AMOREIRA", "hidrografia": "nascente", "arquivo": "PR_4126009_NASCENTES"}}, {"type": "Feature", "id": 306180, "geometry": {"type": "Point", "coordinates": [-50.67167585999994, -23.462320987310154]}, "properties": {"objectid": 306180, "cod_ibge": 4126009, "municipio": "SÃO SEBASTIÃO DA AMOREIRA", "hidrografia": "nascente", "arquivo": "PR_4126009_NASCENTES"}}, {"type": "Feature", "id": 306184, "geometry": {"type": "Point", "coordinates": [-50.67814538999993, -23.458298073310274]}, "properties": {"objectid": 306184, "cod_ibge": 4126009, "municipio": "SÃO SEBASTIÃO DA AMOREIRA", "hidrografia": "nascente", "arquivo": "PR_4126009_NASCENTES"}}, {"type": "Feature", "id": 306188, "geometry": {"type": "Point", "coordinates": [-50.67660134499994, -23.453505084310383]}, "properties": {"objectid": 306188, "cod_ibge": 4126009, "municipio": "SÃO SEBASTIÃO DA AMOREIRA", "hidrografia": "nascente", "arquivo": "PR_4126009_NASCENTES"}}, {"type": "Feature", "id": 306191, "geometry": {"type": "Point", "coordinates": [-50.65108162599995, -23.451327878310426]}, "properties": {"objectid": 306191, "cod_ibge": 4126009, "municipio": "SÃO SEBASTIÃO DA AMOREIRA", "hidrografia": "nascente", "arquivo": "PR_4126009_NASCENTES"}}]}