{"type": "FeatureCollection", "features": [{"type": "Feature", "id": 67642, "geometry": {"type": "LineString", "coordinates": [[-50.62161812099998, -23.48770895830963], [-50.621672847999946, -23.48740649130959], [-50.62161952099995, -23.487216677309643], [-50.62129478399998, -23.486701021309646], [-50.62083558699993, -23.485877919309644], [-50.620592914999975, -23.48512309630964], [-50.62048587199997, -23.484680232309668], [-50.62062232899996, -23.48425602030969], [-50.620733108999964, -23.483596898309703], [-50.62089710299995, -23.483199856309678], [-50.62089804699997, -23.482870163309727]]}, "properties": {"objectid": 67642, "tipo": "Rio", "rio": "Rio Congonhas", "ordem": 4, "Shape__Length": 0.00517820477291846}}, {"type": "Feature", "id": 67716, "geometry": {"type": "LineString", "coordinates": [[-50.641758220999975, -23.469916806309996], [-50.64177269299994, -23.469776830309986], [-50.64228292499996, -23.468915373310022], [-50.64238295699994, -23.46860396931003], [-50.642175875999946, -23.467325354310063], [-50.642251133999935, -23.466869369310103], [-50.642419203999964, -23.466526510310043], [-50.64302865199994, -23.46564721031012], [-50.64352389099997, -23.465363807310105], [-50.644417680999936, -23.46499550131012], [-50.64464713999996, -23.46479730231012], [-50.644857747999936, -23.46428743131011], [-50.64479125099996, -23.463998228310157], [-50.644687459999936, -23.463194076310174], [-50.644403351999976, -23.462814047310136]]}, "properties": {"objectid": 67716, "tipo": "Ribeirão", "rio": "Ribeirão do Salto", "ordem": 5, "Shape__Length": 0.008652363102530529}}, {"type": "Feature", "id": 67785, "geometry": {"type": "LineString", "coordinates": [[-50.647147434999965, -23.478672832309808], [-50.64712174599998, -23.478465022309816]]}, "properties": {"objectid": 67785, "tipo": "Ribeirão", "rio": "Ribeirão do Salto", "ordem": 5, "Shape__Length": 0.00020939178785887264}}, {"type": "Feature", "id": 67786, "geometry": {"type": "LineString", "coordinates": [[-50.64712174599998, -23.478465022309816], [-50.64704987499994, -23.477873206309827], [-50.647027065999964, -23.477687987309828], [-50.64681258099995, -23.47688810230985], [-50.64642400699995, -23.476376867309842], [-50.645904755999936, -23.476032439309893], [-50.64460319999995, -23.475501063309878], [-50.644603271999976, -23.47547388230987], [-50.64426570899997, -23.47534914730988], [-50.644009608999966, -23.4751795203099], [-50.643790087999946, -23.47503251130986], [-50.64357052099996, -23.474908048309903], [-50.643350762999944, -23.47485119530991], [-50.64303320599998, -23.474816659309877], [-50.642764429999936, -23.47481604130988], [-50.642507991999935, -23.474770379309874], [-50.64225168399998, -23.47467963530991], [-50.64204423199993, -23.474589005309916]]}, "properties": {"objectid": 67786, "tipo": "Ribeirão", "rio": "Ribeirão do Salto", "ordem": 5, "Shape__Length": 0.007066793692159032}}, {"type": "Feature", "id": 67850, "geometry": {"type": "LineString", "coordinates": [[-50.64091770599998, -23.457562523310298], [-50.641029784999944, -23.456849188310304], [-50.640976681999966, -23.456356777310276], [-50.64046206799998, -23.455885891310338], [-50.639539905999975, -23.455436636310306], [-50.63875323199994, -23.455105122310332], [-50.638183037999966, -23.455058636310355], [-50.63709678599997, -23.455078695310313], [-50.63655275199994, -23.45531228131034], [-50.63587260099995, -23.455875245310306], [-50.63502982199998, -23.456153294310344], [-50.634641906999946, -23.45615238231032]]}, "properties": {"objectid": 67850, "tipo": "Ribeirão", "rio": "Ribeirão do Salto", "ordem": 5, "Shape__Length": 0.008203211806192993}}, {"type": "Feature", "id": 67851, "geometry": {"type": "LineString", "coordinates": [[-50.634641906999946, -23.45615238231032], [-50.63429678199998, -23.45615157631032], [-50.63348279799993, -23.455959976310325], [-50.632396589999985, -23.4557496693103], [-50.63117518399997, -23.455534517310358], [-50.629627522999954, -23.455576014310342], [-50.62912817399996, -23.455791614310318]]}, "properties": {"objectid": 67851, "tipo": "Ribeirão", "rio": "Ribeirão do Salto", "ordem": 5, "Shape__Length": 0.0056200691651422}}, {"type": "Feature", "id": 67852, "geometry": {"type": "LineString", "coordinates": [[-50.62912817399996, -23.455791614310318], [-50.629676871999955, -23.454979963310343], [-50.629864054999985, -23.45477265531033], [-50.630051815999934, -23.454149836310332], [-50.63009026599997, -23.45373893331036], [-50.62980031199998, -23.453300156310373], [-50.629339407999964, -23.4531093763104], [-50.62849824399996, -23.4528092873104], [-50.627617200999964, -23.452558788310405], [-50.62732630899996, -23.452422601310403], [-50.627005433999955, -23.45205149231039], [-50.62660519599996, -23.451214997310434], [-50.62632193199995, -23.45077171531045], [-50.62526570699999, -23.449911067310442]]}, "properties": {"objectid": 67852, "tipo": "Rio", "rio": "Rio Congonhas", "ordem": 4, "Shape__Length": 0.008783670467368597}}, {"type": "Feature", "id": 67854, "geometry": {"type": "LineString", "coordinates": [[-50.61322978399994, -23.45425357131037], [-50.61353773199994, -23.454412410310365], [-50.61421613299996, -23.45448183331038], [-50.614813297999945, -23.454505885310326], [-50.615113315999956, -23.454226617310354], [-50.61582612899997, -23.45363672031037], [-50.61756966699994, -23.452308666310405], [-50.61809638799997, -23.45211123731038], [-50.61851742699997, -23.45209420131041], [-50.61894376399993, -23.45238429231042], [-50.61905990199995, -23.452854282310398], [-50.61903418199995, -23.453287793310377], [-50.61840115799998, -23.45552186431036], [-50.61848102999994, -23.4560414433103], [-50.618670418999955, -23.45637160231033], [-50.619016803999955, -23.4565802003103], [-50.619339467999964, -23.456734548310337], [-50.61969259399996, -23.45671282531029], [-50.619966835999946, -23.45667736831032], [-50.62085491899995, -23.45728020131027], [-50.62110315899997, -23.457542756310268], [-50.62145607099995, -23.457182303310294], [-50.62179160199997, -23.4567043803103], [-50.62280365399994, -23.455649993310313], [-50.623281118999955, -23.45535306431032], [-50.623634426999956, -23.45529971731031], [-50.624080250999945, -23.455386606310356], [-50.62530414099995, -23.456035395310305], [-50.626578741999936, -23.45668881131033], [-50.62702119299997, -23.456689872310307], [-50.627581642999985, -23.456718307310297], [-50.62816668799996, -23.4564984023103], [-50.62912817399996, -23.455791614310318]]}, "properties": {"objectid": 67854, "tipo": "Rio", "rio": "Rio Congonhas", "ordem": 4, "Shape__Length": 0.023189442799143263}}, {"type": "Feature", "id": 67949, "geometry": {"type": "LineString", "coordinates": [[-50.64938839699994, -23.49107538130953], [-50.64863318799996, -23.490789144309534], [-50.64725529799995, -23.489665966309563], [-50.64646466499993, -23.488896392309577], [-50.64619287199997, -23.48868801830957], [-50.64592760399995, -23.488308039309572], [-50.64588559499999, -23.487793074309607], [-50.64599168999996, -23.487486203309594], [-50.64613483299996, -23.487278773309612], [-50.646929746999945, -23.486436012309618], [-50.64702966699997, -23.48612912530967], [-50.64698700699994, -23.485821912309625], [-50.64672220299996, -23.48530644930964], [-50.64599944899993, -23.484582187309655], [-50.64562446999997, -23.483556114309682], [-50.64535963699996, -23.483054191309705], [-50.644687445999985, -23.481959695309712], [-50.64439383499996, -23.481674491309757]]}, "properties": {"objectid": 67949, "tipo": "Ribeirão", "rio": "Ribeirão do Salto", "ordem": 5, "Shape__Length": 0.012335739146066628}}, {"type": "Feature", "id": 67979, "geometry": {"type": "LineString", "coordinates": [[-50.617714013999944, -23.487582003309583], [-50.617825711999956, -23.48790294230959], [-50.618085243999985, -23.488102299309624], [-50.61835679699994, -23.48817522430961], [-50.61857411099999, -23.488175758309577], [-50.61887300999995, -23.48810422830956], [-50.61925423599996, -23.487942566309595], [-50.61957969999997, -23.48796594630961], [-50.61979620699998, -23.488246485309613], [-50.619687140999986, -23.48850816930956], [-50.61946929499994, -23.488692811309583], [-50.61913652799995, -23.488827488309592], [-50.61904006299995, -23.488962746309593], [-50.61911997399995, -23.48906681730959], [-50.61968539399993, -23.489117880309593], [-50.62036449999994, -23.489002108309585], [-50.62101866199998, -23.488637876309603], [-50.62161772799993, -23.488052200309596], [-50.62161812099998, -23.48770895830963]]}, "properties": {"objectid": 67979, "tipo": "Rio", "rio": "Rio Congonhas", "ordem": 4, "Shape__Length": 0.006979459698192672}}, {"type": "Feature", "id": 67981, "geometry": {"type": "LineString", "coordinates": [[-50.64439383499996, -23.481674491309757], [-50.64411906999993, -23.481411916309746], [-50.64395313299997, -23.480991510309767], [-50.64401078099996, -23.48027353830976], [-50.644210172999976, -23.47986751830981], [-50.64453919899995, -23.479506958309777], [-50.64475609799996, -23.479399057309788], [-50.64525189699999, -23.479400187309782], [-50.64569724799997, -23.479482493309803], [-50.64616090599998, -23.479781630309805], [-50.64635297099995, -23.479845292309808], [-50.64668726799993, -23.479782823309808], [-50.64696016299996, -23.479607300309763], [-50.647121908999964, -23.479287007309807], [-50.64718461199994, -23.478980031309828], [-50.647147434999965, -23.478672832309808]]}, "properties": {"objectid": 67981, "tipo": "Ribeirão", "rio": "Ribeirão do Salto", "ordem": 5, "Shape__Length": 0.006083958525453142}}, {"type": "Feature", "id": 67982, "geometry": {"type": "LineString", "coordinates": [[-50.62089804699997, -23.482870163309727], [-50.62076255899996, -23.48275240830971], [-50.620572894999945, -23.482706786309688], [-50.62032774099998, -23.482823611309712], [-50.62016435199996, -23.4830083903097], [-50.620000715999936, -23.48331510330968], [-50.61983687099997, -23.483454711309708], [-50.61964664499993, -23.48364393230968], [-50.61929335099995, -23.4836656563097], [-50.61904914899998, -23.483687636309682], [-50.61874984599995, -23.48366432430969], [-50.61837011899996, -23.48354597230968], [-50.617990461999966, -23.483405030309697], [-50.617528949999944, -23.483191630309708], [-50.61709512099998, -23.482955714309703], [-50.61682410699996, -23.482697616309697], [-50.616798064999955, -23.482390436309707], [-50.616690494999936, -23.481897884309745], [-50.61666547599998, -23.48123843530975], [-50.61655920499993, -23.480533619309778], [-50.61653358899997, -23.47987416330979], [-50.61645342899993, -23.479453939309764], [-50.61634559899994, -23.479051718309833], [-50.61612424599997, -23.478762125309782]]}, "properties": {"objectid": 67982, "tipo": "Rio", "rio": "Rio Congonhas", "ordem": 4, "Shape__Length": 0.008856451153006732}}, {"type": "Feature", "id": 67983, "geometry": {"type": "LineString", "coordinates": [[-50.64204423199993, -23.474589005309916], [-50.64204435099998, -23.474588265309894]]}, "properties": {"objectid": 67983, "tipo": "Ribeirão", "rio": "Ribeirão do Salto", "ordem": 5, "Shape__Length": 7.495071975407837e-07}}, {"type": "Feature", "id": 67984, "geometry": {"type": "LineString", "coordinates": [[-50.64204435099998, -23.474588265309894], [-50.64208152699997, -23.474352427309924], [-50.64209468299998, -23.474003104309915], [-50.642132215999936, -23.473676376309907], [-50.64214537199996, -23.473327048309947], [-50.64214643599996, -23.47293261430991], [-50.64211094299997, -23.47250429230993], [-50.642062715999934, -23.47226752130998], [-50.642002178999974, -23.47206453130994], [-50.64196607199994, -23.471861595309942], [-50.64197886699998, -23.47164750330998], [-50.64200384999998, -23.47144471130995], [-50.64203298699993, -23.471294939309963], [-50.64196235399998, -23.470725707310002], [-50.64173497499996, -23.470147085309982], [-50.641758220999975, -23.469916806309996]]}, "properties": {"objectid": 67984, "tipo": "Ribeirão", "rio": "Ribeirão do Salto", "ordem": 5, "Shape__Length": 0.004748699804375365}}, {"type": "Feature", "id": 68073, "geometry": {"type": "LineString", "coordinates": [[-50.644403351999976, -23.462814047310136], [-50.64423203299998, -23.46258331731015], [-50.64394259599993, -23.461891654310165], [-50.64288759199997, -23.46050270731024], [-50.64256657899994, -23.460194855310203], [-50.641806566999946, -23.459511138310265], [-50.64130089199995, -23.458882193310256], [-50.641005605999965, -23.458113727310256], [-50.64091770599998, -23.457562523310298]]}, "properties": {"objectid": 68073, "tipo": "Ribeirão", "rio": "Ribeirão do Salto", "ordem": 5, "Shape__Length": 0.00643685240277709}}]}