{"type":"FeatureCollection","features":[{"type":"Feature","id":"BC250_2025_hid_trecho_drenagem_l.9656819","geometry":{"type":"LineString","coordinates":[[-50.61165912,-23.45963798],[-50.61083112,-23.45918006],[-50.610123,-23.45780405],[-50.60954196,-23.45708603],[-50.60837808,-23.45636603],[-50.60831688,-23.45528999],[-50.60915892,-23.45517299],[-50.61064788,-23.45541599],[-50.61239604,-23.45547998],[-50.61317508,-23.45494403],[-50.613435,-23.45452598],[-50.61440592,-23.45476799],[-50.61512016,-23.45429198],[-50.61615804,-23.45357702],[-50.61771504,-23.45244599],[-50.61842712,-23.45262698],[-50.61887892,-23.45316599],[-50.61881196,-23.45412098],[-50.61854916,-23.45525606],[-50.618547,-23.455973],[-50.61886884,-23.45669102],[-50.619645,-23.45699099],[-50.62055292,-23.45681405],[-50.62119804,-23.457593],[-50.62184712,-23.45687705],[-50.62243284,-23.45592305],[-50.62347,-23.45556701],[-50.62418208,-23.45562803],[-50.62502412,-23.45586905],[-50.62612284,-23.45646899],[-50.62702896,-23.45682998],[-50.62812984,-23.45683304],[-50.62890888,-23.456297],[-50.62922496,-23.455928]]},"geometry_name":"geom","properties":{"nome":"Rio Congonhas","geometriaaproximada":"Não","tipotrechodrenagem":"Curso dágua","navegavel":"Desconhecido","larguramedia":null,"regime":"Permanente","encoberto":"Não"},"bbox":[-50.62922496,-23.45963798,-50.60831688,-23.45244599]},{"type":"Feature","id":"BC250_2025_hid_trecho_drenagem_l.9885050","geometry":{"type":"LineString","coordinates":[[-50.59969884,-23.49349202],[-50.59913616,-23.49290801],[-50.59816812,-23.49189002],[-50.59791216,-23.490695],[-50.59830492,-23.48920199],[-50.59914912,-23.488607],[-50.60037996,-23.48849],[-50.60128896,-23.48795504],[-50.60252196,-23.48712101],[-50.60414484,-23.48611004],[-50.60550708,-23.48539598],[-50.60686788,-23.48528006],[-50.608098,-23.48552198],[-50.60952,-23.48654204],[-50.610555,-23.48702201],[-50.61171888,-23.48786198],[-50.61262392,-23.48852105],[-50.61346812,-23.48750702],[-50.613957,-23.48689106],[-50.61470112,-23.48709203],[-50.61534984,-23.48661602],[-50.61612816,-23.48631902],[-50.61729312,-23.48668001],[-50.61787416,-23.48745905],[-50.61884292,-23.48829704],[-50.61948984,-23.48847803],[-50.61922884,-23.48913503],[-50.61987612,-23.48937506],[-50.620914,-23.48890004],[-50.62162896,-23.48824403],[-50.62195512,-23.48728904],[-50.62124592,-23.48627204],[-50.62060008,-23.48549399],[-50.62053816,-23.48459705],[-50.62079988,-23.48358203],[-50.62112496,-23.48298506],[-50.62021812,-23.48298299],[-50.61989304,-23.48345999],[-50.61879108,-23.483756],[-50.61769092,-23.48333606],[-50.61672216,-23.48243705],[-50.61666096,-23.48106302],[-50.61653496,-23.47992704],[-50.61614904,-23.478851],[-50.61537396,-23.478311],[-50.61472704,-23.47806998],[-50.613948,-23.47854698],[-50.613237,-23.47794704],[-50.61207204,-23.47764599],[-50.61103596,-23.47764302],[-50.60986992,-23.47758002],[-50.60825208,-23.47715801],[-50.60741184,-23.47649903],[-50.60819196,-23.47560506],[-50.60968308,-23.47507001],[-50.61065688,-23.47429601],[-50.61130704,-23.47364099],[-50.61182796,-23.47256603],[-50.61163788,-23.47131098],[-50.61092796,-23.47047299],[-50.61008808,-23.469455],[-50.60937888,-23.468438],[-50.60918808,-23.46736205],[-50.609772,-23.46682502],[-50.61113316,-23.46659003],[-50.61229992,-23.46617504],[-50.61366108,-23.46605804],[-50.61482496,-23.46659903],[-50.61592404,-23.46713903],[-50.616702,-23.46702203],[-50.61709188,-23.46660506],[-50.61702996,-23.46564899],[-50.615865,-23.465108],[-50.615478,-23.46468905],[-50.61664404,-23.46451202],[-50.61690504,-23.46391505],[-50.61619404,-23.46355505],[-50.61541788,-23.46319505],[-50.61516192,-23.46199904],[-50.61477708,-23.46080303],[-50.61445596,-23.459906],[-50.61406896,-23.45912903],[-50.61310092,-23.45823002],[-50.61329712,-23.45733398],[-50.61219804,-23.45673404],[-50.611032,-23.45673098],[-50.61090096,-23.45732804],[-50.61173904,-23.45888405],[-50.61232008,-23.45924405],[-50.611995,-23.45984003],[-50.61165912,-23.45963798]]},"geometry_name":"geom","properties":{"nome":"Rio Congonhas","geometriaaproximada":"Não","tipotrechodrenagem":"Curso dágua","navegavel":"Desconhecido","larguramedia":null,"regime":"Permanente","encoberto":"Não"},"bbox":[-50.62195512,-23.49349202,-50.59791216,-23.45673098]},{"type":"Feature","id":"BC250_2025_hid_trecho_drenagem_l.9614967","geometry":{"type":"LineString","coordinates":[[-50.67567108,-23.45322998],[-50.67545292,-23.45187206],[-50.67512712,-23.45094902],[-50.67452988,-23.45046005],[-50.67393192,-23.45046005],[-50.67295488,-23.45046005],[-50.67252,-23.45062304],[-50.67170496,-23.451329],[-50.67110808,-23.45236103],[-50.66991288,-23.45322998],[-50.66936892,-23.45366504],[-50.668065,-23.454425],[-50.66697888,-23.45556602],[-50.66638092,-23.45621798],[-50.66507808,-23.45697902],[-50.66377416,-23.45746799],[-50.66219808,-23.45752199],[-50.66046,-23.45779298],[-50.65845012,-23.45844503],[-50.65643988,-23.45947706],[-50.65448508,-23.46067298],[-50.65233804,-23.46225806]]},"geometry_name":"geom","properties":{"nome":"","geometriaaproximada":"Não","tipotrechodrenagem":"Curso dágua","navegavel":"Desconhecido","larguramedia":null,"regime":"Permanente","encoberto":"Não"},"bbox":[-50.67567108,-23.46225806,-50.65233804,-23.45046005]},{"type":"Feature","id":"BC250_2025_hid_trecho_drenagem_l.10030063","geometry":{"type":"LineString","coordinates":[[-50.713164,-23.47287806],[-50.71297212,-23.47174199],[-50.71245588,-23.47072499],[-50.71142196,-23.46958802],[-50.71038804,-23.46857102],[-50.70896496,-23.46761198],[-50.70734712,-23.46713102],[-50.70585888,-23.46635198],[-50.70449988,-23.46593105],[-50.70320496,-23.46557006],[-50.70236508,-23.46485105],[-50.70223692,-23.46389498],[-50.70230496,-23.46252104],[-50.702049,-23.46138506],[-50.70218112,-23.46024998],[-50.70185892,-23.45917403],[-50.70147408,-23.45756006],[-50.70089412,-23.45636405],[-50.69986092,-23.45522699],[-50.69908584,-23.45409002],[-50.69824596,-23.453372],[-50.69747088,-23.45253401],[-50.69650104,-23.45157605],[-50.69592108,-23.45061899],[-50.69534184,-23.44894499],[-50.69495592,-23.44792799],[-50.69437488,-23.44715003],[-50.69346912,-23.44643102],[-50.69185308,-23.44529306],[-50.69030004,-23.44475198],[-50.68907208,-23.44397303],[-50.68790784,-23.44313405],[-50.687262,-23.44229606],[-50.68661796,-23.44115999],[-50.68662084,-23.43954701],[-50.68636488,-23.43859004],[-50.686173,-23.43721601],[-50.68494792,-23.43524105],[-50.68462896,-23.433329],[-50.68469988,-23.43300005]]},"geometry_name":"geom","properties":{"nome":"Ribeirão da Cachoeira","geometriaaproximada":"Não","tipotrechodrenagem":"Curso dágua","navegavel":"Desconhecido","larguramedia":null,"regime":"Permanente","encoberto":"Não"},"bbox":[-50.713164,-23.47287806,-50.68462896,-23.43300005]},{"type":"Feature","id":"BC250_2025_hid_trecho_drenagem_l.10182544","geometry":{"type":"LineString","coordinates":[[-50.69238516,-23.49326504],[-50.69225808,-23.49200999],[-50.69187108,-23.49123302],[-50.69116008,-23.49045506],[-50.69109816,-23.48931899],[-50.69122992,-23.488364],[-50.691177,-23.48794298],[-50.69052108,-23.48704802],[-50.68993896,-23.48650901],[-50.68890396,-23.48579],[-50.688063,-23.48537006],[-50.68709316,-23.48459102],[-50.68625292,-23.48363405],[-50.68605996,-23.483036],[-50.68528416,-23.48261606],[-50.68444284,-23.48225606],[-50.68386108,-23.481956],[-50.68348718,-23.48178704],[-50.68275984,-23.48159501],[-50.68237919,-23.48137111],[-50.68191888,-23.48117498],[-50.68094904,-23.48069501],[-50.67991404,-23.479976],[-50.67907308,-23.47931702],[-50.67829908,-23.47823999],[-50.67797688,-23.477582],[-50.67687708,-23.47692302],[-50.67590616,-23.47662206],[-50.67545736,-23.47645128],[-50.67493596,-23.47626098],[-50.67383508,-23.47590098],[-50.67292788,-23.47595804],[-50.67195588,-23.47607603],[-50.67098496,-23.47601402],[-50.66962488,-23.47607099],[-50.66819784,-23.47654601],[-50.66748396,-23.47714199],[-50.66625204,-23.47761701],[-50.66489304,-23.47731605],[-50.66353296,-23.47737203],[-50.66256204,-23.47707206],[-50.66217504,-23.47635404],[-50.66146404,-23.47563503],[-50.66042904,-23.47509503],[-50.65958916,-23.47449599],[-50.65855308,-23.47425506],[-50.65758288,-23.47383404],[-50.656806,-23.47353398],[-50.65551216,-23.47311305],[-50.65499592,-23.47239503],[-50.65460892,-23.47155704],[-50.65441812,-23.47030199],[-50.65409592,-23.46946499],[-50.65416288,-23.46874805],[-50.65416612,-23.467673],[-50.65442784,-23.46647798],[-50.65443,-23.46582098],[-50.65417296,-23.46498398],[-50.65385112,-23.46408704]]},"geometry_name":"geom","properties":{"nome":"","geometriaaproximada":"Não","tipotrechodrenagem":"Curso dágua","navegavel":"Desconhecido","larguramedia":null,"regime":"Permanente","encoberto":"Não"},"bbox":[-50.69238516,-23.49326504,-50.65385112,-23.46408704]},{"type":"Feature","id":"BC250_2025_hid_trecho_drenagem_l.10454612","geometry":{"type":"LineString","coordinates":[[-50.68169496,-23.52060902],[-50.68215,-23.51989298],[-50.68344816,-23.51905904],[-50.68455012,-23.51876204],[-50.68539288,-23.51852498],[-50.68656,-23.51828801],[-50.68740204,-23.51823005],[-50.68798596,-23.51793305],[-50.68844208,-23.51697806],[-50.68844496,-23.51590202],[-50.68799316,-23.51494505],[-50.68793016,-23.51422802],[-50.68799784,-23.51309303],[-50.687676,-23.51201699],[-50.68729008,-23.51099999],[-50.68651392,-23.51022203],[-50.68573812,-23.509802],[-50.68502604,-23.50932302],[-50.68431504,-23.50878401],[-50.68302012,-23.50830305],[-50.682051,-23.50740503],[-50.68114488,-23.50668602],[-50.68043604,-23.50542998],[-50.67972504,-23.50441298],[-50.67920916,-23.50363502],[-50.67856296,-23.502737],[-50.67798192,-23.50184006],[-50.67675396,-23.50094105],[-50.67610812,-23.49986402],[-50.67487908,-23.49926399],[-50.67429696,-23.49890498],[-50.67365112,-23.498246],[-50.67300384,-23.497886],[-50.672358,-23.49722801],[-50.67190512,-23.49662906],[-50.67106488,-23.49614999],[-50.66983404,-23.49614702],[-50.66879688,-23.49608501],[-50.66782488,-23.49620201],[-50.66665884,-23.49626006],[-50.66568792,-23.49619805],[-50.66361504,-23.49595406],[-50.66225496,-23.495951],[-50.661153,-23.49612803],[-50.65959888,-23.49594605],[-50.65869204,-23.49570503],[-50.65765596,-23.49570206],[-50.65668504,-23.495222],[-50.65552008,-23.49462206],[-50.654097,-23.49402203],[-50.65299612,-23.49389999],[-50.65254612,-23.49270398],[-50.65177104,-23.49174602],[-50.65073496,-23.491325],[-50.64982884,-23.49114401],[-50.64951996,-23.491037]]},"geometry_name":"geom","properties":{"nome":"Ribeirão do Salto","geometriaaproximada":"Não","tipotrechodrenagem":"Curso dágua","navegavel":"Desconhecido","larguramedia":null,"regime":"Permanente","encoberto":"Não"},"bbox":[-50.68844496,-23.52060902,-50.64951996,-23.491037]},{"type":"Feature","id":"BC250_2025_hid_trecho_drenagem_l.11053021","geometry":{"type":"LineString","coordinates":[[-50.64453,-23.46203504],[-50.64375312,-23.46191399],[-50.64297912,-23.46071699],[-50.64213888,-23.45999798],[-50.64142896,-23.459339],[-50.64084792,-23.45862098],[-50.64104484,-23.45760506],[-50.64117804,-23.45623103],[-50.64040404,-23.45521403],[-50.63930316,-23.45503205],[-50.63807304,-23.45508902],[-50.63710104,-23.45514698],[-50.63580288,-23.45615903],[-50.63496012,-23.45651606],[-50.63398812,-23.45651399],[-50.63185296,-23.45585105],[-50.63114088,-23.45567006],[-50.63029884,-23.45572802],[-50.62922496,-23.455928]]},"geometry_name":"geom","properties":{"nome":"Ribeirão do Salto","geometriaaproximada":"Não","tipotrechodrenagem":"Curso dágua","navegavel":"Desconhecido","larguramedia":null,"regime":"Permanente","encoberto":"Não"},"bbox":[-50.64453,-23.46203504,-50.62922496,-23.45503205]},{"type":"Feature","id":"BC250_2025_hid_trecho_drenagem_l.11069457","geometry":{"type":"LineString","coordinates":[[-50.68202508,-23.46390803],[-50.68079208,-23.46492098],[-50.68020708,-23.465936],[-50.67962208,-23.46689099],[-50.678973,-23.46742703],[-50.67774108,-23.46808205],[-50.67624996,-23.46849704],[-50.674824,-23.468852],[-50.67326916,-23.46908798],[-50.67151992,-23.46926402],[-50.67041904,-23.46926105],[-50.66886492,-23.46890006],[-50.66705304,-23.46841802],[-50.66608212,-23.46805703],[-50.66465688,-23.46805406],[-50.66342712,-23.46787199],[-50.66206884,-23.46709304],[-50.66071092,-23.46625298],[-50.65980516,-23.46595202],[-50.65864092,-23.46541202],[-50.65760592,-23.46487202],[-50.65618104,-23.46474998],[-50.65449804,-23.46450698],[-50.65385112,-23.46408704]]},"geometry_name":"geom","properties":{"nome":"","geometriaaproximada":"Não","tipotrechodrenagem":"Curso dágua","navegavel":"Desconhecido","larguramedia":null,"regime":"Permanente","encoberto":"Não"},"bbox":[-50.68202508,-23.46926402,-50.65385112,-23.46390803]},{"type":"Feature","id":"BC250_2025_hid_trecho_drenagem_l.11344981","geometry":{"type":"LineString","coordinates":[[-50.67485892,-23.51331803],[-50.673627,-23.51367398],[-50.67148716,-23.51432702],[-50.670126,-23.51468306],[-50.66895996,-23.51468],[-50.667858,-23.51473805],[-50.666886,-23.51479502],[-50.665914,-23.51491301],[-50.66481204,-23.51503001],[-50.66371116,-23.51490806],[-50.66293608,-23.51401004],[-50.66255016,-23.51281403],[-50.66216496,-23.51137898],[-50.66151912,-23.51036198],[-50.66080884,-23.50958402],[-50.660748,-23.50803098],[-50.66081712,-23.50653698],[-50.66082,-23.50504298],[-50.661018,-23.50384904],[-50.66043696,-23.50313003],[-50.65946604,-23.50253099],[-50.65849584,-23.50187201],[-50.65771896,-23.50175006],[-50.65707204,-23.50127099],[-50.65649208,-23.500433],[-50.65584588,-23.49947603],[-50.65468308,-23.49839801],[-50.653323,-23.49827498],[-50.652288,-23.497436],[-50.65106004,-23.49647804],[-50.65002504,-23.49575804],[-50.64950916,-23.49504002],[-50.64931908,-23.49354602],[-50.64945192,-23.49211304],[-50.64951996,-23.491037]]},"geometry_name":"geom","properties":{"nome":"","geometriaaproximada":"Não","tipotrechodrenagem":"Curso dágua","navegavel":"Desconhecido","larguramedia":null,"regime":"Permanente","encoberto":"Não"},"bbox":[-50.67485892,-23.51503001,-50.64931908,-23.491037]},{"type":"Feature","id":"BC250_2025_hid_trecho_drenagem_l.11382658","geometry":{"type":"LineString","coordinates":[[-50.65385112,-23.46408704],[-50.65346304,-23.46390704],[-50.65314192,-23.46294998],[-50.65233804,-23.46225806]]},"geometry_name":"geom","properties":{"nome":"","geometriaaproximada":"Não","tipotrechodrenagem":"Curso dágua","navegavel":"Desconhecido","larguramedia":null,"regime":"Permanente","encoberto":"Não"},"bbox":[-50.65385112,-23.46408704,-50.65233804,-23.46225806]},{"type":"Feature","id":"BC250_2025_hid_trecho_drenagem_l.11556860","geometry":{"type":"LineString","coordinates":[[-50.65233804,-23.46225806],[-50.651136,-23.46216905],[-50.64997104,-23.46204701],[-50.64893604,-23.46126806],[-50.64835392,-23.46090806],[-50.64751296,-23.46090599],[-50.646798,-23.46150206],[-50.64602004,-23.461859],[-50.64498288,-23.46215501],[-50.64453,-23.46203504]]},"geometry_name":"geom","properties":{"nome":"","geometriaaproximada":"Não","tipotrechodrenagem":"Curso dágua","navegavel":"Desconhecido","larguramedia":null,"regime":"Permanente","encoberto":"Não"},"bbox":[-50.65233804,-23.46225806,-50.64453,-23.46090599]},{"type":"Feature","id":"BC250_2025_hid_trecho_drenagem_l.11595856","geometry":{"type":"LineString","coordinates":[[-50.624712,-23.52551798],[-50.62412988,-23.525039],[-50.62309488,-23.52461798],[-50.62173588,-23.52395801],[-50.620509,-23.52258002],[-50.61999312,-23.52168299],[-50.61954204,-23.52090503],[-50.61850704,-23.52018602],[-50.61799188,-23.51922806],[-50.617539,-23.51880902],[-50.61689208,-23.51844902],[-50.61637404,-23.51832806],[-50.61559788,-23.51796806],[-50.613786,-23.51724599],[-50.61313908,-23.51682605],[-50.613012,-23.51599004],[-50.61320892,-23.51485505],[-50.61334212,-23.51395901],[-50.61373308,-23.51300402],[-50.61354084,-23.51216702],[-50.613543,-23.51139005],[-50.61373992,-23.51067401],[-50.61419496,-23.51007803],[-50.61477996,-23.50942202],[-50.61504096,-23.50870499],[-50.61517308,-23.50786898],[-50.61459204,-23.50733006]]},"geometry_name":"geom","properties":{"nome":"Rio do Lajeado","geometriaaproximada":"Não","tipotrechodrenagem":"Curso dágua","navegavel":"Desconhecido","larguramedia":null,"regime":"Permanente","encoberto":"Não"},"bbox":[-50.624712,-23.52551798,-50.613012,-23.50733006]},{"type":"Feature","id":"BC250_2025_hid_trecho_drenagem_l.11932408","geometry":{"type":"LineString","coordinates":[[-50.69442204,-23.536325],[-50.69584908,-23.535731],[-50.69682288,-23.53513502],[-50.69799,-23.53460006],[-50.69922192,-23.53430306],[-50.70038904,-23.53406699],[-50.70168684,-23.533292],[-50.70265992,-23.53287602],[-50.70408588,-23.53269899],[-50.70570696,-23.53216502],[-50.70739284,-23.53169],[-50.708043,-23.53085498],[-50.70908196,-23.52984104],[-50.70973104,-23.52906506],[-50.71063896,-23.52900701],[-50.71174092,-23.52847205],[-50.71310496,-23.52733904],[-50.71420908,-23.52608606],[-50.71485996,-23.52483299],[-50.71550904,-23.52429605],[-50.71622292,-23.52334106],[-50.71661388,-23.52244601],[-50.71726404,-23.52167003],[-50.71778388,-23.52107405],[-50.71836816,-23.52053702],[-50.71940496,-23.52012104],[-50.72057208,-23.51964503],[-50.72186988,-23.51922905],[-50.72303592,-23.51899199],[-50.724009,-23.51845604],[-50.72472288,-23.51797904],[-50.72589108,-23.51732402],[-50.72874192,-23.51685098],[-50.72913288,-23.51577701],[-50.72984712,-23.51506106],[-50.73075612,-23.51440505],[-50.73185808,-23.51416799],[-50.73360696,-23.51441],[-50.73503292,-23.51423306],[-50.73717096,-23.51387801],[-50.737626,-23.51346104],[-50.73866388,-23.51298503],[-50.73989508,-23.51280701],[-50.74119108,-23.51239103],[-50.74222896,-23.51191502],[-50.74313688,-23.51167805],[-50.74430292,-23.51150003],[-50.745339,-23.51168102],[-50.74592292,-23.511503],[-50.74663608,-23.51096606],[-50.747868,-23.510909],[-50.74884,-23.510432],[-50.750136,-23.51043398],[-50.75110692,-23.51127206],[-50.75214192,-23.51181206],[-50.75291808,-23.51247005],[-50.75382312,-23.51348705],[-50.75421012,-23.51444402],[-50.75518212,-23.51456498],[-50.75570016,-23.51480501],[-50.75680104,-23.51486603],[-50.75770788,-23.51504702]]},"geometry_name":"geom","properties":{"nome":"Ribeirão do Aprígio","geometriaaproximada":"Não","tipotrechodrenagem":"Curso dágua","navegavel":"Desconhecido","larguramedia":null,"regime":"Permanente","encoberto":"Não"},"bbox":[-50.75770788,-23.536325,-50.69442204,-23.510432]},{"type":"Feature","id":"BC250_2025_hid_trecho_drenagem_l.12555351","geometry":{"type":"LineString","coordinates":[[-50.64951996,-23.491037],[-50.64866496,-23.49054398],[-50.64775812,-23.49030305],[-50.64698304,-23.48946506],[-50.64679188,-23.48832899],[-50.64647004,-23.48743205],[-50.64679584,-23.48671601],[-50.64666804,-23.48605802],[-50.64615216,-23.48534],[-50.64595992,-23.48444405],[-50.64576912,-23.48324804],[-50.64635412,-23.48229404],[-50.64622704,-23.48151698],[-50.64603588,-23.48044103],[-50.64655608,-23.47966505],[-50.64668712,-23.47894802],[-50.64675408,-23.47811201],[-50.646627,-23.47727501],[-50.64611112,-23.47643801],[-50.64486616,-23.47577066],[-50.64365304,-23.47529699],[-50.64235812,-23.47499504],[-50.64203592,-23.47433705],[-50.64197508,-23.47296302],[-50.64207084,-23.47263101],[-50.64170292,-23.47182002],[-50.641659,-23.47021406],[-50.64172488,-23.46949703],[-50.64198696,-23.46860099],[-50.64172992,-23.46788405],[-50.64179796,-23.466629],[-50.64283584,-23.46597398],[-50.64355008,-23.465378],[-50.644134,-23.465081],[-50.645106,-23.46454505],[-50.64530184,-23.46400802],[-50.64517404,-23.46353003],[-50.64472296,-23.46275198],[-50.64453,-23.46203504]]},"geometry_name":"geom","properties":{"nome":"Ribeirão do Salto","geometriaaproximada":"Não","tipotrechodrenagem":"Curso dágua","navegavel":"Desconhecido","larguramedia":null,"regime":"Permanente","encoberto":"Não"},"bbox":[-50.64951996,-23.491037,-50.641659,-23.46203504]},{"type":"Feature","id":"BC250_2025_hid_trecho_drenagem_l.9426910","geometry":{"type":"LineString","coordinates":[[-50.62922496,-23.455928],[-50.62975308,-23.45522303],[-50.63014404,-23.45432798],[-50.63001696,-23.45349098],[-50.628852,-23.45319002],[-50.62794696,-23.452769],[-50.62729896,-23.45270798],[-50.626719,-23.45186999],[-50.62607388,-23.45097206],[-50.62510404,-23.45025305],[-50.62471812,-23.449475],[-50.62491396,-23.44905803],[-50.62491504,-23.44840004],[-50.62439916,-23.44780199],[-50.62466016,-23.44714499],[-50.625891,-23.44673],[-50.62725288,-23.44607606],[-50.629329,-23.44464704],[-50.63017392,-23.44375298],[-50.63037012,-23.44291706],[-50.63115096,-23.441843],[-50.63212404,-23.440889],[-50.63303304,-23.43999503],[-50.63297292,-23.438621],[-50.63297508,-23.43772505],[-50.63388408,-23.43689003],[-50.63420988,-23.43599498],[-50.63498604,-23.436236],[-50.63589216,-23.43665603],[-50.63666796,-23.43695699],[-50.63744484,-23.43689903],[-50.638221,-23.43737801],[-50.63873688,-23.43833498],[-50.63918688,-23.43953198],[-50.63983092,-23.44048904],[-50.64047712,-23.44120706],[-50.64138108,-23.44210598],[-50.64202692,-23.44288403],[-50.64332184,-23.44276703],[-50.64436008,-23.44217204],[-50.64494508,-23.44127699],[-50.64468804,-23.44043999],[-50.643846,-23.44037906],[-50.64287508,-23.44037699],[-50.64216408,-23.440016],[-50.64177708,-23.43947798],[-50.64145596,-23.43822203],[-50.64100596,-23.43726506],[-50.64061896,-23.43654704],[-50.63997312,-23.43600803],[-50.639067,-23.43588698],[-50.63855184,-23.43481004],[-50.63829516,-23.43391301],[-50.63732604,-23.433194],[-50.63654988,-23.432834],[-50.635836,-23.43337004],[-50.63531616,-23.43414503],[-50.63440788,-23.43485999],[-50.63343696,-23.43455903],[-50.63279184,-23.43360206],[-50.632668,-23.43174905],[-50.63299488,-23.430674],[-50.633127,-23.42965898],[-50.63325804,-23.428883],[-50.63416704,-23.42804798],[-50.63578812,-23.42727506],[-50.63617692,-23.42709704],[-50.636115,-23.426201],[-50.63586084,-23.42434799],[-50.63638104,-23.42333306],[-50.63690196,-23.422259],[-50.63761692,-23.42148401],[-50.63781384,-23.42046899],[-50.63755788,-23.41921304],[-50.63785812,-23.41876304]]},"geometry_name":"geom","properties":{"nome":"Rio Congonhas","geometriaaproximada":"Não","tipotrechodrenagem":"Curso dágua","navegavel":"Desconhecido","larguramedia":null,"regime":"Permanente","encoberto":"Não"},"bbox":[-50.64494508,-23.455928,-50.62439916,-23.41876304]},{"type":"Feature","id":"BC250_2025_hid_trecho_drenagem_l.9532208","geometry":{"type":"LineString","coordinates":[[-50.57423388,-23.45251205],[-50.57404416,-23.45170304],[-50.57404884,-23.45014901],[-50.575023,-23.44913606],[-50.57599608,-23.44866104],[-50.57703288,-23.448485],[-50.57813412,-23.44848806],[-50.57910288,-23.44914704],[-50.57988012,-23.44926899],[-50.58175896,-23.44903499],[-50.58376884,-23.44826405],[-50.58487116,-23.44790801],[-50.58530351,-23.44759833],[-50.58629784,-23.44695599],[-50.58694908,-23.44606103],[-50.58753408,-23.445227],[-50.58782608,-23.4448719],[-50.58857412,-23.44403405],[-50.58909396,-23.443319],[-50.58955116,-23.442185],[-50.58994392,-23.440871],[-50.58995004,-23.43872],[-50.58988884,-23.43764504],[-50.58976284,-23.43638999],[-50.59021896,-23.43561401],[-50.59041588,-23.43471806],[-50.59061208,-23.43400202],[-50.59061496,-23.43310598],[-50.58996984,-23.43232703],[-50.58952488,-23.43158003],[-50.58907704,-23.43108602],[-50.58906516,-23.43083105],[-50.58971712,-23.43029501],[-50.59062396,-23.43029798],[-50.59165788,-23.43083798],[-50.59308096,-23.431439],[-50.59456884,-23.43186101],[-50.59547496,-23.43192302],[-50.59631412,-23.43168704],[-50.596587,-23.43164402],[-50.59780992,-23.43079406],[-50.59884816,-23.42996003],[-50.59962684,-23.42924498],[-50.60021112,-23.42888903],[-50.60118312,-23.42853299],[-50.60280204,-23.42859599],[-50.60403216,-23.42854001],[-50.60513304,-23.42854298],[-50.60603988,-23.42830601],[-50.60733696,-23.42783099],[-50.60830788,-23.42783405],[-50.609538,-23.42765702],[-50.61102804,-23.42742203],[-50.61212892,-23.427425],[-50.61283992,-23.42790506],[-50.61290112,-23.42909999],[-50.61315708,-23.43029501],[-50.61360708,-23.43125198],[-50.61483684,-23.43143504],[-50.61555,-23.43131705],[-50.61717,-23.43066401],[-50.62001904,-23.43067103],[-50.62066884,-23.42995499],[-50.62144788,-23.42924003],[-50.62248504,-23.42894402],[-50.62403808,-23.42900702],[-50.62481496,-23.429009],[-50.62533588,-23.42823401],[-50.62507812,-23.42757602],[-50.62469292,-23.42655902],[-50.62469508,-23.42584199],[-50.62502088,-23.42512604],[-50.62573512,-23.42453006],[-50.62651596,-23.42309798],[-50.62709988,-23.42238302],[-50.62774896,-23.42184698],[-50.62865688,-23.421251],[-50.63001804,-23.42071703],[-50.63124996,-23.42042102],[-50.63267484,-23.42006606],[-50.634036,-23.419352],[-50.63494392,-23.419055],[-50.63604516,-23.41887905],[-50.63701608,-23.41876106],[-50.63785812,-23.41876304]]},"geometry_name":"geom","properties":{"nome":"","geometriaaproximada":"Não","tipotrechodrenagem":"Curso dágua","navegavel":"Desconhecido","larguramedia":null,"regime":"Permanente","encoberto":"Não"},"bbox":[-50.63785812,-23.45251205,-50.57404416,-23.41876106]}],"totalFeatures":16,"numberMatched":16,"numberReturned":16,"timeStamp":"2026-09-06T17:14:29.060Z","crs":{"type":"name","properties":{"name":"urn:ogc:def:crs:EPSG::4326"}},"bbox":[-50.75770788,-23.536325,-50.57404416,-23.41876106]}